Area Code,City,Province Code,,Ref,Postal,Province,Region,Local,Lat,Long,,Advisor Emails,,Exclude Names,Exclude before @,Exclude domains
204,Manitoba,MB,,T,T0A,AB,Alberta,Eastern Alberta (St. Paul),54.766,-111.717,,ig.ca,,12,1,aim.com
226,London,ON,,T,T0B,AB,Alberta,Wainwright Region (Tofield),53.0727,-111.582,,argosynet.ca,,20,_0,c.com
236,Vancouver,BC,,T,T0C,AB,Alberta,Central Alberta (Stettler),52.1431,-111.694,,eastlink.ca,,24,---,coldmail.com
249,Sudbury,ON,,T,T0E,AB,Alberta,Western Alberta (Jasper),53.6758,-115.095,,tbaytel.net,,44,2016c7,email.com
250,Kelowna,BC,,T,T0G,AB,Alberta,North Central Alberta (Slave Lake),55.6993,-114.453,,holliswealth.com,,45,3brats,endthekilling.ca
289,Hamilton,ON,,T,T0H,AB,Alberta,Northwestern Alberta (High Level),57.5403,-116.915,,raymondjames.ca,,47,aloogoobi3,fakemail.com
306,Saskatchewan,SK,,T,T0J,AB,Alberta,Southeastern Alberta (Drumheller),50.9944,-111.463,,assante.com,,54,assss,fastmail.com
343,Ottawa,ON,,T,T0K,AB,Alberta,International Border Region (Cardston),49.4721,-112.241,,f55f.com,,60,b,fattaanm.com
365,Hamilton,ON,,T,T0L,AB,Alberta,Kananaskis Country (Claresholm),50.6314,-114.409,,igpwm.ca,,–ù–Ω–Ω,blal,fmail.com
367,Quebec,QC,,T,T0M,AB,Alberta,Central Foothills (Sundre),51.9552,-114.869,,accesscomm.ca,,...,bob,fr.fa
403,Calgary,AB,,T,T0P,AB,Alberta,Northeastern Alberta (Fort Chipewyan),58.2626,-110.747,,atb.com,,7-Eleven,bullet.72,gamil.com
416,Toronto,ON,,T,T0V,AB,Alberta,Remote Northeast (Fitzgerald),59.9049,-111.672,,freedom55financial.com,,Aaa,c4865,ggg.hh
418,Quebec,QC,,T,T1A,AB,Alberta,Medicine Hat Central,50.0816,-110.579,,manulifesecurities.ca,,Aaaa,classychevy4x4,gmai.com
431,Manitoba,MB,,T,T1B,AB,Alberta,Medicine Hat South,49.835,-110.52,,firstfoundation.ca,,abc,d22314,gmaik.com
437,Toronto,ON,,T,T1C,AB,Alberta,Medicine Hat North,50.0774,-110.691,,protonmail.com,,ABCD,deleteme+d.joseph.kosir\,gmail.ca
438,Montreal,QC,,T,T1G,AB,Alberta,Taber,49.787,-112.146,,rivwealth.com,,ABCSharkTank,digger,gmail.clm
450,Granby,QC,,T,T1H,AB,Alberta,Lethbridge North,49.7,-112.819,,thereframegroup.com,,ads,dmddemprhkkkrepwwg,gmail.com@example.com
506,New Brunswick,NB,,T,T1J,AB,Alberta,Lethbridge West and Central,49.6581,-112.748,,alignedcp.com,,Advisor,do_u_know_me,gmail.con
514,Montreal,QC,,T,T1K,AB,Alberta,Lethbridge Southeast,49.6511,-112.835,,cardinal.ca,,And,dv373415,gmaul.com
519,London,ON,,T,T1L,AB,Alberta,Banff,51.1762,-115.57,,cgf.com,,Apple,escapefromdhell,gomail4.com
548,London,ON,,T,T1M,AB,Alberta,Coaldale,49.7167,-112.619,,cooperators.ca,,asshole,fakenews,hatmail.com
579,Granby,QC,,T,T1P,AB,Alberta,Strathmore,51.0501,-113.385,,dccnet.com,,B5,fuckoff,hitmail.com
581,Quebec,QC,,T,T1R,AB,Alberta,Brooks,50.5834,-111.885,,dethomaswealth.com,,bah,fuckthis,hohoho.com
587,Calgary,AB,,T,T1S,AB,Alberta,Okotoks,50.7362,-113.97,,goodwinfinancial.ca,,Bbb,fyou,hormail.com
604,Vancouver,BC,,T,T1V,AB,Alberta,High River,50.5834,-113.869,,greentreewealth.ca,,Bdd,ggjkkkko,hotmail.com@example.com
613,Ottawa,ON,,T,T1W,AB,Alberta,Canmore,51.0876,-115.346,,harbourfrontwealth.com,,Big D,god_is_lonely_69,hotmil.com
639,Saskatchewan,SK,,T,T1X,AB,Alberta,Chestermere,51.0334,-113.819,,ipcc.org,,Blah,hbep,hotnail.con
647,Toronto,ON,,T,T1Y,AB,Alberta,Calgary (Rundle / Whitehorn / Monterey Park),51.0823,-113.958,,ipcsecurities.com,,Bong,hddpx,mail.ru
705,Sudbury,ON,,T,T1Z,AB,Alberta,Rocky View,51.1834,-113.935,,keybase.com,,Boo,hhg,man.com
709,Newfoundland/Labrador,NL,,T,T2A,AB,Alberta,Calgary (Penbrooke Meadows / Marlborough),51.0494,-113.956,,lawtonpartners.ca,,Booby,hhgy,no.co
778,Vancouver,BC,,T,T2B,AB,Alberta,Calgary (Forest Lawn / Dover / Erin Woods),51.0209,-113.981,,2020wealth.com,,Booger,jojo,no.com
780,Edmonton,AB,,T,T2C,AB,Alberta,Calgary (Lynnwood Ridge / Ogden / Foothills Industrial / Great Plains),50.987,-113.963,,acanac.net,,bullshit,jvdje,noemail.com
782,Nova Scotia/PE Island,NS/PEI,,T,T2E,AB,Alberta,Calgary (Bridgeland / Greenview / Zoo / YYC),51.0876,-114.021,,affinitycapital.ca,,Ccccc,k8e59,outlook.vom
807,Kenora,ON,,T,T2G,AB,Alberta,Calgary (Inglewood / Burnsland / Chinatown / East Victoria Park / Saddledome),51.0272,-114.035,,affluencepartners.com,,Cool,kf139059,scammers.com
819,Sherbrooke,QC,,T,T2H,AB,Alberta,Calgary (Highfield / Burns Industrial),50.9894,-114.052,,ajg.com,,Cry,kristas6669,yahoo.xa
825,Calgary,AB,,T,T2J,AB,Alberta,Calgary (Queensland Downs / Lake Bonavista / Willow Park / Acadia),50.8476,-114.196,,arpadwealth.ca,,Daaaa,me,23.com
867,Northern Canada,NORTH,,T,T2K,AB,Alberta,Calgary (Thornecliffe / Tuxedo),51.1111,-114.048,,axion.net,,Dad,never,233.com
873,Sherbrooke,QC,,T,T2L,AB,Alberta,Calgary (Brentwood / Collingwood / Nose Hill),51.1047,-114.115,,beyondwealth.ca,,Dead,no,a.com
902,Nova Scotia/PE Island,NS/PEI,,T,T2M,AB,Alberta,Calgary (Mount Pleasant / Capitol Hill / Banff Trail),51.133,-113.856,,bmts.com,,Dee,noemail,aaa.ca
905,Hamilton,ON,,T,T2N,AB,Alberta,Calgary (Kensington / Westmont / Parkdale / University),51.0621,-114.116,,brightrock.ca,,deez,noneodyour,aaa.com
,,,,T,T2P,AB,Alberta,Calgary (City Centre / Calgary Tower),51.0708,-113.693,,bristolgate.com,,Doesn’t,nothingisclear,ahaw.ca
,,,,T,T2R,AB,Alberta,Calgary (Connaught / West Victoria Park),51.0412,-114.076,,caldwellsecurities.com,,Doesn’t matter,p,ahoo.com
,,,,T,T2S,AB,Alberta,Calgary (Elbow Park / Britannia / Parkhill / Mission),51.0233,-114.071,,canadalife.com,,dog,planswell,aqwege.com
,,,,T,T2T,AB,Alberta,Calgary South (Altadore / Bankview / Richmond),51.0242,-114.1,,castlefinancial.net,,Don,poop,b.ca
,,,,T,T2V,AB,Alberta,Calgary (Oak Ridge / Haysboro / Kingsland / Windsor Park),50.9819,-114.1,,cbawealth.com,,donnnnnnnnnnnnnnnnnn,pshkjff,b.com
,,,,T,T2W,AB,Alberta,Calgary (Braeside / Woodbine),50.9514,-114.359,,centurianfinancial.com,,Drrdrd,redbulljoyride,bk.ru
,,,,T,T2X,AB,Alberta,Calgary (Midnapore / Sundance),50.8837,-114.033,,chinookfinancial.com,,dsafdaf,stirfryrice,blah.com
,,,,T,T2Y,AB,Alberta,Calgary (Millrise / Somerset / Bridlewood / Evergreen),50.9093,-114.103,,claritywc.ca,,Dude,tartspam,blow.com
,,,,T,T2Z,AB,Alberta,Calgary (Douglas Glen / McKenzie Lake / Copperfield / East Shepard),50.9278,-113.968,,clearfocusfinancial.ca,,Duhhh,v125103,bmr.ca
,,,,T,T3A,AB,Alberta,Calgary (Dalhousie / Edgemont / Hamptons / Hidden Valley),51.1264,-114.142,,cmfa.nf.net,,English,whybotherask,bvrh.ca
,,,,T,T3B,AB,Alberta,Calgary (Montgomery / Bowness / Silver Springs / Greenwood),51.0915,-114.207,,connectwealth.ca,,Example,woofyboy,c.ca
,,,,T,T3C,AB,Alberta,Calgary (Rosscarrock / Wildwood / Shaganappi / Sunalta),51.0497,-114.139,,dfsfinancial.ca,,Fake,xoxj,cat.com
,,,,T,T3E,AB,Alberta,Calgary (Lakeview / Glendale / Killarney / Glamorgan),50.9899,-114.157,,dietzfinancial.com,,fake account,xxxodeus,cccc.com
,,,,T,T3G,AB,Alberta,Calgary (Hawkwood / Arbour Lake / Royal Oak / Rocky Ridge),51.1387,-114.202,,ebgfinancial.ca,,Fauck,yes,chclzq.com
,,,,T,T3H,AB,Alberta,Calgary (Discovery Ridge / Signal Hill / Aspen Woods / Patterson / Cougar Ridge),51.0419,-114.2,,evansec.com,,Fgrty,12jcc6,chef.ne
,,,,T,T3J,AB,Alberta,Calgary (Martindale / Taradale / Falconridge / Saddle Ridge),51.1188,-113.947,,excaliburplanning.com,,Fhhh,a,coe.ptt
,,,,T,T3K,AB,Alberta,Calgary (Sandstone / Harvest Hills / Coventry Hills / Panorama Hills / Beddington),51.1563,-114.057,,fieldhousecap.com,,First,aa230315,crrstv.net
,,,,T,T3L,AB,Alberta,Calgary (Tuscany / Scenic Acres),51.1467,-114.313,,financialbenefitsgroup.com,,First Name,aaa,dd.con
,,,,T,T3M,AB,Alberta,Calgary (Cranston),50.8796,-113.956,,futurevalues.com,,Fuck,aaaaa,dodo.com
,,,,T,T3N,AB,Alberta,Calgary Northeast,51.1626,-113.954,,gmx.com,,Fuck you,b.o.o.k.f.a.c.e,e.con
,,,,T,T3P,AB,Alberta,Calgary (Symons Valley),51.2074,-114.135,,gnfinancial.ca,,fucker,basketball_rulz08,fd.ca
,,,,T,T3R,AB,Alberta,Calgary Northwest,51.2021,-114.245,,golden.net,,Fuckhead,bbb,ffg.com
,,,,T,T3S,AB,Alberta,Calgary,50.9153,-113.893,,golife.ca,,fuk,blah,ffyp.ca
,,,,T,T3Z,AB,Alberta,Redwood Meadows,51.0691,-114.473,,gpwealth.ca,,Fuker,blah2,fish-ner.ca
,,,,T,T4A,AB,Alberta,Airdrie East,51.2799,-113.988,,graywealth.ca,,fuzzy,bulshit,fuckoff.com
,,,,T,T4B,AB,Alberta,Airdrie West,51.3082,-114.04,,guthrofinancial.com,,G$,but,fuckyou.com
,,,,T,T4C,AB,Alberta,Cochrane,51.1834,-114.469,,hamptonsecurities.com,,g6,c,fugue.net
,,,,T,T4E,AB,Alberta,Red Deer County,52.2765,-113.706,,helmmanagement.ca,,Gay,ccccc,g.com
,,,,T,T4G,AB,Alberta,Innisfail,52.0269,-113.951,,iagto.ca,,Ggg,cj57cj57,gffd.com
,,,,T,T4H,AB,Alberta,Olds,51.7834,-114.102,,idcwin.ca,,GGHGHG,cspahm,gg.com
,,,,T,T4J,AB,Alberta,Ponoka,52.6768,-113.582,,infomoney.ca,,Happy,d,gilfun.com
,,,,T,T4L,AB,Alberta,Lacombe,52.4668,-113.735,,ivoryplanninggroup.ca,,Heading,dddddd,gishpuppy.com
,,,,T,T4M,AB,Alberta,Blackfalds,52.3834,-113.785,,ivorywealth.ca,,hello,desistfromsendingjunk,gmail.ckm
,,,,T,T4N,AB,Alberta,Red Deer Central,52.2316,-113.836,,justwealth.com,,Hey,dfff,gmail.co
,,,,T,T4P,AB,Alberta,Red Deer North,52.2954,-113.807,,kindlefinancial.com,,Hgg,dffff,gmail.col
,,,,T,T4R,AB,Alberta,Red Deer South,52.2424,-113.778,,kos.net,,hghghghghg,dhdjs,gmail.comcom
,,,,T,T4S,AB,Alberta,Sylvan Lake,52.3168,-114.085,,kscu.com,,Hhff,dude,gmail.comdd
,,,,T,T4T,AB,Alberta,Rocky Mountain House,52.3668,-114.919,,leedejonesgable.com,,Hi,e,gmail.comm
,,,,T,T4V,AB,Alberta,Camrose,53.0168,-112.835,,mackieresearch.com,,Hoo,e.g.cabby,gmail.vom
,,,,T,T4X,AB,Alberta,Beaumont,53.3501,-113.419,,matthewpatafie.com,,Iiii,emailfortheuntrusted,gmailllsome.com
,,,,T,T5A,AB,Alberta,Edmonton (West Clareview / East Londonderry),53.5931,-113.408,,mctaguefinancial.com,,Info,fake,gmaol.com
,,,,T,T5B,AB,Alberta,Edmonton (East North Central / West Beverly),53.7353,-113.337,,mdlfinancialgroup.ca,,it doesn't matter,fdvutddfg,gmdil.com
,,,,T,T5C,AB,Alberta,Edmonton (Central Londonderry),53.5996,-113.455,,melissahuston.com,,IUnknown,fuck,gmsil.co
,,,,T,T5E,AB,Alberta,Edmonton (West Londonderry / East Calder),53.7454,-113.447,,mercatorfinancial.ca,,J100,fuckyou,gmsil.com
,,,,T,T5G,AB,Alberta,Edmonton (North Central / Queen Mary Park / YXD),53.5705,-113.505,,mfgltd.com,,Jeeeeep,fundingresults,gmul.com
,,,,T,T5H,AB,Alberta,Edmonton (North and East Downtown Fringe),53.5514,-113.492,,mnsi.net,,Jjbbbhhg,gfoujy,gnail.com
,,,,T,T5J,AB,Alberta,Edmonton (North Downtown),53.5428,-113.497,,mobiusplanning.com,,kkkkk,gg,gnail.con
,,,,T,T5K,AB,Alberta,Edmonton (South Downtown / South Downtown Fringe),53.5366,-113.51,,niagararegionmoneycoaches.com,,Lake,ggreencorn,googlemail.com
,,,,T,T5L,AB,Alberta,Edmonton (North Westmount / West Calder / East Mistatim),53.585,-113.553,,northfront.com,,Lllll,ghggyu,gueloh.ca
,,,,T,T5M,AB,Alberta,Edmonton (South Westmount / Groat Estate / East Northwest Industrial),53.563,-113.566,,oaktreefinancial.ca,,lol,gofuckyourself,h.com
,,,,T,T5N,AB,Alberta,Edmonton (Glenora / SW Downtown Fringe),53.5436,-113.557,,opendoorfinancial.ca,,M1,hhhhhh,hatethis.com
,,,,T,T5P,AB,Alberta,Edmonton (North Jasper Place),53.5463,-113.596,,pangaea-asset.com,,mama,ihf,hay.net
,,,,T,T5R,AB,Alberta,Edmonton (Central Jasper Place / Buena Vista),53.5181,-113.58,,parallelwealth.com,,Mashed Potatoes,janedoe,hdjekeijd.com
,,,,T,T5S,AB,Alberta,Edmonton (West Northwest Industrial / Winterburn),53.5634,-113.67,,pebplans.com,,Me,jfkdjd,hey.com
,,,,T,T5T,AB,Alberta,Edmonton West (West Jasper Place / West Edmonton Mall),53.5185,-113.658,,perlerfinancial.com,,Mom,jojo12345678,hg.cj
,,,,T,T5V,AB,Alberta,Edmonton (Central Mistatim),53.5848,-113.622,,pinnaclewealth.ca,,Mr. X,jrljlr,hgd.it
,,,,T,T5W,AB,Alberta,Edmonton (Central Beverly),53.5645,-113.402,,redcliffe.ca,,My,learntoinvestyourself,hh.com
,,,,T,T5X,AB,Alberta,Edmonton (East Castledowns),53.6313,-113.525,,retirementnavigator.ca,,Myself,lifeisfunny77,hhjk.com
,,,,T,T5Y,AB,Alberta,Edmonton (Landbank / Oliver / East Lake District),53.6585,-113.361,,richardsongmp.com,,N/A,m,hmail.com
,,,,T,T5Z,AB,Alberta,Edmonton (West Lake District),53.6365,-113.467,,scenicdrive.ca,,NA,me_13_7,homail.com
,,,,T,T6A,AB,Alberta,Edmonton (North Capilano),53.5482,-113.432,,stintonfinancial.com,,Name,newcum,home.com
,,,,T,T6B,AB,Alberta,Edmonton (SE Capilano / West Southeast Industrial / East Bonnie Doon),53.5128,-113.419,,tkfg.ca,,nice,no769,hormail.ca
,,,,T,T6C,AB,Alberta,Edmonton (Central Bonnie Doon),53.522,-113.459,,tophatadvisory.ca,,No,noname,hotma.com
,,,,T,T6E,AB,Alberta,Edmonton (South Bonnie Doon / East University),53.4914,-113.48,,unitz.ca,,No thanks,none,hotmai.com
,,,,T,T6G,AB,Alberta,Edmonton (West University / Strathcona Place),53.521,-113.532,,upfinancial.ca,,Noname,nope,hotmail.co
,,,,T,T6H,AB,Alberta,Edmonton (Southgate / North Riverbend),53.3753,-113.459,,vianet.ca,,none,nospam,hotmail.cok
,,,,T,T6J,AB,Alberta,Edmonton (Kaskitayo),53.4564,-113.521,,viscontifinancial.ca,,None of your business,onion1,hotmail.de
,,,,T,T6K,AB,Alberta,Edmonton (West Mill Woods),53.4609,-113.452,,visionarywealthplanning.ca,,Noneofyourbusiness,planswwll,hotmsil.com
,,,,T,T6L,AB,Alberta,Edmonton (East Mill Woods),53.4593,-113.415,,wealthable.ca,,Noneyobusiness,rbjspam,hotnmail.com
,,,,T,T6M,AB,Alberta,Edmonton Southwest,53.4593,-113.655,,wealthsmart.ca,,Nope,retirementcalculator,hsish.com
,,,,T,T6N,AB,Alberta,Edmonton (South Industrial),53.465,-113.478,,weyburnsecurity.ca,,NoRequired,rjrhrh,idonttthink.com
,,,,T,T6P,AB,Alberta,Edmonton (East Southeast Industrial / South Clover Bar),53.5078,-113.372,,wprivate.ca,,NoSpam,sdc,in.com
,,,,T,T6R,AB,Alberta,Edmonton (Riverbend),53.4567,-113.58,,xplornet.ca,,Notrequired,sexythickchick,itsru.com
,,,,T,T6S,AB,Alberta,Edmonton (North Clover Bar),53.5806,-113.337,,yourmoola.ca,,Null,shdhjsnx,jdit.ca
,,,,T,T6T,AB,Alberta,Edmonton (Meadows),53.4617,-113.371,,120eglinton.com,,Oh,shopping,jen.ca
,,,,T,T6V,AB,Alberta,Edmonton (West Castledowns),53.6112,-113.575,,123retire.ca,,Old Man,smileitmakespeoplewonder,just_testing.com
,,,,T,T6W,AB,Alberta,Edmonton (Heritage Valley),53.4179,-113.579,,163.com,,Pack,solohub,justtesting.com
,,,,T,T6X,AB,Alberta,Edmonton (Ellerslie),53.4154,-113.418,,18assetmanagement.com,,Papa,spamfortim,knet.ca
,,,,T,T7A,AB,Alberta,Drayton Valley,53.2168,-114.985,,1fc.ca,,Peepeehead,teetothedee,literallyretarded.com
,,,,T,T7E,AB,Alberta,Edson,53.5834,-116.436,,1stchoicesavings.ca,,Perfect,test,live.comp
,,,,T,T7N,AB,Alberta,Barrhead,54.1334,-114.402,,360wss.com,,Pet,testing911,live.cs
,,,,T,T7P,AB,Alberta,Westlock,54.1502,-113.869,,365financial.ca,,Plan,thisisfake5631,lmi.ca
,,,,T,T7S,AB,Alberta,Whitecourt,54.1501,-115.686,,3ifinancial.com,,Planswell,tinkerpixie,lsjd.com
,,,,T,T7V,AB,Alberta,Hinton,53.4001,-117.586,,3macs.com,,Poo,tvdruggedzombie,m.faa
,,,,T,T7X,AB,Alberta,Spruce Grove North,53.5334,-113.919,,4sightfinancial.net,,Poop,v,mail.com
,,,,T,T7Y,AB,Alberta,Spruce Grove South,53.4184,-113.81,,aaalicpa.com,,Random,wineplanks,maildrop.cc
,,,,T,T7Z,AB,Alberta,Stony Plain,53.5334,-114.002,,aacefinancial.com,,rrr,write,marahadj.com
,,,,T,T8A,AB,Alberta,Sherwood Park West,53.528,-113.251,,aamfinancial.com,,Sample,bullshit,mbox.re
,,,,T,T8B,AB,Alberta,Sherwood Park Outer Southwest,53.4397,-113.295,,abacusgroup.net,,Secret,fool,me.con
,,,,T,T8C,AB,Alberta,Sherwood Park Inner Southwest,53.4391,-113.19,,abacuswealthmgmt.com,,She,nothing,mmm.com
,,,,T,T8E,AB,Alberta,Sherwood Park Central,53.5225,-113.102,,abarquezgroup.com,,Shhhh,fakefakerson,msn.cm
,,,,T,T8G,AB,Alberta,Sherwood Park East,53.5052,-112.953,,abbottwealth.com,,shit,imachum,mts.cim
,,,,T,T8H,AB,Alberta,Sherwood Park Northwest,53.556,-113.295,,abergfinancial.com,,Shit head,52752,myself.com
,,,,T,T8L,AB,Alberta,Fort Saskatchewan,53.7168,-113.219,,abilitywealthmanagement.com,,Something,7782956631,nni.io
,,,,T,T8N,AB,Alberta,St. Albert,53.6334,-113.635,,abramsfinancial.ca,,Soo,,nomail.com
,,,,T,T8R,AB,Alberta,Morinville,53.8001,-113.652,,abundance.ca,,Sorry,,nope.com
,,,,T,T8S,AB,Alberta,Peace River,56.2501,-117.286,,abundant.ca,,Sss,,nor-val.com
,,,,T,T8T,AB,Alberta,St. Albert,53.6867,-113.71,,acadian-asset.com,,Stuff,,nospam.com
,,,,T,T8V,AB,Alberta,Grande Prairie Central,55.1808,-118.91,,acadie.com,,test,,not.clunus
,,,,T,T8W,AB,Alberta,Grande Prairie South,55.1303,-118.795,,accesscu.ca,,testing,,ofmailer.net
,,,,T,T8X,AB,Alberta,Grande Prairie East,55.1834,-118.746,,accilentcapital.com,,Thanks,,olia.me
,,,,T,T9A,AB,Alberta,Wetaskiwin,52.9668,-113.369,,accuplanfinancial.com,,The,,outlook.con
,,,,T,T9C,AB,Alberta,Vegreville,53.5001,-112.052,,achtba.ca,,The plan,,punko.ca
,,,,T,T9E,AB,Alberta,Leduc,53.2668,-113.552,,acicdn.ca,,truck,,rigers.com
,,,,T,T9G,AB,Alberta,Devon,53.3668,-113.735,,acmefinancial.ca,,Turd,,rogers.xom
,,,,T,T9H,AB,Alberta,Fort McMurray Outer Central,56.664,-111.136,,acpol.com,,viewer,,ruru.be
,,,,T,T9J,AB,Alberta,Fort McMurray Inner Central,56.707,-111.377,,acquaintfinancial.com,,What,,sam.com
,,,,T,T9K,AB,Alberta,Fort McMurray Northwest,56.7538,-111.435,,activus.com,,Whatever,,sdfcc.com
,,,,T,T9M,AB,Alberta,Cold Lake,54.4502,-110.202,,adamsjamieson.com,,Whocares,,silomail.com
,,,,T,T9N,AB,Alberta,Bonnyville,54.2668,-110.735,,addenda-capital.com,,Why,,ssss.ca
,,,,T,T9S,AB,Alberta,Athabasca,54.7169,-113.285,,addendacapital.com,,Wtf,,suckme.net
,,,,T,T9V,AB,Alberta,Lloydminster,53.2717,-110.085,,adenleungcpa.com,,Xx,,test.cim
,,,,T,T9W,AB,Alberta,Wainwright,52.839,-110.857,,admiralinc.ca,,Xxx,,test.net
,,,,T,T9X,AB,Alberta,Vermilion,53.3669,-110.852,,adpfinancial.ca,,Xxxxxx,,thebengo.com
,,,,V,V5K,BC,British Columbia,Vancouver (North Hastings-Sunrise),49.2807,-123.04,,adrianshortcga.com,,Xy,,totochi.site
,,,,V,V5L,BC,British Columbia,Vancouver (North Grandview-Woodlands),49.2795,-123.067,,advantageadvisors.ca,,xyx,,ttirv.org
,,,,V,V5M,BC,British Columbia,Vancouver (South Hastings-Sunrise / North Renfrew-Collingwood),49.26,-123.04,,advantagegroup.org,,xyz,,v.com
,,,,V,V5N,BC,British Columbia,Vancouver (South Grandview-Woodlands / NE Kensington),49.2551,-123.067,,advfinancial.ca,,Yeah,,vinti.ca
,,,,V,V5P,BC,British Columbia,Vancouver (SE Kensington / Victoria-Fraserview),49.222,-123.068,,adviantfinancial.com,,Yyy,,why.com
,,,,V,V5R,BC,British Columbia,Vancouver (South Renfrew-Collingwood),49.2397,-123.041,,advice2advisors.ca,,556312,,world.pl
,,,,V,V5S,BC,British Columbia,Vancouver (Killarney),49.2175,-123.038,,adviceonly.ca,,fakename,,yahoo.ac
,,,,V,V5T,BC,British Columbia,Vancouver (East Mount Pleasant),49.262,-123.092,,adviceonlyestateplanning.com,,fakename,,yahoo.co.uk
,,,,V,V5V,BC,British Columbia,Vancouver (West Kensington / NE Riley Park-Little Mountain),49.248,-123.091,,advicoadvisory.com,,hujeqdhiqufdqiuew,,yeii.com
,,,,V,V5W,BC,British Columbia,Vancouver (SE Riley Park-Little Mountain / SW Kensington / NE Oakridge / North Sunset),49.2327,-123.092,,advisorsforlife.ca,,p-a,,yopmail.com
,,,,V,V5X,BC,British Columbia,Vancouver (SE Oakridge / East Marpole / South Sunset),49.2156,-123.098,,aec-econ.com,,Why?,,you.com
,,,,V,V5Y,BC,British Columbia,Vancouver (West Mount Pleasant / West Riley Park-Little Mountain),49.2492,-123.11,,aeps.ca,,Arse,,z.com
,,,,V,V5Z,BC,British Columbia,Vancouver (East Fairview / South Cambie),49.2475,-123.121,,aesica.ca,,yo,,hotnail.com
,,,,V,V6A,BC,British Columbia,Vancouver (Strathcona / Chinatown / Downtown Eastside),49.2779,-123.091,,affinitycu.ca,,,,hoymail.com
,,,,V,V6B,BC,British Columbia,Vancouver (NE Downtown / Harbour Centre / Gastown / Yaletown),49.2788,-123.114,,affinityfg.com,,,,test.com
,,,,V,V6C,BC,British Columbia,Vancouver (Waterfront / Coal Harbour / Canada Place),49.2866,-123.116,,affolterfinancial.com,,,,hotmail.com+spam
,,,,V,V6E,BC,British Columbia,Vancouver (South West End),49.2833,-123.13,,agecorp.co,,,,live.fr
,,,,V,V6G,BC,British Columbia,Vancouver (North West End / Stanley Park),49.299,-123.141,,agf.com,,,,planswell.com
,,,,V,V6H,BC,British Columbia,Vancouver (West Fairview / Granville Island / NE Shaughnessy),49.2559,-123.132,,aglaassoc.com,,,,hootmail.com
,,,,V,V6J,BC,British Columbia,Vancouver (NW Shaughnessy / East Kitsilano / Quilchena),49.2603,-123.146,,agorafinancial.ca,,,,hotmail.con
,,,,V,V6K,BC,British Columbia,Vancouver (Central Kitsilano),49.2646,-123.165,,ahsanfinancial.com,,,,nowhere.com
,,,,V,V6L,BC,British Columbia,Vancouver (NW Arbutus Ridge),49.2497,-123.166,,aim.com,,,,hotmail.con
,,,,V,V6M,BC,British Columbia,Vancouver (South Shaughnessy / NW Oakridge / NE Kerrisdale / SE Arbutus Ridge),49.2344,-123.145,,ajwep.ca,,,,rogers.cm
,,,,V,V6N,BC,British Columbia,Vancouver (Dunbar-Southlands / Musqueam),49.2302,-123.189,,akalinsurance.com,,,,qq.com
,,,,V,V6P,BC,British Columbia,Vancouver (SE Kerrisdale / SW Oakridge / West Marpole),49.2151,-123.14,,alabelle.ca,,,,
,,,,V,V6R,BC,British Columbia,Vancouver (West Kitsilano / Jericho),49.2666,-123.198,,alacartefinancial.ca,,,,
,,,,V,V6S,BC,British Columbia,Vancouver (Chaldecutt / South University Endowment Lands),49.2491,-123.209,,alberta-cu.com,,,,
,,,,V,V6T,BC,British Columbia,Vancouver (UBC),49.4635,-122.822,,aldergrovecu.ca,,,,
,,,,V,V6Z,BC,British Columbia,Vancouver (SW Downtown),49.2767,-123.13,,aldersley.ca,,,,
,,,,V,V7G,BC,British Columbia,North Vancouver Outer East,49.3678,-122.928,,alecghenleygroup.com,,,,
,,,,V,V7H,BC,British Columbia,North Vancouver Inner East,49.3551,-122.98,,algarvirtue.com,,,,
,,,,V,V7J,BC,British Columbia,North Vancouver East Central,49.3622,-123.018,,algbrown.com,,,,
,,,,V,V7K,BC,British Columbia,North Vancouver North Central,49.3597,-123.038,,algonquinlive.com,,,,
,,,,V,V7L,BC,British Columbia,North Vancouver South Central,49.316,-123.058,,alignedcapitalpartners.com,,,,
,,,,V,V7M,BC,British Columbia,North Vancouver Southwest Central,49.3222,-123.083,,alipahlavani.com,,,,
,,,,V,V7N,BC,British Columbia,North Vancouver Northwest Central,49.35,-123.068,,alisonanderson.ca,,,,
,,,,V,V7P,BC,British Columbia,North Vancouver Southwest,49.322,-123.115,,alitis.ca,,,,
,,,,V,V7R,BC,British Columbia,North Vancouver Northwest,49.3775,-123.086,,all-sask.com,,,,
,,,,V,V7S,BC,British Columbia,West Vancouver North,49.3745,-123.186,,allainmalik.com,,,,
,,,,V,V7T,BC,British Columbia,West Vancouver Southeast,49.3322,-123.142,,allegiancewm.com,,,,
,,,,V,V7V,BC,British Columbia,West Vancouver South,49.3397,-123.191,,alliancefinancial.ca,,,,
,,,,V,V7W,BC,British Columbia,West Vancouver West,49.3615,-123.263,,alliancewealth.ca,,,,
,,,,V,V7X,BC,British Columbia,Vancouver (Bentall Centre),49.2935,-123.116,,alliedtax.ca,,,,
,,,,V,V7Y,BC,British Columbia,Vancouver (Pacific Centre),49.2819,-123.119,,allstate.ca,,,,
,,,,V,V0A,BC,British Columbia,Upper Columbia Region (Golden),51.2994,-116.939,,allstrategic.ca,,,,
,,,,V,V0B,BC,British Columbia,East Kootenays (Fernie),49.6775,-115.564,,allvista.ca,,,,
,,,,V,V0C,BC,British Columbia,Northern British Columbia (Fort Nelson),58.3874,-125.717,,alodium.ca,,,,
,,,,V,V0E,BC,British Columbia,Central Okanagan and High Country (Revelstoke),51.505,-119.203,,alphanorthasset.com,,,,
,,,,V,V0G,BC,British Columbia,West Kootenays (Rossland),50.053,-117.429,,altacorpcapital.com,,,,
,,,,V,V0H,BC,British Columbia,South Okanagan (Summerland),49.4089,-119.005,,altavistaplanning.com,,,,
,,,,V,V0J,BC,British Columbia,Omineca and Yellowhead (Smithers),55.9964,-126.857,,alterna.ca,,,,
,,,,V,V0K,BC,British Columbia,Cariboo and West Okanagan (100 Mile House),51.4367,-121.638,,altimum.ca,,,,
,,,,V,V0L,BC,British Columbia,Chilcotin (Alexis Creek),52.0993,-123.653,,altrinsic.com,,,,
,,,,V,V0M,BC,British Columbia,Harrison Lake Region (Agassiz),49.6346,-122.038,,altrua.ca,,,,
,,,,V,V0N,BC,British Columbia,"North Island, Sunshine Coast, and Southern Gulf Islands (Whistler)",51.2944,-126.075,,altruisticwealth.ca,,,,
,,,,V,V0P,BC,British Columbia,North Central Island and Bute Inlet Region (Gold River),49.8866,-126.267,,alumni.sfu.ca,,,,
,,,,V,V0R,BC,British Columbia,Central Island (Chemainus),49.027,-124.846,,alumni.uoguelph.ca,,,,
,,,,V,V0S,BC,British Columbia,Juan de Fuca Shore (Sooke),48.5432,-123.672,,alumni.utoronto.ca,,,,
,,,,V,V0T,BC,British Columbia,Inside Passage and the Queen Charlottes (Queen Charlotte City),52.2338,-126.213,,ama.ab.ca,,,,
,,,,V,V0V,BC,British Columbia,Lower Skeena (Port Edward),53.9725,-129.899,,amccpa.ca,,,,
,,,,V,V0W,BC,British Columbia,Atlin Region (Atlin),59.6378,-133.543,,ameritus.com,,,,
,,,,V,V0X,BC,British Columbia,Similkameen (Hope),49.3688,-120.657,,amradvisors.com,,,,
,,,,V,V1A,BC,British Columbia,Kimberley,49.6832,-115.986,,ancasterfinancial.ca,,,,
,,,,V,V1B,BC,British Columbia,Vernon East,50.084,-118.938,,anchorpointfinancial.com,,,,
,,,,V,V1C,BC,British Columbia,Cranbrook,49.4999,-115.769,,andrewagencies.com,,,,
,,,,V,V1E,BC,British Columbia,Salmon Arm,50.6998,-119.269,,anguswatt.com,,,,
,,,,V,V1G,BC,British Columbia,Dawson Creek,55.7666,-120.236,,annebrandtfinancial.com,,,,
,,,,V,V1H,BC,British Columbia,Vernon West,50.2868,-119.498,,annechun.ca,,,,
,,,,V,V1J,BC,British Columbia,Fort St. John,56.2499,-120.853,,aofinancial.ca,,,,
,,,,V,V1K,BC,British Columbia,Merritt,50.1122,-120.794,,aon.com,,,,
,,,,V,V1L,BC,British Columbia,Nelson,49.4999,-117.286,,aperfectwitness.com,,,,
,,,,V,V1M,BC,British Columbia,Langley Township North,49.1661,-122.579,,apexfc.com,,,,
,,,,V,V1N,BC,British Columbia,Castlegar,49.2998,-117.669,,apexinvestment.ca,,,,
,,,,V,V1P,BC,British Columbia,Kelowna East,49.8959,-119.172,,apriinc.com,,,,
,,,,V,V1R,BC,British Columbia,Trail,49.0998,-117.702,,aptusbenefits.ca,,,,
,,,,V,V1S,BC,British Columbia,Kamloops Southwest,50.5583,-120.548,,arbourwealth.ca,,,,
,,,,V,V1T,BC,British Columbia,Vernon Central,50.2604,-119.277,,arbutusfinancial.com,,,,
,,,,V,V1V,BC,British Columbia,Kelowna North,49.9497,-119.434,,arbutusgroupcpa.com,,,,
,,,,V,V1W,BC,British Columbia,Kelowna Southwest,49.812,-119.508,,arcafinancial.com,,,,
,,,,V,V1X,BC,British Columbia,Kelowna East Central,50.0528,-119.286,,arcfinancial.ca,,,,
,,,,V,V1Y,BC,British Columbia,Kelowna Central,49.8928,-119.485,,arcfinancial.com,,,,
,,,,V,V1Z,BC,British Columbia,Kelowna West,49.8625,-119.583,,arcfinancialgroup.com,,,,
,,,,V,V2A,BC,British Columbia,Penticton,49.4806,-119.586,,ardaghfinancial.com,,,,
,,,,V,V2B,BC,British Columbia,Kamloops Northwest,50.8869,-120.736,,ardillfinancial.com,,,,
,,,,V,V2C,BC,British Columbia,Kamloops Central and Southeast,50.5437,-120.094,,aretefinancial.ca,,,,
,,,,V,V2E,BC,British Columbia,Kamloops South and West,50.6736,-120.421,,armandowealth.ca,,,,
,,,,V,V2G,BC,British Columbia,Williams Lake,52.1415,-122.145,,armelassociates.com,,,,
,,,,V,V2H,BC,British Columbia,Kamloops North,50.7262,-120.166,,armstrongdumontet.ca,,,,
,,,,V,V2J,BC,British Columbia,Quesnel,52.9784,-122.493,,aromanfinancial.com,,,,
,,,,V,V2K,BC,British Columbia,Prince George North,54.0508,-122.922,,arrow-capital.com,,,,
,,,,V,V2L,BC,British Columbia,Prince George East Central,53.9078,-122.747,,arrowstreetcapital.com,,,,
,,,,V,V2M,BC,British Columbia,Prince George West Central,53.9127,-122.871,,ascentafinance.com,,,,
,,,,V,V2N,BC,British Columbia,Prince George South,53.6408,-122.954,,ashgroveconcepts.ca,,,,
,,,,V,V2P,BC,British Columbia,Chilliwack Central,49.1838,-121.905,,askpage.com,,,,
,,,,V,V2R,BC,British Columbia,Chilliwack West,49.076,-121.988,,aspirepersonalachievement.com,,,,
,,,,V,V2S,BC,British Columbia,Abbotsford Southeast,49.0423,-122.284,,assetplus.ca,,,,
,,,,V,V2T,BC,British Columbia,Abbotsford Southwest,49.0384,-122.349,,assiniboine.mb.ca,,,,
,,,,V,V2V,BC,British Columbia,Mission East,49.6463,-122.505,,assurancewilson.com,,,,
,,,,V,V2W,BC,British Columbia,Maple Ridge East,49.2068,-122.485,,astrafinancial.ca,,,,
,,,,V,V2X,BC,British Columbia,Maple Ridge West,49.2196,-122.616,,astutestrategies.ca,,,,
,,,,V,V2Y,BC,British Columbia,Langley Township Northwest,49.1285,-122.624,,ateamcanada.com,,,,
,,,,V,V2Z,BC,British Columbia,Langley Township Southwest,49.0483,-122.6,,atfs.ca,,,,
,,,,V,V3A,BC,British Columbia,Langley City,49.0997,-122.653,,atlanticbb.net,,,,
,,,,V,V3B,BC,British Columbia,Port Coquitlam Central,49.274,-122.765,,atlanticwealth.ca,,,,
,,,,V,V3C,BC,British Columbia,Port Coquitlam South,49.2436,-122.787,,atlantisfinancial.ca,,,,
,,,,V,V3E,BC,British Columbia,Port Coquitlam North,49.3167,-122.738,,aufinancialgroup.com,,,,
,,,,V,V3G,BC,British Columbia,Abbotsford East,49.0754,-122.178,,availcpa.com,,,,
,,,,V,V3H,BC,British Columbia,Port Moody,49.3231,-122.863,,avanahomes.com,,,,
,,,,V,V3J,BC,British Columbia,Coquitlam North,49.265,-122.872,,avenueinvestment.com,,,,
,,,,V,V3K,BC,British Columbia,Coquitlam South,49.2366,-122.852,,avfinancial.ca,,,,
,,,,V,V3L,BC,British Columbia,New Westminster Northeast,49.2201,-122.9,,awadvisory.ca,,,,
,,,,V,V3M,BC,British Columbia,New Westminster Southwest (Includes Annacis Island),49.1886,-122.938,,awardfinancial.com,,,,
,,,,V,V3N,BC,British Columbia,Burnaby (East Big Bend / Stride Avenue / Edmonds / Cariboo-Armstrong),49.2275,-122.93,,awmi.ca,,,,
,,,,V,V3R,BC,British Columbia,Surrey North,49.1948,-122.813,,axcesscapital.com,,,,
,,,,V,V3S,BC,British Columbia,Surrey East,49.0791,-122.755,,axiomfs.com,,,,
,,,,V,V3T,BC,British Columbia,Surrey Inner Northwest,49.1894,-122.845,,axisfinancial.ca,,,,
,,,,V,V3V,BC,British Columbia,Surrey Outer Northwest,49.1889,-122.873,,ayrfinancial.ca,,,,
,,,,V,V3W,BC,British Columbia,Surrey Upper West,49.141,-122.857,,ayurfinancial.com,,,,
,,,,V,V3X,BC,British Columbia,Surrey Lower West,49.1067,-122.858,,bacherinsurance.com,,,,
,,,,V,V3Y,BC,British Columbia,Pitt Meadows,49.2212,-122.69,,bakervieefinancialsolutions.ca,,,,
,,,,V,V3Z,BC,British Columbia,Surrey,49.1064,-122.825,,balancedfinancialconcepts.ca,,,,
,,,,V,V4A,BC,British Columbia,Surrey Southwest,49.0374,-122.83,,balancedplanning.ca,,,,
,,,,V,V4B,BC,British Columbia,White Rock,49.0259,-122.806,,balancedwealth.ca,,,,
,,,,V,V4C,BC,British Columbia,Delta Northeast,49.1551,-122.912,,balancewealth.ca,,,,
,,,,V,V4E,BC,British Columbia,Delta East,49.1197,-122.906,,balfin.com,,,,
,,,,V,V4G,BC,British Columbia,Delta East Central,49.1464,-123.014,,banwellfinancial.com,,,,
,,,,V,V4K,BC,British Columbia,Delta Central,49.0986,-123.032,,banyanfinancial.ca,,,,
,,,,V,V4L,BC,British Columbia,Delta Southeast,49.0418,-123.059,,barillandcompany.com,,,,
,,,,V,V4M,BC,British Columbia,Delta Southwest,49.0331,-123.088,,barkman-tanaka.com,,,,
,,,,V,V4N,BC,British Columbia,Surrey Northeast,49.1707,-122.733,,barmanialawyers.com,,,,
,,,,V,V4P,BC,British Columbia,Surrey South,49.0561,-122.83,,barometercapital.ca,,,,
,,,,V,V4R,BC,British Columbia,Maple Ridge Northwest,49.2903,-122.517,,barringtonwealth.com,,,,
,,,,V,V4S,BC,British Columbia,Mission West,49.2528,-122.357,,barronsfinancialgroup.com,,,,
,,,,V,V4T,BC,British Columbia,Westbank,49.866,-119.739,,barrowfinancial.ca,,,,
,,,,V,V4V,BC,British Columbia,Winfield,50.0221,-119.405,,barrycarson.ca,,,,
,,,,V,V4W,BC,British Columbia,Langley Township East,49.0713,-122.498,,bartleman.ca,,,,
,,,,V,V4X,BC,British Columbia,Abbotsford West,49.0861,-122.403,,basescovered.ca,,,,
,,,,V,V4Z,BC,British Columbia,Chilliwack East,49.0787,-121.61,,basiswealth.com,,,,
,,,,V,V5A,BC,British Columbia,Burnaby (Government Road / Lake City / SFU / Burnaby Mountain),49.264,-122.937,,bay-net.on.ca,,,,
,,,,V,V5B,BC,British Columbia,Burnaby (Parkcrest-Aubrey / Ardingley-Sprott),49.2769,-122.976,,bayshorefinancialgroup.com,,,,
,,,,V,V5C,BC,British Columbia,Burnaby (Burnaby Heights / Willingdon Heights / West Central Valley),49.274,-123.007,,baysidefinancial.ca,,,,
,,,,V,V5E,BC,British Columbia,Burnaby (Lakeview-Mayfield / Richmond Park / Kingsway-Beresford),49.2272,-122.957,,bayswaterwealth.ca,,,,
,,,,V,V5G,BC,British Columbia,Burnaby (Cascade-Schou / Douglas-Gilpin),49.2478,-122.994,,bayviewfinancial.ca,,,,
,,,,V,V5H,BC,British Columbia,Burnaby (Maywood / Marlborough / Oakalla / Windsor),49.2302,-122.995,,baywoodfinancial.com,,,,
,,,,V,V5J,BC,British Columbia,Burnaby (Suncrest / Sussex-Nelson / Clinton-Glenwood / West Big Bend),49.2038,-122.992,,bbagroup.ca,,,,
,,,,V,V6V,BC,British Columbia,Richmond Northeast,49.1853,-123.039,,bc1.com,,,,
,,,,V,V6W,BC,British Columbia,Richmond Southeast,49.1534,-123.048,,bcim.ca,,,,
,,,,V,V6X,BC,British Columbia,Richmond North,49.1836,-123.117,,bcowm.com,,,,
,,,,V,V6Y,BC,British Columbia,Richmond Central,49.17,-123.137,,bcpbenefits.com,,,,
,,,,V,V7A,BC,British Columbia,Richmond South,49.1205,-123.117,,bcpip.ca,,,,
,,,,V,V7B,BC,British Columbia,Richmond (Sea Island / YVR),49.1988,-123.18,,bcvfinancial.com,,,,
,,,,V,V7C,BC,British Columbia,Richmond West,49.1626,-123.172,,bdc.ca,,,,
,,,,V,V7E,BC,British Columbia,Richmond Southwest,49.1323,-123.171,,bdcfinancial.ca,,,,
,,,,V,V8A,BC,British Columbia,Powell River,50.0163,-124.323,,bdo.ca,,,,
,,,,V,V8B,BC,British Columbia,Squamish,49.7002,-123.156,,bdspctax.com,,,,
,,,,V,V8C,BC,British Columbia,Kitimat,54.0524,-128.653,,beaconfinancial.ca,,,,
,,,,V,V8E,BC,British Columbia,Whistler,50.1182,-122.954,,beaconpoint.ca,,,,
,,,,V,V8G,BC,British Columbia,Terrace,54.5163,-128.604,,beaconsecurities.ca,,,,
,,,,V,V8J,BC,British Columbia,Prince Rupert,54.3161,-130.32,,bearingcapital.ca,,,,
,,,,V,V8K,BC,British Columbia,Saltspring Island,48.8138,-123.497,,beckfinancial.ca,,,,
,,,,V,V8L,BC,British Columbia,Sidney,48.6496,-123.403,,befinancial.ca,,,,
,,,,V,V8M,BC,British Columbia,Central Saanich,48.5663,-123.419,,belay.ca,,,,
,,,,V,V8N,BC,British Columbia,Saanich East,48.4765,-123.315,,bellfinancial.ca,,,,
,,,,V,V8P,BC,British Columbia,Saanich Southeast,48.4583,-123.333,,bellvest.ca,,,,
,,,,V,V8R,BC,British Columbia,Oak Bay North,48.4496,-123.303,,ben-cpa.com,,,,
,,,,V,V8S,BC,British Columbia,Oak Bay South,48.42,-123.305,,bencomfsgi.com,,,,
,,,,V,V8T,BC,British Columbia,Victoria North,48.4392,-123.357,,benefitlink.ca,,,,
,,,,V,V8V,BC,British Columbia,Victoria South,48.4167,-123.365,,benefits-plus.ca,,,,
,,,,V,V8W,BC,British Columbia,Victoria Central British Columbia Provincial Government,48.4267,-123.366,,benefitsservice.ca,,,,
,,,,V,V8X,BC,British Columbia,Saanich South,48.4777,-123.366,,benewealth.com,,,,
,,,,V,V8Y,BC,British Columbia,Saanich North,48.5247,-123.375,,benoitmcgraw.ca,,,,
,,,,V,V8Z,BC,British Columbia,Saanich Central,48.4993,-123.4,,benreale.com,,,,
,,,,V,V9A,BC,British Columbia,Esquimalt,48.4496,-123.419,,berardfinancialgroup.com,,,,
,,,,V,V9B,BC,British Columbia,Highlands,48.4793,-123.527,,bergenfinancial.ca,,,,
,,,,V,V9C,BC,British Columbia,Metchosin,48.3829,-123.536,,berghtatomir.com,,,,
,,,,V,V9E,BC,British Columbia,Saanich West,48.5219,-123.453,,berglehmann.ca,,,,
,,,,V,V9G,BC,British Columbia,Ladysmith,48.9829,-123.819,,berglundtaylor.com,,,,
,,,,V,V9H,BC,British Columbia,Campbell River Outskirts,49.9088,-125.586,,bernstein.com,,,,
,,,,V,V9J,BC,British Columbia,Courtenay Northern Outskirts,49.7242,-125.26,,berticassociates.com,,,,
,,,,V,V9K,BC,British Columbia,Qualicum Beach,49.3468,-124.436,,bespokefinancial.ca,,,,
,,,,V,V9L,BC,British Columbia,Duncan,48.7829,-123.703,,bestadvice.ca,,,,
,,,,V,V9M,BC,British Columbia,Comox,49.6829,-124.936,,bestmortgageplan.ca,,,,
,,,,V,V9N,BC,British Columbia,Courtenay Central,49.6585,-124.984,,bestplan.ca,,,,
,,,,V,V9P,BC,British Columbia,Parksville,49.3163,-124.319,,bettinamacconnell.com,,,,
,,,,V,V9R,BC,British Columbia,Nanaimo South,49.1609,-123.983,,beutelgoodman.com,,,,
,,,,V,V9S,BC,British Columbia,Nanaimo Central,49.1886,-123.963,,bewleycoltman.ca,,,,
,,,,V,V9T,BC,British Columbia,Nanaimo North,49.2146,-124.02,,bfinancial.com,,,,
,,,,V,V9V,BC,British Columbia,Nanaimo Northwest,49.2391,-124.023,,bgfinancial.ca,,,,
,,,,V,V9W,BC,British Columbia,Campbell River Central,50.0769,-125.591,,bhcpa.ca,,,,
,,,,V,V9X,BC,British Columbia,Cedar,49.0419,-123.979,,bibpc.ca,,,,
,,,,V,V9Y,BC,British Columbia,Port Alberni,49.2413,-124.803,,biig.ca,,,,
,,,,V,V9Z,BC,British Columbia,Sooke,48.3746,-123.728,,billgreen.ca,,,,
,,,,R,R5K,MB,Manitoba,Lorette,49.7392,-96.8723,,billhinan.com,,,,
,,,,R,R0A,MB,Manitoba,Southeastern Manitoba (Lorette),49.2911,-96.2985,,billlaidlaw.ca,,,,
,,,,R,R0B,MB,Manitoba,Northern Manitoba (Norway House),56.2701,-96.9118,,binningfamily.org,,,,
,,,,R,R0C,MB,Manitoba,North Interlake (Stonewall),51.4132,-97.8525,,binvested.ca,,,,
,,,,R,R0E,MB,Manitoba,Eastern Manitoba (Beausejour),50.4751,-95.961,,bircherfinancial.com,,,,
,,,,R,R0G,MB,Manitoba,South Central Manitoba (Altona),49.4394,-98.0869,,birncofinancialgroup.ca,,,,
,,,,R,R0H,MB,Manitoba,South Interlake (MacGregor),50.3458,-98.5152,,bisaillonassetmanagement.ca,,,,
,,,,R,R0J,MB,Manitoba,Riding Mountain (Neepawa),50.5842,-100.135,,blackburndavisfinancial.ca,,,,
,,,,R,R0K,MB,Manitoba,Brandon Region (Killarney),49.555,-99.7154,,blackfinancial.com,,,,
,,,,R,R0L,MB,Manitoba,Western Manitoba (Swan River),52.0092,-100.29,,blackheath.ca,,,,
,,,,R,R0M,MB,Manitoba,Southwestern Manitoba (Virden),49.711,-100.926,,blacksok.com,,,,
,,,,R,R1A,MB,Manitoba,Selkirk,50.1436,-96.8845,,blacksprucefinancial.com,,,,
,,,,R,R1B,MB,Manitoba,Lockport,50.084,-96.9353,,blackwoodfes.com,,,,
,,,,R,R1C,MB,Manitoba,Narol,50.055,-96.9781,,bloomstrategies.com,,,,
,,,,R,R1N,MB,Manitoba,Portage la Prairie,49.9728,-98.2926,,bluenova.ca,,,,
,,,,R,R2C,MB,Manitoba,Winnipeg (Transcona),49.9247,-96.9563,,blueprintwealth.ca,,,,
,,,,R,R2E,MB,Manitoba,East St. Paul,49.9791,-97.0128,,bluerockwealth.ca,,,,
,,,,R,R2G,MB,Manitoba,Winnipeg (River East North),49.9413,-97.0571,,blueshorefinancial.com,,,,
,,,,R,R2H,MB,Manitoba,Winnipeg (St. Boniface NW),49.8846,-97.1186,,bluestonefinancial.ca,,,,
,,,,R,R2J,MB,Manitoba,Winnipeg (St. Boniface NE),49.8665,-97.0633,,bluesuits.com,,,,
,,,,R,R2K,MB,Manitoba,Winnipeg (River East Central),49.9203,-97.083,,bmonb.com,,,,
,,,,R,R2L,MB,Manitoba,Winnipeg (River East South),49.9075,-97.0996,,bng-cpa.ca,,,,
,,,,R,R2M,MB,Manitoba,Winnipeg (St. Vital North),49.8396,-97.1147,,bobmalvern.com,,,,
,,,,R,R2N,MB,Manitoba,Winnipeg (St. Vital SW),49.7838,-97.0973,,bobsplanning.com,,,,
,,,,R,R2P,MB,Manitoba,Winnipeg (Seven Oaks West),49.9696,-97.1554,,bois.bm,,,,
,,,,R,R2R,MB,Manitoba,Winnipeg (Inkster West),49.9377,-97.2162,,bonnefield.com,,,,
,,,,R,R2V,MB,Manitoba,Winnipeg (Seven Oaks East),49.9548,-97.1112,,bonniefowler.me,,,,
,,,,R,R2W,MB,Manitoba,Winnipeg (Point Douglas East),49.9195,-97.1354,,bourgeoisfinancier.ca,,,,
,,,,R,R2X,MB,Manitoba,Winnipeg (Point Douglas West / Inkster East),49.9322,-97.1733,,bowyerfinancial.com,,,,
,,,,R,R2Y,MB,Manitoba,Winnipeg (St. James-Assiniboia NW),49.9073,-97.2945,,boydsinc.ca,,,,
,,,,R,R3A,MB,Manitoba,Winnipeg (Centennial),49.9038,-97.1489,,bpgs.ca,,,,
,,,,R,R3B,MB,Manitoba,Winnipeg (Chinatown / Civic Centre / Exchange District),49.898,-97.1401,,bprospero.ca,,,,
,,,,R,R3C,MB,Manitoba,Winnipeg (Broadway / The Forks / Portage and Main) Manitoba Provincial Government,50.011,-97.2184,,bpsfinancial.ca,,,,
,,,,R,R3E,MB,Manitoba,Winnipeg (Sargent Park / Daniel McIntyre / Inkster SE),49.9081,-97.1779,,bpstrategies.ca,,,,
,,,,R,R3G,MB,Manitoba,Winnipeg (Minto / St. Mathews / Wolseley),49.8876,-97.1807,,bptax.ca,,,,
,,,,R,R3H,MB,Manitoba,Winnipeg (St. James-Assiniboia NE / YWG),49.9033,-97.2074,,bradbrainfinancial.com,,,,
,,,,R,R3J,MB,Manitoba,Winnipeg (St. James-Assiniboia SE),49.8966,-97.2404,,bradexfinancial.com,,,,
,,,,R,R3K,MB,Manitoba,Winnipeg (St. James-Assiniboia SW),49.8734,-97.307,,bradwebbfinancial.com,,,,
,,,,R,R3L,MB,Manitoba,Winnipeg (River Heights East),49.867,-97.1356,,brandenburg.ca,,,,
,,,,R,R3M,MB,Manitoba,Winnipeg (River Heights Central),49.8625,-97.1665,,brandonlindsay.ca,,,,
,,,,R,R3N,MB,Manitoba,Winnipeg (River Heights West),49.8629,-97.1959,,brandonwhitby.com,,,,
,,,,R,R3P,MB,Manitoba,Winnipeg (Fort Garry NW / Tuxedo),49.8425,-97.2182,,branstone.ca,,,,
,,,,R,R3R,MB,Manitoba,Winnipeg (Assiniboine South / Betsworth),49.8546,-97.2874,,braunfinancial.com,,,,
,,,,R,R3S,MB,Manitoba,Winnipeg (Wilkes South),49.8255,-97.2934,,breadthconsulting.com,,,,
,,,,R,R3T,MB,Manitoba,Winnipeg (Fort Garry NE / University of Manitoba),49.8143,-97.1531,,brentholmes.com,,,,
,,,,R,R3V,MB,Manitoba,Winnipeg (Fort Garry South),49.7462,-97.1745,,bretoncpa.ca,,,,
,,,,R,R3W,MB,Manitoba,Winnipeg (Grassie / Pequis),49.9141,-97.0401,,brian-wilkinson.com,,,,
,,,,R,R3X,MB,Manitoba,Winnipeg (St. Boniface South / St. Vital SE),49.8209,-97.0322,,brianludwig.ca,,,,
,,,,R,R3Y,MB,Manitoba,Winnipeg (Fort Garry West),49.7885,-97.2147,,brianmallard.com,,,,
,,,,R,R4A,MB,Manitoba,West St. Paul,50.0211,-97.1147,,brianshumak.com,,,,
,,,,R,R4G,MB,Manitoba,Oak Bluff,49.7736,-97.3221,,brickfinancial.ca,,,,
,,,,R,R4H,MB,Manitoba,Headingley East,49.8761,-97.3812,,bridgetowealth.ca,,,,
,,,,R,R4J,MB,Manitoba,Headingley West,49.8467,-97.4319,,bridgingfinance.ca,,,,
,,,,R,R4K,MB,Manitoba,Cartier,49.8908,-97.6004,,brittaingroup.com,,,,
,,,,R,R4L,MB,Manitoba,St. Francois Xavier,49.9372,-97.5545,,brooksfinancial.ca,,,,
,,,,R,R5A,MB,Manitoba,St. Adolphe,49.712,-97.0836,,brothersandco.ca,,,,
,,,,R,R5G,MB,Manitoba,Steinbach,49.5258,-96.6845,,broughtonfinancial.ca,,,,
,,,,R,R5H,MB,Manitoba,Ste. Anne,49.6697,-96.65,,brownfinancial.com,,,,
,,,,R,R6M,MB,Manitoba,Morden,49.1919,-98.1014,,bruggerwealth.ca,,,,
,,,,R,R6W,MB,Manitoba,Winkler,49.1817,-97.941,,brunellefinancial.com,,,,
,,,,R,R7A,MB,Manitoba,Brandon Southeast,49.8174,-99.9565,,btrfinancial.ca,,,,
,,,,R,R7B,MB,Manitoba,Brandon Southwest,49.842,-99.9831,,buddyhulscher.com,,,,
,,,,R,R7C,MB,Manitoba,Brandon North,49.8817,-99.965,,bumsteadins.ca,,,,
,,,,R,R7N,MB,Manitoba,Dauphin,51.1494,-100.05,,burgerfs.ca,,,,
,,,,R,R8A,MB,Manitoba,Flin Flon,54.7682,-101.865,,businessaffairs.ca,,,,
,,,,R,R8N,MB,Manitoba,Thompson,55.7435,-97.8558,,bussfinancial.ca,,,,
,,,,R,R9A,MB,Manitoba,The Pas,53.704,-101.293,,buxtonfinancial.ca,,,,
,,,,E,E1A,NB,New Brunswick,Dieppe Moncton East,46.0967,-64.7087,,bvcga.com,,,,
,,,,E,E1B,NB,New Brunswick,Riverview,46.0545,-64.816,,bw-fp.com,,,,
,,,,E,E1C,NB,New Brunswick,Moncton Central,46.0987,-64.8036,,bwealthy.ca,,,,
,,,,E,E1E,NB,New Brunswick,Moncton West,46.0771,-64.8529,,bydesignfinancial.ca,,,,
,,,,E,E1G,NB,New Brunswick,Moncton Northwest,46.1797,-64.9484,,c2inc.com,,,,
,,,,E,E1H,NB,New Brunswick,"Lakeville, Shediac Bridge",46.1732,-64.6957,,ca.gt.com,,,,
,,,,E,E1J,NB,New Brunswick,Coverdale,45.9976,-64.8483,,ca.inter.net,,,,
,,,,E,E1N,NB,New Brunswick,Miramichi South,46.9501,-65.3239,,caatpension.on.ca,,,,
,,,,E,E1V,NB,New Brunswick,Miramichi North,47.1942,-65.9381,,cabletv.on.ca,,,,
,,,,E,E1W,NB,New Brunswick,Caraquet,47.7941,-64.9386,,cabn.net,,,,
,,,,E,E1X,NB,New Brunswick,Tracadie-Sheila,47.5144,-64.9181,,cadesky.com,,,,
,,,,E,E2A,NB,New Brunswick,Bathurst,47.6181,-65.6511,,cafinancialgroup.com,,,,
,,,,E,E2E,NB,New Brunswick,"Rothesay, Quispamsis",45.4137,-65.982,,caldwelladvisory.ca,,,,
,,,,E,E2G,NB,New Brunswick,Quispamsis,45.4534,-65.931,,caldwellinvestment.com,,,,
,,,,E,E2H,NB,New Brunswick,"Saint John Northeast, Renforth",45.35,-66.0101,,calgaryfinancialplanner.ca,,,,
,,,,E,E2J,NB,New Brunswick,Saint John East,45.2563,-65.9432,,callegrow.com,,,,
,,,,E,E2K,NB,New Brunswick,Saint John North,45.3053,-66.0808,,calltravistoday.ca,,,,
,,,,E,E2L,NB,New Brunswick,Saint John Central,45.2717,-66.0584,,cambrian.mb.ca,,,,
,,,,E,E2M,NB,New Brunswick,Saint John West,45.2347,-66.1749,,cameronmoneycoach.com,,,,
,,,,E,E2N,NB,New Brunswick,Saint John Lakewood,45.3176,-65.9271,,campbellwa.com,,,,
,,,,E,E2P,NB,New Brunswick,Saint John Red Head,45.2426,-65.9847,,campbellwealth.ca,,,,
,,,,E,E2R,NB,New Brunswick,Saint John Grandview,46.0368,-66.0373,,campwealth.com,,,,
,,,,E,E2S,NB,New Brunswick,Saint John Loch Lomond,45.3371,-65.8133,,canaccord.com,,,,
,,,,E,E2V,NB,New Brunswick,Oromocto,45.8351,-66.4792,,canaccordgenuity.com,,,,
,,,,E,E3A,NB,New Brunswick,Fredericton North,46.0401,-66.3862,,canadaadvisor.ca,,,,
,,,,E,E3B,NB,New Brunswick,Fredericton South New Brunswick Provincial Government,45.8119,-66.6763,,canadafinancial.ca,,,,
,,,,E,E3C,NB,New Brunswick,"Fredericton Southwest, New Maryland",45.902,-66.7057,,canadaloyal.com,,,,
,,,,E,E3E,NB,New Brunswick,Kingsclear,45.8834,-66.9156,,canadiantaxcredit.ca,,,,
,,,,E,E3G,NB,New Brunswick,Fredericton,46.0546,-66.7344,,candeal.com,,,,
,,,,E,E3L,NB,New Brunswick,St. Stephen,45.1804,-67.2953,,candorgroup.com,,,,
,,,,E,E3N,NB,New Brunswick,Campbellton,48.0075,-66.6727,,canfin.com,,,,
,,,,E,E3V,NB,New Brunswick,Edmundston,47.3737,-68.3251,,canoefinancial.com,,,,
,,,,E,E3Y,NB,New Brunswick,Grand Falls Northeast,47.1683,-67.6207,,cansofunds.com,,,,
,,,,E,E3Z,NB,New Brunswick,Grand Falls Central,46.9266,-67.7466,,cantor.com,,,,
,,,,E,E4A,NB,New Brunswick,Bathurst,46.1599,-65.8102,,capcorp.ca,,,,
,,,,E,E4B,NB,New Brunswick,Minto,46.0848,-66.0622,,capital-wealth.ca,,,,
,,,,E,E4C,NB,New Brunswick,Youngs Cove,45.8693,-65.9006,,capitalcanada.com,,,,
,,,,E,E4E,NB,New Brunswick,Sussex,45.7227,-65.5066,,capitalconceptsgroup.com,,,,
,,,,E,E4G,NB,New Brunswick,Smiths Creek,45.8552,-65.4795,,capitaledgefinancial.ca,,,,
,,,,E,E4H,NB,New Brunswick,Hillsborough,45.9199,-64.6552,,capitalplanning.net,,,,
,,,,E,E4J,NB,New Brunswick,Salisbury,46.0391,-65.0463,,capitalwealth.ca,,,,
,,,,E,E4K,NB,New Brunswick,Dorchester,45.9016,-64.508,,caponifanancial.com,,,,
,,,,E,E4L,NB,New Brunswick,Sackville,45.9188,-64.3845,,capri.ca,,,,
,,,,E,E4M,NB,New Brunswick,Bayfield,46.0919,-64.0173,,capstoneassets.ca,,,,
,,,,E,E4N,NB,New Brunswick,Cap-Pel√É¬©,46.2129,-64.2784,,cardinalpointsfinancial.com,,,,
,,,,E,E4P,NB,New Brunswick,Shediac,46.2198,-64.5411,,cardinalpointwealth.com,,,,
,,,,E,E4R,NB,New Brunswick,Cocagne,46.3324,-64.6187,,carelsfinancial.com,,,,
,,,,E,E4S,NB,New Brunswick,Bouctouche,46.4684,-64.739,,caringforclients.com,,,,
,,,,E,E4T,NB,New Brunswick,Bass River,46.3042,-64.972,,carletonfs.com,,,,
,,,,E,E4V,NB,New Brunswick,Saint-Antoine,46.3629,-64.7499,,carmontfinancial.com,,,,
,,,,E,E4W,NB,New Brunswick,Richibucto,46.6807,-64.8804,,caroltichelman.ca,,,,
,,,,E,E4X,NB,New Brunswick,St-Louis-de-Kent,46.7401,-64.9698,,carruthersfinancial.ca,,,,
,,,,E,E4Y,NB,New Brunswick,Rogersville,46.7345,-65.427,,cartewm.com,,,,
,,,,E,E4Z,NB,New Brunswick,Petitcodiac,45.9394,-65.1802,,cashcows.ca,,,,
,,,,E,E5A,NB,New Brunswick,Moores Mills,45.3705,-67.1737,,cashflowtutor.ca,,,,
,,,,E,E5B,NB,New Brunswick,St. Andrews,45.0845,-67.0617,,casselsinvestment.com,,,,
,,,,E,E5C,NB,New Brunswick,St. George,45.1265,-66.8314,,cassisfinancial.com,,,,
,,,,E,E5E,NB,New Brunswick,Campobello Island,44.8908,-66.9318,,castlemarkwealth.com,,,,
,,,,E,E5G,NB,New Brunswick,Grand Manan Island,44.6976,-66.8065,,cbaps.ca,,,,
,,,,E,E5H,NB,New Brunswick,Pennfield,45.1168,-66.6822,,cbiggroup.ca,,,,
,,,,E,E5J,NB,New Brunswick,Lepreau,45.1979,-66.4308,,cbrecaledon.com,,,,
,,,,E,E5K,NB,New Brunswick,Grand Bay-Westfield,45.3407,-66.2528,,cccu.ca,,,,
,,,,E,E5L,NB,New Brunswick,Fredericton Junction,45.6604,-66.6139,,ccfprivatewealth.com,,,,
,,,,E,E5M,NB,New Brunswick,Gagetown,45.7701,-66.1617,,ccgpwm.com,,,,
,,,,E,E5N,NB,New Brunswick,Hampton,45.5288,-65.8535,,cclgroup.com,,,,
,,,,E,E5P,NB,New Brunswick,Apohaqui,45.7599,-65.6704,,ccplanning.ca,,,,
,,,,E,E5R,NB,New Brunswick,St. Martins,45.351,-65.5457,,cdspi.com,,,,
,,,,E,E5S,NB,New Brunswick,Kingston,45.4098,-66.0932,,celernus.com,,,,
,,,,E,E5T,NB,New Brunswick,Norton,45.6508,-65.7302,,celfinancial.ca,,,,
,,,,E,E5V,NB,New Brunswick,Deer Island,44.9862,-66.9694,,centurion.ca,,,,
,,,,E,E6A,NB,New Brunswick,Boiestown,46.4558,-66.4198,,cerson.com,,,,
,,,,E,E6B,NB,New Brunswick,Stanley,46.3381,-66.9058,,cfcanadafinancial.ca,,,,
,,,,E,E6C,NB,New Brunswick,Durham Bridge,46.1168,-66.5989,,cfinance.biz,,,,
,,,,E,E6E,NB,New Brunswick,Millville,46.1307,-67.1962,,cfmws.com,,,,
,,,,E,E6G,NB,New Brunswick,Nackawic,45.9967,-67.2403,,cfo-financial.com,,,,
,,,,E,E6H,NB,New Brunswick,Canterbury,45.8954,-67.4678,,cfsplans.ca,,,,
,,,,E,E6J,NB,New Brunswick,McAdam,45.5923,-67.307,,cfspsc.ca,,,,
,,,,E,E6K,NB,New Brunswick,Harvey,45.729,-67.0064,,cgafirm.com,,,,
,,,,E,E6L,NB,New Brunswick,Burtts Corner,45.9881,-67.0338,,cglfinancial.com,,,,
,,,,E,E7A,NB,New Brunswick,Baker Brook,47.3,-68.7487,,cgltax.ca,,,,
,,,,E,E7B,NB,New Brunswick,Saint-Jacques,47.5655,-68.3127,,cgmail.com,,,,
,,,,E,E7C,NB,New Brunswick,Saint-Basile,47.6583,-68.0684,,chadahfinancial.com,,,,
,,,,E,E7E,NB,New Brunswick,Saint-Leonard,47.173,-67.9247,,chaltenadvisors.com,,,,
,,,,E,E7G,NB,New Brunswick,Plaster Rock,46.9065,-67.39,,chamberlainwealth.com,,,,
,,,,E,E7H,NB,New Brunswick,Perth-Andover,46.7355,-67.7039,,chapmanfinancial.ca,,,,
,,,,E,E7J,NB,New Brunswick,Bath,46.5807,-67.5911,,charandukfinancial.com,,,,
,,,,E,E7K,NB,New Brunswick,Centreville,46.3982,-67.7174,,charterhousefg.ca,,,,
,,,,E,E7L,NB,New Brunswick,Florenceville,46.5528,-67.305,,charterwealth.com,,,,
,,,,E,E7M,NB,New Brunswick,Woodstock,46.158,-67.5838,,chartwellfinancial.com,,,,
,,,,E,E7N,NB,New Brunswick,Debec,46.0555,-67.5839,,chaseziprick.ca,,,,
,,,,E,E7P,NB,New Brunswick,Hartland,46.2999,-67.5167,,cherneyfinancial.com,,,,
,,,,E,E8A,NB,New Brunswick,Saint-Quentin,47.5133,-67.3929,,chfinancial.ca,,,,
,,,,E,E8B,NB,New Brunswick,Kedgwick,47.6446,-67.3434,,chippingham.com,,,,
,,,,E,E8C,NB,New Brunswick,Dalhousie,48.055,-66.3847,,chmic.ca,,,,
,,,,E,E8E,NB,New Brunswick,Balmoral,47.679,-66.4342,,chriskorteipc.ca,,,,
,,,,E,E8G,NB,New Brunswick,Belledune,47.8023,-66.1243,,christiancu.ca,,,,
,,,,E,E8J,NB,New Brunswick,Petit-Rocher,47.7941,-65.8219,,christianschoolfoundation.ca,,,,
,,,,E,E8K,NB,New Brunswick,Beresford,47.6913,-65.6989,,chroniclewealth.com,,,,
,,,,E,E8L,NB,New Brunswick,Allardville,47.475,-65.495,,ci.com,,,,
,,,,E,E8M,NB,New Brunswick,Saint-Isidore,47.5765,-65.1379,,cicfinancial.ca,,,,
,,,,E,E8N,NB,New Brunswick,Grande-Anse,47.8078,-65.1945,,cidel.com,,,,
,,,,E,E8P,NB,New Brunswick,Inkerman,47.6672,-64.8248,,cigfin.com,,,,
,,,,E,E8R,NB,New Brunswick,Paquetville,47.6383,-65.1709,,cinaport.com,,,,
,,,,E,E8S,NB,New Brunswick,Shippagan,47.7287,-64.7247,,citco.com,,,,
,,,,E,E8T,NB,New Brunswick,Lam√É¬®que,47.7936,-64.6475,,citigroup.com,,,,
,,,,E,E9A,NB,New Brunswick,Baie-Sainte-Anne,47.0188,-64.92,,ck-ca.com,,,,
,,,,E,E9B,NB,New Brunswick,Blackville,46.7398,-65.8319,,claritymd.ca,,,,
,,,,E,E9C,NB,New Brunswick,Doaktown,46.557,-66.1257,,claritywealth.com,,,,
,,,,E,E9E,NB,New Brunswick,Red Bank,46.8486,-65.6772,,clarkfinancialwindsor.com,,,,
,,,,E,E9G,NB,New Brunswick,Neguac,47.2489,-65.0741,,claymorefinancialgroup.com,,,,
,,,,E,E9H,NB,New Brunswick,Brantville,47.3528,-65.0538,,claytonfinancial.ca,,,,
,,,,A,A0A,NL,Newfoundland and Labrador,Southeastern Avalon Peninsula (Ferryland),47.2195,-53.1448,,clearpathplanning.com,,,,
,,,,A,A0B,NL,Newfoundland and Labrador,Western Avalon Peninsula (Argentia),47.327,-53.6609,,clearpointwm.com,,,,
,,,,A,A0C,NL,Newfoundland and Labrador,Bonavista Peninsula (Bonavista),48.3843,-53.9081,,clearrockfinancial.com,,,,
,,,,A,A0E,NL,Newfoundland and Labrador,Burin Peninsula (Marystown),47.5607,-54.7801,,clearstonewealth.com,,,,
,,,,A,A0G,NL,Newfoundland and Labrador,Northeast Newfoundland (Lewisporte),48.8657,-54.7296,,clearvistaadvisory.ca,,,,
,,,,A,A0H,NL,Newfoundland and Labrador,Central Newfoundland (Bishops Falls),48.4311,-56.1758,,clearwealth.ca,,,,
,,,,A,A0J,NL,Newfoundland and Labrador,Northern Newfoundland (Springdale),49.5067,-56.2616,,clewesconsult.com,,,,
,,,,A,A0K,NL,Newfoundland and Labrador,Northwest Newfoundland/Eastern Labrador (Mary's Harbour),52.7359,-57.9825,,clientfirstgroup.ca,,,,
,,,,A,A0L,NL,Newfoundland and Labrador,Western Newfoundland (Lark Harbour),48.9445,-58.0645,,cluettinsurance.ca,,,,
,,,,A,A0M,NL,Newfoundland and Labrador,Southwestern Newfoundland (Channel-Port aux Basques),47.8037,-58.3869,,cmcmarkets.com,,,,
,,,,A,A0N,NL,Newfoundland and Labrador,Port au Port Peninsula region (St. George's),48.0868,-57.8231,,cmins.ca,,,,
,,,,A,A0P,NL,Newfoundland and Labrador,Central Labrador (Happy Valley-Goose Bay),54.9549,-61.6024,,cmllp.com,,,,
,,,,A,A0R,NL,Newfoundland and Labrador,North/Western Labrador (Churchill Falls),53.54,-65.112,,cmurphy.ca,,,,
,,,,A,A1A,NL,Newfoundland and Labrador,St. John's North,47.5986,-52.6926,,coastcapitalsavings.com,,,,
,,,,A,A1B,NL,Newfoundland and Labrador,St. John's Northwest Newfoundland & Labrador Provincial Government,47.5698,-52.7796,,cobourgaccounting.ca,,,,
,,,,A,A1C,NL,Newfoundland and Labrador,St. John's North Central,47.5124,-52.6729,,coganfinancial.com,,,,
,,,,A,A1E,NL,Newfoundland and Labrador,St. John's Central,47.5334,-52.7595,,cogeco.net,,,,
,,,,A,A1G,NL,Newfoundland and Labrador,St. John's South,47.506,-52.7603,,colinbarry.ca,,,,
,,,,A,A1H,NL,Newfoundland and Labrador,St. John's Southwest,47.483,-52.8415,,collingridgefinancial.ca,,,,
,,,,A,A1K,NL,Newfoundland and Labrador,Torbay,47.6666,-52.7313,,collinsbarrow.com,,,,
,,,,A,A1L,NL,Newfoundland and Labrador,Paradise,47.5291,-52.8814,,collinsbarrowsarnia.com,,,,
,,,,A,A1M,NL,Newfoundland and Labrador,Portugal Cove-St. Philips,47.6207,-52.8318,,coltonaverydeacon.com,,,,
,,,,A,A1N,NL,Newfoundland and Labrador,Mount Pearl,47.5194,-52.8122,,community.creditu.net,,,,
,,,,A,A1S,NL,Newfoundland and Labrador,Goulds,47.4212,-52.8077,,communityfirst-yncu.com,,,,
,,,,A,A1V,NL,Newfoundland and Labrador,Gander,48.9682,-54.5906,,compass-tax.ca,,,,
,,,,A,A1W,NL,Newfoundland and Labrador,Manuels,47.5096,-52.9447,,compassnotary.com,,,,
,,,,A,A1X,NL,Newfoundland and Labrador,Conception Bay,47.4999,-52.9981,,compasswealthpartners.ca,,,,
,,,,A,A1Y,NL,Newfoundland and Labrador,Carbonear,47.7113,-53.2953,,completefinancialsolutions.ca,,,,
,,,,A,A2A,NL,Newfoundland and Labrador,Grand Falls,48.9332,-55.6649,,completewealth.ca,,,,
,,,,A,A2B,NL,Newfoundland and Labrador,Windsor,48.9499,-55.6649,,comsavings.com,,,,
,,,,A,A2H,NL,Newfoundland and Labrador,Corner Brook,48.9156,-57.797,,comtechcu.com,,,,
,,,,A,A2N,NL,Newfoundland and Labrador,Stephenville,48.55,-58.5818,,conceptfinancial.ca,,,,
,,,,A,A2V,NL,Newfoundland and Labrador,Labrador City,52.9517,-66.9328,,concertcpa.ca,,,,
,,,,A,A5A,NL,Newfoundland and Labrador,Clarenville,48.1666,-53.9648,,concretewealth.ca,,,,
,,,,A,A8A,NL,Newfoundland and Labrador,Deer Lake,49.1667,-57.4316,,conestogac.on.ca,,,,
,,,,B,B0C,NS,Nova Scotia,North Victoria County (Dingwall),46.6482,-60.5396,,conexus.ca,,,,
,,,,B,B0E,NS,Nova Scotia,West Cape Breton Island (Baddeck),46.1133,-61.0251,,confidowealth.ca,,,,
,,,,B,B0H,NS,Nova Scotia,Canso region (Havre Boucher),45.3335,-61.8333,,continuumfinancialcentres.com,,,,
,,,,B,B0J,NS,Nova Scotia,Mainland east shore (Lunenburg),44.9419,-62.6471,,copower.me,,,,
,,,,B,B0K,NS,Nova Scotia,Southern Northumberland Strait (Pictou),45.6138,-62.9506,,copperfin.ca,,,,
,,,,B,B0L,NS,Nova Scotia,Isthmus of Chignecto (River H√É¬©bert),45.6908,-64.3641,,cordisfinancial.ca,,,,
,,,,B,B0M,NS,Nova Scotia,Cobequid Bay north shore (Springhill),45.5354,-64.0393,,coreconditioningprogram.ca,,,,
,,,,B,B0N,NS,Nova Scotia,Hants County (Shubenacadie),45.0963,-63.4701,,corefinancialplanning.ca,,,,
,,,,B,B0P,NS,Nova Scotia,Kings County (Kingston),45.0328,-64.6566,,coreplan.net,,,,
,,,,B,B0R,NS,Nova Scotia,West Lunenburg County (New Germany),44.6003,-64.7443,,corioliscapital.com,,,,
,,,,B,B0S,NS,Nova Scotia,West Annapolis County (Middleton),44.6861,-65.3002,,cormark.com,,,,
,,,,B,B0T,NS,Nova Scotia,Queens County (Shelburne),44.0802,-65.1175,,cornerstonecfg.ca,,,,
,,,,B,B0V,NS,Nova Scotia,Digby Neck (Digby),44.5342,-65.7783,,cornerstonecu.com,,,,
,,,,B,B0W,NS,Nova Scotia,Southwest Mainland (Weymouth),44.0486,-65.7547,,cornerstonewealth.ca,,,,
,,,,B,B1A,NS,Nova Scotia,Glace Bay,46.197,-59.957,,corriganfinancial.com,,,,
,,,,B,B1B,NS,Nova Scotia,Port Morien,46.1174,-59.9144,,corrystaff.com,,,,
,,,,B,B1C,NS,Nova Scotia,Louisbourg,45.9485,-59.9737,,coughlin.ca,,,,
,,,,B,B1E,NS,Nova Scotia,Reserve Mines,46.1845,-60.0166,,couillard.ca,,,,
,,,,B,B1G,NS,Nova Scotia,Dominion,46.2168,-60.0151,,courtsgroup.ca,,,,
,,,,B,B1H,NS,Nova Scotia,New Waterford,46.2501,-60.0817,,coutureservicesfinanciers.ca,,,,
,,,,B,B1J,NS,Nova Scotia,East Bay,45.9834,-60.3652,,coveadvisors.com,,,,
,,,,B,B1K,NS,Nova Scotia,Marion Bridge,45.9668,-60.2318,,covenant.ca,,,,
,,,,B,B1L,NS,Nova Scotia,Sydney Southwest,46.0627,-60.2045,,covingtoncapitalcorp.com,,,,
,,,,B,B1M,NS,Nova Scotia,Sydney East,46.127,-60.0696,,covistacapital.com,,,,
,,,,B,B1N,NS,Nova Scotia,Sydney North,46.1975,-60.1559,,cowanasset.com,,,,
,,,,B,B1P,NS,Nova Scotia,Sydney North Central,46.1341,-60.1749,,cowangroup.ca,,,,
,,,,B,B1R,NS,Nova Scotia,Sydney West,46.1284,-60.2915,,coxfinancialgroup.ca,,,,
,,,,B,B1S,NS,Nova Scotia,Sydney Central,46.1109,-60.2092,,cpahorizon.ca,,,,
,,,,B,B1T,NS,Nova Scotia,Christmas Island,45.9668,-60.7152,,cpbernard.ca,,,,
,,,,B,B1V,NS,Nova Scotia,North Sydney North,46.2437,-60.2313,,cpfg.com,,,,
,,,,B,B1W,NS,Nova Scotia,Eskasoni,45.9328,-60.6438,,cpfinancial.ca,,,,
,,,,B,B1X,NS,Nova Scotia,Big Bras d'Or,46.2904,-60.47,,cpmgmtcorp.ca,,,,
,,,,B,B1Y,NS,Nova Scotia,Alder Point,46.2538,-60.3566,,cpwm.ca,,,,
,,,,B,B2A,NS,Nova Scotia,North Sydney South Central,46.1169,-60.3769,,craigandtaylor.com,,,,
,,,,B,B2C,NS,Nova Scotia,Iona,45.9948,-60.8421,,craigross.com,,,,
,,,,B,B2E,NS,Nova Scotia,Loch Lomond,45.7501,-60.6152,,cravenfp.com,,,,
,,,,B,B2G,NS,Nova Scotia,Antigonish,45.6168,-61.9986,,crawfordfinancial.ca,,,,
,,,,B,B2H,NS,Nova Scotia,New Glasgow,45.5834,-62.6486,,crawfordss.com,,,,
,,,,B,B2J,NS,Nova Scotia,Fourchu,45.707,-60.4665,,createwealth.ca,,,,
,,,,B,B2N,NS,Nova Scotia,Truro,45.3668,-63.2654,,credential.com,,,,
,,,,B,B2R,NS,Nova Scotia,Waverley,44.7599,-63.5525,,credit-suisse.com,,,,
,,,,B,B2S,NS,Nova Scotia,Lantz,45.0209,-63.5344,,cremasco.com,,,,
,,,,B,B2T,NS,Nova Scotia,Enfield,44.8749,-63.4689,,crius.ca,,,,
,,,,B,B2V,NS,Nova Scotia,Dartmouth Morris Lake,44.6529,-63.4777,,crosbieco.com,,,,
,,,,B,B2W,NS,Nova Scotia,Dartmouth East Central,44.6752,-63.5077,,crosbyincorporated.com,,,,
,,,,B,B2X,NS,Nova Scotia,Dartmouth North Central,44.702,-63.533,,crossgrove.com,,,,
,,,,B,B2Y,NS,Nova Scotia,Dartmouth South Central,44.6645,-63.5453,,crossroadsfinancial.ca,,,,
,,,,B,B2Z,NS,Nova Scotia,Dartmouth East,44.7227,-63.4223,,crowemackay.ca,,,,
,,,,B,B3A,NS,Nova Scotia,Dartmouth Southwest,44.6819,-63.5768,,crowesoberman.com,,,,
,,,,B,B3B,NS,Nova Scotia,Dartmouth Northwest,44.7091,-63.5869,,crowncapital.ca,,,,
,,,,B,B3E,NS,Nova Scotia,Porters Lake,44.7722,-63.3361,,crute.net,,,,
,,,,B,B3G,NS,Nova Scotia,Eastern Passage,44.6169,-63.482,,crwealthmanagement.ca,,,,
,,,,B,B3H,NS,Nova Scotia,Halifax Lower Harbour,44.6344,-63.5822,,csfg.ca,,,,
,,,,B,B3J,NS,Nova Scotia,Halifax Mid-Harbour Nova Scotia Provincial Government,44.6451,-63.5762,,csiccorp.com,,,,
,,,,B,B3K,NS,Nova Scotia,Halifax Upper Harbour,44.662,-63.6017,,csiplan.ca,,,,
,,,,B,B3L,NS,Nova Scotia,Halifax Central,44.6508,-63.6146,,csolve.net,,,,
,,,,B,B3M,NS,Nova Scotia,Halifax Bedford Basin,44.6784,-63.6582,,cst.org,,,,
,,,,B,B3N,NS,Nova Scotia,Halifax South Central,44.631,-63.6405,,cstresp.com,,,,
,,,,B,B3P,NS,Nova Scotia,Halifax North West Arm,44.6139,-63.5946,,cullitoncerullo.com,,,,
,,,,B,B3R,NS,Nova Scotia,Halifax South,44.5939,-63.6031,,curatewealth.com,,,,
,,,,B,B3S,NS,Nova Scotia,Halifax West,44.6533,-63.6675,,curias.ca,,,,
,,,,B,B3T,NS,Nova Scotia,Lakeside,44.5683,-63.7306,,curreyinsurance.com,,,,
,,,,B,B3V,NS,Nova Scotia,Harrietsfield,44.5199,-63.6064,,curryfinancialgroup.com,,,,
,,,,B,B3Z,NS,Nova Scotia,Tantallon,44.6386,-63.8687,,cussonanderson.ca,,,,
,,,,B,B4A,NS,Nova Scotia,Bedford Southeast,44.7232,-63.656,,customplanfinancial.com,,,,
,,,,B,B4B,NS,Nova Scotia,Bedford Northwest,44.7509,-63.7711,,cutrarawealth.com,,,,
,,,,B,B4C,NS,Nova Scotia,Lower Sackville South,44.7607,-63.637,,cuwealth.ca,,,,
,,,,B,B4E,NS,Nova Scotia,Lower Sackville West,44.8163,-63.7387,,cvbenefits.com,,,,
,,,,B,B4G,NS,Nova Scotia,Lower Sackville North,44.8814,-63.6798,,cvretirementplanning.com,,,,
,,,,B,B4H,NS,Nova Scotia,Amherst,45.8335,-64.1987,,cwbank.com,,,,
,,,,B,B4N,NS,Nova Scotia,Kentville,45.0834,-64.4988,,cwbwealth.com,,,,
,,,,B,B4P,NS,Nova Scotia,Wolfville,45.0834,-64.3655,,cwchan.com,,,,
,,,,B,B4R,NS,Nova Scotia,Coldbrook,45.0668,-64.5821,,cwfgroup.com,,,,
,,,,B,B4V,NS,Nova Scotia,Bridgewater,44.3835,-64.5155,,cwmg.ca,,,,
,,,,B,B5A,NS,Nova Scotia,Yarmouth,43.8335,-66.1156,,cwpinc.ca,,,,
,,,,B,B6L,NS,Nova Scotia,Truro,45.4093,-63.2114,,cygnusinvestmentpartners.com,,,,
,,,,B,B9A,NS,Nova Scotia,Port Hawkesbury,45.6168,-61.3485,,cypressinsurance.ca,,,,
,,,,X,X0E,NT,Northwest Territories and Nunavut,Central Northwest Territories (Inuvik),66.8714,-120.225,,danallenfinancial.com,,,,
,,,,X,X0G,NT,Northwest Territories and Nunavut,Southwestern Northwest Territories (Fort Liard),60.2563,-123.383,,danbortolotti.com,,,,
,,,,X,X1A,NT,Northwest Territories and Nunavut,Yellowknife,62.456,-114.353,,dandeanfinancial.com,,,,
,,,,X,X0A,NU,Northwest Territories and Nunavut,Outer Nunavut (Iqaluit),79.6218,-76.7765,,darlingfinancial.com,,,,
,,,,X,X0B,NU,Northwest Territories and Nunavut,Central Nunavut (Cambridge Bay),70.9072,-106.96,,darrensweeney.ca,,,,
,,,,X,X0C,NU,Northwest Territories and Nunavut,Inner Nunavut (Rankin Inlet),64.1647,-94.7724,,darryldemille.com,,,,
,,,,P,P0R,ON,Northern Ontario,Algoma Southwest (Blind River),46.5984,-83.0385,,dascott.ca,,,,
,,,,N,N3P,ON,Southwestern Ontario,Brantford Northeast,43.1818,-80.2367,,davestaxservice.ca,,,,
,,,,N,N3R,ON,Southwestern Ontario,Brantford Central,43.1692,-80.2684,,david-burns.com,,,,
,,,,N,N3S,ON,Southwestern Ontario,Brantford Southeast,43.1394,-80.2357,,davidchiucga.com,,,,
,,,,N,N3T,ON,Southwestern Ontario,Brantford Southwest,43.131,-80.3254,,davidgorveatte.com,,,,
,,,,N,N3V,ON,Southwestern Ontario,Brantford Northwest,43.1734,-80.298,,davidmaynard.ca,,,,
,,,,L,L0N,ON,Central Ontario,Dufferin County (Shelburne),44.0317,-80.2068,,davidnoelfinancial.ca,,,,
,,,,K,K0H,ON,Eastern Ontario,"Frontenac County, Addington County, Loyalist Shores and Southwest Leeds (Inverary)",44.7208,-76.8334,,davieslegacy.ca,,,,
,,,,L,L0P,ON,Central Ontario,Halton Regional Municipality (Campbellville),43.4906,-79.9998,,davisbirdgroup.ca,,,,
,,,,L,L9E,ON,Central Ontario,Milton,43.5168,-79.8829,,davismartindale.com,,,,
,,,,L,L8E,ON,Central Ontario,Hamilton (Confederation Park / Nashdale / East Kentley / Riverdale / Lakely / Grayside / North Stoney Creek),43.2245,-79.6988,,db.com,,,,
,,,,L,L8G,ON,Central Ontario,Hamilton (Greenford / North Gershome / West Stoney Creek),43.2164,-79.7423,,dbs.com,,,,
,,,,L,L8H,ON,Central Ontario,Hamilton (West Kentley / McQuesten / Parkview / Hamilton Beach / East Industrial Sector / Normanhurst / Homeside / East Crown Point),43.2596,-79.7925,,dccompletefinancial.com,,,,
,,,,L,L8J,ON,Central Ontario,Hamilton (East Albion Falls / South Stoney Creek),43.1836,-79.721,,ddfinancial.ca,,,,
,,,,L,L8K,ON,Central Ontario,Hamilton (East Delta / Bartonville / Glenview / Rosedale / Lower King's Forest / Red Hill / Corman / Vincent / South Gershome),43.2211,-79.7994,,deanpaley.com,,,,
,,,,L,L8L,ON,Central Ontario,Hamilton (West Industrial Sector / West Crown Point / North Stipley / North Gibson / Landsdale / Keith / North End / Beasley),43.2783,-79.8344,,debmoore.ca,,,,
,,,,L,L8M,ON,Central Ontario,Hamilton (West Delta / Blakeley / South Stipley / South Gibson / St. Clair),43.2441,-79.8359,,deboski.com,,,,
,,,,L,L8N,ON,Central Ontario,Hamilton (Stinson / Corktown),43.4017,-80.017,,dedicatedfs.ca,,,,
,,,,L,L8P,ON,Central Ontario,Hamilton (Durand / Kirkendall / Chedoke Park),43.2514,-79.8925,,deedsgroup.com,,,,
,,,,L,L8R,ON,Central Ontario,Hamilton (Central / Strathcona / South Dundurn),43.2726,-79.8792,,deethco.com,,,,
,,,,L,L8S,ON,Central Ontario,Hamilton (Westdale / Cootes Paradise / Ainslie Wood),43.2606,-79.9161,,dehoney.com,,,,
,,,,L,L8T,ON,Central Ontario,Hamilton (Sherwood / Huntington / Upper King's Forest / Lisgar / Berrisfield / Hampton Heights / Sunninghill),43.2199,-79.8286,,delagency.com,,,,
,,,,L,L8V,ON,Central Ontario,Hamilton (Raleigh / Macassa / Lawfield / Thorner / Burkholme / Eastmount),43.2266,-79.8499,,delanocapital.ca,,,,
,,,,L,L8W,ON,Central Ontario,Hamilton (West Albion Falls / Hannon / Rymal / Trenholme / Quinndale / Templemead / Broughton / Eleanor / Randall / Rushdale / Butler / East Chappel),43.1958,-79.8458,,delauretis.com,,,,
,,,,L,L9A,ON,Central Ontario,Hamilton (Crerar / Bruleville / Hill Park / Inch Park / Centremount / Balfour / Greeningdon / Jerome),43.2271,-79.871,,delisiandassociates.com,,,,
,,,,L,L9B,ON,Central Ontario,Hamilton (Barnstown / West Chappel / Allison / Ryckmans / Mewburn / Sheldon / Falkirk / Carpenter / Kennedy / Southwest Outskirts),43.2055,-79.9004,,deloitte.com,,,,
,,,,L,L9C,ON,Central Ontario,Hamilton (Southam / Bonnington / Yeoville / Kernighan / Gourley / Rolston / Buchanan / Mohawk / Westcliffe / Gilbert / Gilkson / Gurnett / Fessenden / Mountview),43.2313,-79.9049,,deltacatalystcorp.com,,,,
,,,,K,K0L,ON,Eastern Ontario,Peterborough County and North Hastings County (Lakefield),44.7767,-77.9687,,desjardins.com,,,,
,,,,K,K0J,ON,Eastern Ontario,Renfrew County and Lanark Highlands Township (Deep River),45.6606,-77.5886,,desouzafinancial.com,,,,
,,,,M,M3K,ON,Metropolitan Toronto,Downsview East (CFB Toronto),43.739,-79.4692,,dethomasfinancial.com,,,,
,,,,M,M4E,ON,Metropolitan Toronto,East Toronto (The Beaches),43.6784,-79.2941,,deuzeman.ca,,,,
,,,,M,M4J,ON,Metropolitan Toronto,East Toronto (The Danforth East),43.6872,-79.3368,,devereauxfinancial.com,,,,
,,,,M,M4K,ON,Metropolitan Toronto,East Toronto (The Danforth West / Riverdale),43.6803,-79.3538,,dewdney.ca,,,,
,,,,M,M4L,ON,Metropolitan Toronto,East Toronto (India Bazaar / The Beaches West),43.6693,-79.3155,,dewinterfinancial.com,,,,
,,,,M,M4M,ON,Metropolitan Toronto,East Toronto (Studio District),43.6561,-79.3406,,dfgroup.ca,,,,
,,,,M,M4N,ON,Metropolitan Toronto,Central Toronto (Lawrence Park East),43.7301,-79.3935,,dfs.ca,,,,
,,,,M,M4P,ON,Metropolitan Toronto,Central Toronto (Davisville North),43.7135,-79.3887,,dfsin.ca,,,,
,,,,M,M4R,ON,Metropolitan Toronto,Central Toronto (North Toronto West),43.7143,-79.4065,,dfsinhamilton.ca,,,,
,,,,M,M4S,ON,Metropolitan Toronto,Central Toronto (Davisville),43.702,-79.3853,,dfsinnovascotia.ca,,,,
,,,,M,M4T,ON,Metropolitan Toronto,Central Toronto (Moore Park / Summerhill East),43.6899,-79.3853,,dfsinocr.ca,,,,
,,,,M,M4V,ON,Metropolitan Toronto,Central Toronto (Summerhill West / Rathnelly / South Hill / Forest Hill SE / Deer Park),43.6861,-79.4025,,dfsinottawa.ca,,,,
,,,,M,M4W,ON,Metropolitan Toronto,Downtown Toronto (Rosedale),43.6827,-79.373,,dgfs.ca,,,,
,,,,M,M4X,ON,Metropolitan Toronto,Downtown Toronto (St. James Town / Cabbagetown),43.6684,-79.3689,,dhestatelaw.com,,,,
,,,,M,M4Y,ON,Metropolitan Toronto,Downtown Toronto (Church and Wellesley),43.6656,-79.383,,dhrobertsfinancial.ca,,,,
,,,,M,M5A,ON,Metropolitan Toronto,Downtown Toronto (Regent Park / Port of Toronto),43.6555,-79.3626,,diamondretirement.com,,,,
,,,,M,M5B,ON,Metropolitan Toronto,Downtown Toronto (Ryerson),43.6572,-79.3783,,dibrina.com,,,,
,,,,M,M5C,ON,Metropolitan Toronto,Downtown Toronto (St. James Park),43.6513,-79.3756,,discovery-financial.ca,,,,
,,,,M,M5E,ON,Metropolitan Toronto,Downtown Toronto (Berczy Park),43.6456,-79.3754,,discovery-wealth.com,,,,
,,,,M,M5G,ON,Metropolitan Toronto,Downtown Toronto (Central Bay Street),43.6564,-79.386,,discoveryfinancial.ca,,,,
,,,,M,M5H,ON,Metropolitan Toronto,Downtown Toronto (Richmond / Adelaide / King),43.6496,-79.3833,,diversebenefits.ca,,,,
,,,,M,M5J,ON,Metropolitan Toronto,Downtown Toronto (Harbourfront East / Union Station / Toronto Island),43.623,-79.3936,,dixondavis.com,,,,
,,,,M,M5K,ON,Metropolitan Toronto,Downtown Toronto (Toronto Dominion Centre / Design Exchange),43.6469,-79.3823,,dixonmitchell.com,,,,
,,,,M,M5L,ON,Metropolitan Toronto,Downtown Toronto (Commerce Court / Victoria Hotel),43.6492,-79.3823,,dixonpatterson.ca,,,,
,,,,M,M5N,ON,Metropolitan Toronto,Central Toronto (Roselawn),43.7113,-79.4195,,djb.com,,,,
,,,,M,M5P,ON,Metropolitan Toronto,Central Toronto (Forest Hill North & West),43.6966,-79.412,,djmacrae.ca,,,,
,,,,M,M5R,ON,Metropolitan Toronto,Central Toronto (The Annex / North Midtown / Yorkville),43.6736,-79.4035,,djohnsonfinancial.com,,,,
,,,,M,M5S,ON,Metropolitan Toronto,Downtown Toronto (University of Toronto / Harbord),43.6629,-79.3987,,djungca.com,,,,
,,,,M,M5T,ON,Metropolitan Toronto,Downtown Toronto (Kensington Market / Chinatown / Grange Park),43.6541,-79.3978,,dldfinancial.com,,,,
,,,,M,M5V,ON,Metropolitan Toronto,Downtown Toronto (CN Tower / King and Spadina / Railway Lands / Harbourfront West / Bathurst Quay / South Niagara / YTZ),43.6404,-79.3995,,dlgfinancial.ca,,,,
,,,,M,M5W,ON,Metropolitan Toronto,Downtown Toronto Stn A PO Boxes 25 The Esplanade (Enclave of M5E),43.6437,-79.3787,,dlkinsurance.com,,,,
,,,,M,M5X,ON,Metropolitan Toronto,Downtown Toronto (Underground city),43.6492,-79.3823,,dmrfinancial.ca,,,,
,,,,M,M6G,ON,Metropolitan Toronto,Downtown Toronto (Christie),43.6683,-79.4205,,doctorsofbc.ca,,,,
,,,,M,M6H,ON,Metropolitan Toronto,West Toronto (Dufferin / Dovercourt Village),43.6655,-79.4378,,doherty.ca,,,,
,,,,M,M6J,ON,Metropolitan Toronto,West Toronto (Rua A√É¬æores / Trinity),43.648,-79.4177,,dohertybryant.com,,,,
,,,,M,M6K,ON,Metropolitan Toronto,West Toronto (Brockton / Parkdale Village / Exhibition Place),43.6383,-79.4301,,dolaninvestments.com,,,,
,,,,M,M6P,ON,Metropolitan Toronto,West Toronto (High Park / The Junction South),43.6605,-79.4633,,dolardoc.com,,,,
,,,,M,M6R,ON,Metropolitan Toronto,West Toronto (Parkdale / Roncesvalles Village),43.6469,-79.4521,,dominick.ca,,,,
,,,,M,M6S,ON,Metropolitan Toronto,West Toronto (Bloor West Village / Swansea),43.6512,-79.4828,,dominionlending.ca,,,,
,,,,M,M7Y,ON,Metropolitan Toronto,East Toronto Business Reply Mail Processing Centre 969 Eastern (Enclave of M4L),43.7804,-79.2505,,donmatier.ca,,,,
,,,,M,M8V,ON,Metropolitan Toronto,Etobicoke (New Toronto / Mimico South / Humber Bay Shores),43.6075,-79.5013,,donmaycock.com,,,,
,,,,K,K1A,ON,Eastern Ontario,Government of Canada Ottawa and Gatineau offices,45.4207,-75.7023,,donnellins.com,,,,
,,,,K,K1G,ON,Eastern Ontario,Ottawa (Riverview / Hawthorne),45.3548,-75.5773,,donnellyadvisors.com,,,,
,,,,K,K1H,ON,Eastern Ontario,Ottawa (Alta Vista),45.3876,-75.6593,,donro.on.ca,,,,
,,,,K,K1K,ON,Eastern Ontario,Ottawa (Overbrook),45.4448,-75.6431,,donvillekent.com,,,,
,,,,K,K1L,ON,Eastern Ontario,Ottawa (Vanier),45.44,-75.663,,douganirwin.ca,,,,
,,,,K,K1M,ON,Eastern Ontario,Ottawa (Rockcliffe Park / New Edinburgh),45.4491,-75.6818,,douglascollege.ca,,,,
,,,,K,K1N,ON,Eastern Ontario,Ottawa (Lower Town / Sandy Hill / University of Ottawa),45.4289,-75.6844,,douglasfinancial.ca,,,,
,,,,K,K1P,ON,Eastern Ontario,Ottawa (Parliament Hill),45.4225,-75.7026,,dowlingfinancialservices.ca,,,,
,,,,K,K1R,ON,Eastern Ontario,Ottawa (West Downtown area),45.4123,-75.7108,,drewleehai.ca,,,,
,,,,K,K1S,ON,Eastern Ontario,Ottawa (The Glebe / Ottawa South / Ottawa East),45.399,-75.6871,,driehaus.com,,,,
,,,,K,K1V,ON,Eastern Ontario,Ottawa (Riverside Park / Hunt Club West / Riverside South / YOW),45.3281,-75.6719,,drjohnsonfinancial.com,,,,
,,,,K,K1Y,ON,Eastern Ontario,Ottawa West,45.4023,-75.7329,,drkfg.com,,,,
,,,,K,K1Z,ON,Eastern Ontario,Ottawa (Westboro),45.3867,-75.7405,,drysdalefinancial.com,,,,
,,,,K,K2A,ON,Eastern Ontario,Ottawa (Highland Park / Carlingwood),45.3805,-75.7636,,dudleycpa.ca,,,,
,,,,K,K2B,ON,Eastern Ontario,Ottawa (Britannia / Pinecrest),45.3645,-75.7934,,dudleyllp.ca,,,,
,,,,K,K2C,ON,Eastern Ontario,Ottawa (Queensway / Copeland / Carlington / Carleton Heights),45.3679,-75.7381,,duggalwealth.ca,,,,
,,,,K,K2P,ON,Eastern Ontario,Ottawa (Centre Town),45.4166,-75.6904,,dulay.ca,,,,
,,,,K,K0A,ON,Eastern Ontario,National Capital Region (Almonte),45.2557,-76.2754,,dunbrook.ca,,,,
,,,,K,K0B,ON,Eastern Ontario,Prescott and Russell United Counties (Alfred),45.5029,-74.7479,,dunphymolloy.com,,,,
,,,,K,K0C,ON,Eastern Ontario,"Stormont, Dundas and Glengarry United Counties (Alexandria)",45.1686,-74.8966,,dupuislangen.com,,,,
,,,,K,K0E,ON,Eastern Ontario,South Leeds and Grenville United Counties (Prescott),44.8734,-75.4416,,durandandassociates.ca,,,,
,,,,K,K0G,ON,Eastern Ontario,Rideau Lakes area (Kemptville),45.0466,-76.4757,,durant-financial.com,,,,
,,,,K,K0K,ON,Eastern Ontario,"Quinte Shores, East Northumberland County & Prince Edward County (Picton)",44.3261,-77.4318,,duxburyandassociates.com,,,,
,,,,K,K0M,ON,Eastern Ontario,Kawartha lakes and Haliburton County (Bobcaygeon),44.8645,-78.6553,,dwpage.com,,,,
,,,,K,K1B,ON,Eastern Ontario,Gloucester (Blackburn Hamlet / Pine View),45.4284,-75.5875,,dynamictree.com,,,,
,,,,K,K1C,ON,Eastern Ontario,Gloucester (West Orleans),45.4677,-75.5399,,eaglepartners.ca,,,,
,,,,K,K1E,ON,Eastern Ontario,Orleans (Queenswood),45.4771,-75.5046,,eastcoastcu.ca,,,,
,,,,K,K1J,ON,Eastern Ontario,Gloucester (Beacon Hill / Cyrville),45.4519,-75.6036,,eastportfinancial.com,,,,
,,,,K,K1T,ON,Eastern Ontario,Gloucester (Blossom Park / Hunt Club East / Leitrim),45.3295,-75.6156,,eatonfs.com,,,,
,,,,K,K1W,ON,Eastern Ontario,Gloucester (South Orleans),45.4365,-75.5158,,ebdcas.com,,,,
,,,,K,K1X,ON,Eastern Ontario,Gloucester South,45.2756,-75.6283,,ebyfinancial.com,,,,
,,,,K,K2E,ON,Eastern Ontario,Nepean East,45.3438,-75.7157,,eccgroup.ca,,,,
,,,,K,K2G,ON,Eastern Ontario,Nepean (Davidson Heights),45.3211,-75.7391,,echelonpartners.com,,,,
,,,,K,K2H,ON,Eastern Ontario,Nepean (Bells Corners),45.3433,-75.8265,,ecivda.com,,,,
,,,,K,K2J,ON,Eastern Ontario,Nepean (Barrhaven),45.2691,-75.7518,,edgewaterfinancialproducts.ca,,,,
,,,,K,K2K,ON,Eastern Ontario,Kanata (Beaverbrook / South March),45.3704,-75.9198,,edjacksonfinancial.com,,,,
,,,,K,K2L,ON,Eastern Ontario,Kanata (Katimavik-Hazeldean / Glen Cairn),45.3001,-75.9244,,edpam.com,,,,
,,,,K,K2M,ON,Eastern Ontario,Kanata (Bridlewood),45.2861,-75.8562,,educatorsfinancialgroup.ca,,,,
,,,,K,K2R,ON,Eastern Ontario,Nepean (Fallowfield Village / Cedarhill Estates / Orchard Estates),45.2899,-75.8126,,edwardjones.com,,,,
,,,,K,K2S,ON,Eastern Ontario,Stittsville,45.2501,-75.9161,,edwardsdean.ca,,,,
,,,,K,K2T,ON,Eastern Ontario,Kanata (Marchwood),45.317,-75.9367,,edwardswealth.com,,,,
,,,,K,K2V,ON,Eastern Ontario,Kanata (Terry Fox / Palladium),45.2854,-75.8928,,ef.ca,,,,
,,,,K,K2W,ON,Eastern Ontario,Kanata (North March),45.3699,-75.9887,,efficientwealth.com,,,,
,,,,K,K4A,ON,Eastern Ontario,Orleans (Fallingbrook),45.4697,-75.4715,,efgi.com,,,,
,,,,K,K4B,ON,Eastern Ontario,Cumberland Township,45.4101,-75.3638,,egminsurance.com,,,,
,,,,K,K4C,ON,Eastern Ontario,Cumberland,45.498,-75.3916,,ehpartners.com,,,,
,,,,K,K4K,ON,Eastern Ontario,Rockland,45.5501,-75.291,,eifscanada.com,,,,
,,,,K,K4M,ON,Eastern Ontario,Manotick,45.2154,-75.6528,,eigenmachtcrackower.com,,,,
,,,,K,K4P,ON,Eastern Ontario,Greely,45.2434,-75.5674,,ekchan.com,,,,
,,,,K,K4R,ON,Eastern Ontario,Russell,45.2388,-75.3527,,ekcpa.pro,,,,
,,,,K,K6A,ON,Eastern Ontario,Hawkesbury,45.6001,-74.616,,elementuswealth.com,,,,
,,,,K,K6H,ON,Eastern Ontario,Cornwall East,45.0565,-74.6852,,elenkov.com,,,,
,,,,K,K6J,ON,Eastern Ontario,Cornwall West,45.0223,-74.7569,,elitecounsel.com,,,,
,,,,K,K6K,ON,Eastern Ontario,Cornwall North,45.061,-74.7774,,elitefinancialgroupinc.com,,,,
,,,,K,K6T,ON,Eastern Ontario,Elizabethtown,44.6301,-75.7448,,elle2taxservices.com,,,,
,,,,K,K6V,ON,Eastern Ontario,Brockville,44.6573,-75.7146,,ellement.ca,,,,
,,,,K,K7A,ON,Eastern Ontario,Smiths Falls,44.9001,-76.0161,,embreellp.ca,,,,
,,,,K,K7C,ON,Eastern Ontario,Carleton Place,45.1334,-76.1494,,emeritusfinancial.com,,,,
,,,,K,K7G,ON,Eastern Ontario,Gananoque,44.3334,-76.1661,,eminentchoice.com,,,,
,,,,K,K7H,ON,Eastern Ontario,Perth,44.9001,-76.2494,,empeyteam.com,,,,
,,,,K,K7K,ON,Eastern Ontario,Kingston (SW Pittsburgh Township),44.2569,-76.4717,,empire.ca,,,,
,,,,K,K7L,ON,Eastern Ontario,Kingston (Downtown),44.2955,-76.428,,employeefinancialeducation.ca,,,,
,,,,K,K7M,ON,Eastern Ontario,Kingston (Reddendale / Cataraqui / Collins Bay),44.2411,-76.5788,,empoweredwealth.ca,,,,
,,,,K,K7N,ON,Eastern Ontario,Amherstview,44.2224,-76.65,,encompasscu.ca,,,,
,,,,K,K7P,ON,Eastern Ontario,Kingston (Westbrook / Cataraqui Woods / Cedarwood),44.2814,-76.6111,,engracefinancial.com,,,,
,,,,K,K7R,ON,Eastern Ontario,Napanee,44.2501,-76.9494,,ennsbaxter.com,,,,
,,,,K,K7S,ON,Eastern Ontario,Arnprior,45.4334,-76.3494,,entaccountants.com,,,,
,,,,K,K7V,ON,Eastern Ontario,Renfrew,45.4668,-76.6827,,entrustfinancialservices.ca,,,,
,,,,K,K8A,ON,Eastern Ontario,Pembroke Central and northern subdivisions,45.7466,-77.2047,,envisionfinancial.ca,,,,
,,,,K,K8B,ON,Eastern Ontario,Pembroke (Pleasant View / Fairview),45.808,-77.0806,,epiccapital.ca,,,,
,,,,K,K8H,ON,Eastern Ontario,Petawawa,45.8945,-77.2801,,eprtrillium.ca,,,,
,,,,K,K8N,ON,Eastern Ontario,Belleville East,44.1735,-77.3684,,equatefinancial.com,,,,
,,,,K,K8P,ON,Eastern Ontario,Belleville West,44.1665,-77.4037,,equigenesis.com,,,,
,,,,K,K8R,ON,Eastern Ontario,Belleville (SE Sidney Township / Avondale),44.1399,-77.4683,,equitable.ca,,,,
,,,,K,K8V,ON,Eastern Ontario,Trenton,44.0992,-77.5776,,equitasfinancial.ca,,,,
,,,,K,K9A,ON,Eastern Ontario,Cobourg,43.9598,-78.1651,,equityassociates.ca,,,,
,,,,K,K9H,ON,Eastern Ontario,Peterborough North,44.3245,-78.3184,,equuis.ca,,,,
,,,,K,K9J,ON,Eastern Ontario,Peterborough South,44.3104,-78.2396,,eradams.com,,,,
,,,,K,K9K,ON,Eastern Ontario,Peterborough (Fairbairn Meadows / Jackson Heights),44.3138,-78.3606,,ervenplanning.com,,,,
,,,,K,K9L,ON,Eastern Ontario,Peterborough (Terra View Heights / Woodland Acres / Donwood),44.3552,-78.3199,,es3advisory.ca,,,,
,,,,K,K9V,ON,Eastern Ontario,Lindsay,44.3501,-78.7329,,escarpmentwealth.ca,,,,
,,,,L,L0A,ON,Central Ontario,West Northumberland County (Millbrook),44.1263,-78.5193,,esfinancialgroup.com,,,,
,,,,L,L0B,ON,Central Ontario,East Durham Regional Municipality (Orono),44.0773,-78.7465,,espressocapital.com,,,,
,,,,L,L0C,ON,Central Ontario,West Durham Regional Municipality (Sunderland),44.2094,-79.0725,,essentialfinancial.ca,,,,
,,,,L,L0E,ON,Central Ontario,Lake Simcoe Southeast Shore (Sutton West),44.3199,-79.2778,,essentialwealthgroup.com,,,,
,,,,L,L0G,ON,Central Ontario,Ontario Centre (Queensville),44.0586,-79.6235,,estatefinancial.ca,,,,
,,,,L,L0H,ON,Central Ontario,Whitby Region (Gormley),43.9023,-79.1554,,etfcm.com,,,,
,,,,L,L0J,ON,Central Ontario,North Peel Regional Municipality (Kleinburg),43.8566,-79.6485,,etfinancialservices.ca,,,,
,,,,L,L0K,ON,Central Ontario,Lake Simcoe North Shore (Coldwater),44.6233,-79.1235,,etheringtons.com,,,,
,,,,L,L0L,ON,Central Ontario,Lake Simcoe West Shore (Oro),44.4548,-79.7352,,ethicalfootprint.ca,,,,
,,,,L,L0M,ON,Central Ontario,Georgian Bay South Shore (Angus),44.3269,-80.0333,,evansic.com,,,,
,,,,L,L0R,ON,Central Ontario,East Haldimand County (Waterdown),43.1607,-79.7463,,evers-financial.com,,,,
,,,,L,L0S,ON,Central Ontario,Niagara Regional Municipality (Fonthill),42.9071,-79.0832,,eversavvy.ca,,,,
,,,,L,L0V,ON,Central Ontario,Westminster Abbey,45.4689,-75.0079,,everybodybenefits.ca,,,,
,,,,L,L1A,ON,Central Ontario,Port Hope,44.0168,-78.3995,,evolutionpg.ca,,,,
,,,,L,L1B,ON,Central Ontario,Bowmanville East,43.9235,-78.5457,,evolutionstrategies.ca,,,,
,,,,L,L1C,ON,Central Ontario,Bowmanville West,43.9714,-78.7095,,evolvefinancial.ca,,,,
,,,,L,L1E,ON,Central Ontario,Courtice,43.8969,-78.7683,,evsfinancial.ca,,,,
,,,,L,L1G,ON,Central Ontario,Oshawa Central,43.9233,-78.8684,,ewingmorris.com,,,,
,,,,L,L1H,ON,Central Ontario,Oshawa Southeast,43.9721,-78.8837,,ex-ponent.com,,,,
,,,,L,L1J,ON,Central Ontario,Oshawa Southwest,43.8852,-78.8771,,exceedia.ca,,,,
,,,,L,L1K,ON,Central Ontario,Oshawa East,43.9251,-78.8287,,excelplan.ca,,,,
,,,,L,L1L,ON,Central Ontario,Oshawa North,43.9581,-78.8972,,execucorpcanada.ca,,,,
,,,,L,L1M,ON,Central Ontario,Whitby North,43.9566,-78.9779,,eyfinancial.com,,,,
,,,,L,L1N,ON,Central Ontario,Whitby Southeast,43.8721,-78.9273,,ezlink.ca,,,,
,,,,L,L1P,ON,Central Ontario,Whitby Southwest,43.8866,-78.975,,faceyfinancial.com,,,,
,,,,L,L1R,ON,Central Ontario,Whitby Central,43.9215,-78.9412,,fairadvicefinancial.com,,,,
,,,,L,L1S,ON,Central Ontario,Ajax Southwest,43.8404,-79.0251,,fairhallzhang.com,,,,
,,,,L,L1T,ON,Central Ontario,Ajax Northwest,43.8843,-79.0534,,fairsplit.ca,,,,
,,,,L,L1V,ON,Central Ontario,Pickering Southwest,43.8605,-79.1618,,faithlifefinancial.ca,,,,
,,,,L,L1W,ON,Central Ontario,Pickering South,43.8197,-79.0803,,falconlamfinancial.com,,,,
,,,,L,L1X,ON,Central Ontario,Pickering Central,43.8558,-79.0972,,familytreefinancial.ca,,,,
,,,,L,L1Y,ON,Central Ontario,Pickering North,43.9555,-79.1194,,familywealthcoach.ca,,,,
,,,,L,L1Z,ON,Central Ontario,Ajax East,43.8773,-79.0055,,familywealthgroup.ca,,,,
,,,,L,L2A,ON,Central Ontario,Fort Erie,42.9001,-78.9329,,famme.ca,,,,
,,,,L,L2E,ON,Central Ontario,Niagara Falls Central,43.0537,-79.1018,,farrowfinancial.ca,,,,
,,,,L,L2G,ON,Central Ontario,Niagara Falls Southeast,43.0696,-79.0818,,farrowpension.ca,,,,
,,,,L,L2H,ON,Central Ontario,Niagara Falls West,43.1009,-79.1379,,fbc.ca,,,,
,,,,L,L2J,ON,Central Ontario,Niagara Falls North,43.1296,-79.1034,,fcfinancial.ca,,,,
,,,,L,L2M,ON,Central Ontario,St. Catharines Northeast,43.196,-79.2161,,fdgi.ca,,,,
,,,,L,L2N,ON,Central Ontario,St. Catharines Northwest,43.1923,-79.2559,,fdgteam.com,,,,
,,,,L,L2P,ON,Central Ontario,St. Catharines East,43.1527,-79.2091,,fduguay.com,,,,
,,,,L,L2R,ON,Central Ontario,St. Catharines Central,43.1419,-79.2966,,fee-only.ca,,,,
,,,,L,L2S,ON,Central Ontario,St. Catharines Southwest,43.1447,-79.2634,,fengate.com,,,,
,,,,L,L2T,ON,Central Ontario,St. Catharines South,43.1313,-79.2317,,fenicky.com,,,,
,,,,L,L2V,ON,Central Ontario,St. Catharines Southeast,43.1142,-79.2035,,fenskefinancial.com,,,,
,,,,L,L2W,ON,Central Ontario,St. Catharines West,43.1688,-79.2794,,ferman.ca,,,,
,,,,L,L3B,ON,Central Ontario,Welland East,42.9878,-79.2219,,fernandesfinancial.com,,,,
,,,,L,L3C,ON,Central Ontario,Welland West,42.9998,-79.2656,,fernhill.bc.ca,,,,
,,,,L,L3K,ON,Central Ontario,Port Colborne,42.9001,-79.2329,,fettesworld.com,,,,
,,,,L,L3M,ON,Central Ontario,Grimsby,43.2001,-79.5663,,ffccorp.com,,,,
,,,,L,L3P,ON,Central Ontario,Markham Central,43.8769,-79.2686,,ffgcanada.ca,,,,
,,,,L,L3R,ON,Central Ontario,Markham Outer Southwest,43.8479,-79.3288,,ffp.pe.ca,,,,
,,,,L,L3S,ON,Central Ontario,Markham Southeast,43.8486,-79.2617,,fgfg.ca,,,,
,,,,L,L3T,ON,Central Ontario,Thornhill East,43.8227,-79.3946,,fgsaccountants.com,,,,
,,,,L,L3V,ON,Central Ontario,Orillia,44.6087,-79.4207,,fhminc.ab.ca,,,,
,,,,L,L3X,ON,Central Ontario,Newmarket Southwest,44.0433,-79.4912,,fiduciarytrust.ca,,,,
,,,,L,L3Y,ON,Central Ontario,Newmarket Northeast,44.0565,-79.4555,,fiduciawealth.ca,,,,
,,,,L,L3Z,ON,Central Ontario,Bradford,44.1168,-79.5663,,fieldingpierce.com,,,,
,,,,L,L4A,ON,Central Ontario,Stouffville,43.9668,-79.2496,,fieracapital.com,,,,
,,,,L,L4B,ON,Central Ontario,Richmond Hill Southeast,43.8582,-79.3985,,filipchuckmanagement.com,,,,
,,,,L,L4C,ON,Central Ontario,Richmond Hill Southwest,43.8669,-79.4414,,financeforlife.ca,,,,
,,,,L,L4E,ON,Central Ontario,Richmond Hill North,43.9394,-79.4349,,financial-solutions.ca,,,,
,,,,L,L4G,ON,Central Ontario,Aurora,44.0001,-79.4663,,financialcaregroup.com,,,,
,,,,L,L4H,ON,Central Ontario,Woodbridge North,43.8432,-79.5644,,financialconfidence.com,,,,
,,,,L,L4J,ON,Central Ontario,Thornhill West,43.8156,-79.4534,,financialdivorceservices.com,,,,
,,,,L,L4K,ON,Central Ontario,Concord,43.8001,-79.4829,,financialfootprint.ca,,,,
,,,,L,L4L,ON,Central Ontario,Woodbridge South,43.8064,-79.5995,,financialfreshstart.ca,,,,
,,,,L,L4M,ON,Central Ontario,Barrie North,44.4001,-79.6663,,financialhorizons.com,,,,
,,,,L,L4N,ON,Central Ontario,Barrie South,44.3572,-79.6929,,financialhouse.ca,,,,
,,,,L,L4P,ON,Central Ontario,Keswick,44.2501,-79.4663,,financiallink.ca,,,,
,,,,L,L4R,ON,Central Ontario,Midland,44.7501,-79.883,,financiallysound.ca,,,,
,,,,L,L4S,ON,Central Ontario,Richmond Hill Central,43.8985,-79.4143,,financialplanningsolutions.ca,,,,
,,,,L,L4T,ON,Central Ontario,Mississauga (Malton),43.7139,-79.6434,,financialservicesgroup.net,,,,
,,,,L,L4V,ON,Central Ontario,Mississauga (Wildwood),43.6935,-79.6069,,financialsolutionscanada.com,,,,
,,,,L,L4W,ON,Central Ontario,Mississauga (Matheson / East Rathwood),43.6413,-79.6296,,financialstrategy.ca,,,,
,,,,L,L4X,ON,Central Ontario,Mississauga (East Applewood / East Dixie / NE Lakeview),43.6178,-79.5786,,financialtechtools.ca,,,,
,,,,L,L4Y,ON,Central Ontario,Mississauga (West Applewood / West Dixie / NW Lakeview),43.6028,-79.5929,,finblue.ca,,,,
,,,,L,L4Z,ON,Central Ontario,Mississauga (West Rathwood / East Hurontario / SE Gateway),43.6192,-79.6538,,fincor.ca,,,,
,,,,L,L5A,ON,Central Ontario,Mississauga (Mississauga Valleys / East Cooksville),43.5883,-79.6091,,finfocusalta.com,,,,
,,,,L,L5B,ON,Central Ontario,Mississauga (West Cooksville / Fairview / City Centre / East Creditview),43.5771,-79.6306,,finlay-ca.com,,,,
,,,,L,L5C,ON,Central Ontario,Mississauga (West Creditview / Mavis / Erindale),43.5624,-79.6504,,finovo.ca,,,,
,,,,L,L5E,ON,Central Ontario,Mississauga (Central Lakeview),43.5836,-79.561,,finuccipc.com,,,,
,,,,L,L5G,ON,Central Ontario,Mississauga (SW Lakeview / Mineola / East Port Credit),43.5647,-79.5852,,firstaffiliated.ca,,,,
,,,,L,L5H,ON,Central Ontario,Mississauga (West Port Credit / Lorne Park / East Sheridan),43.5419,-79.6164,,firstatlantic.ca,,,,
,,,,L,L5J,ON,Central Ontario,Mississauga (Clarkson / Southdown),43.5102,-79.6296,,firstavenuecounsel.com,,,,
,,,,L,L5K,ON,Central Ontario,Mississauga (West Sheridan),43.5272,-79.6617,,firstcalgary.com,,,,
,,,,L,L5L,ON,Central Ontario,Mississauga (Erin Mills / Western Business Park),43.5373,-79.6903,,firstcu.ca,,,,
,,,,L,L5M,ON,Central Ontario,Mississauga (Churchill Meadows / Central Erin Mills / South Streetsville),43.5637,-79.7202,,firstoakfinancial.ca,,,,
,,,,L,L5N,ON,Central Ontario,Mississauga (Lisgar / Meadowvale),43.5924,-79.7611,,firstontario.com,,,,
,,,,L,L5P,ON,Central Ontario,Mississauga (YYZ),43.6904,-79.6238,,firstontariocu.com,,,,
,,,,L,L5R,ON,Central Ontario,Mississauga (West Hurontario / SW Gateway),43.606,-79.6708,,firstrepubliccapital.com,,,,
,,,,L,L5S,ON,Central Ontario,Mississauga (Cardiff / NE Gateway),43.6801,-79.6783,,fiscalwellness.com,,,,
,,,,L,L5T,ON,Central Ontario,Mississauga (Courtney Park / East Gateway),43.6683,-79.6182,,fischerfinancial.ca,,,,
,,,,L,L5V,ON,Central Ontario,Mississauga (East Credit),43.5972,-79.6931,,fiveseasonsfinancial.com,,,,
,,,,L,L5W,ON,Central Ontario,Mississauga (Meadowvale Village / West Gateway),43.6313,-79.7148,,fixitryan.ca,,,,
,,,,L,L6A,ON,Central Ontario,Maple,43.8501,-79.5163,,fkwm.ca,,,,
,,,,L,L6B,ON,Central Ontario,Markham East,43.9007,-79.2175,,flci.ca,,,,
,,,,L,L6C,ON,Central Ontario,Markham Northwest,43.9045,-79.3392,,fletchermudryk.com,,,,
,,,,L,L6E,ON,Central Ontario,Markham Northeast,43.9002,-79.2676,,fmbuilding.ca,,,,
,,,,L,L6G,ON,Central Ontario,Markham Inner Southwest,43.8485,-79.3346,,fmfgroup.com,,,,
,,,,L,L6H,ON,Central Ontario,Oakville North,43.4881,-79.7098,,fmr.com,,,,
,,,,L,L6J,ON,Central Ontario,Oakville Northeast,43.4757,-79.6591,,fmtax.ca,,,,
,,,,L,L6K,ON,Central Ontario,Oakville East,43.4396,-79.6878,,focusfin.ca,,,,
,,,,L,L6L,ON,Central Ontario,Oakville South,43.4032,-79.7186,,forbeswealth.ca,,,,
,,,,L,L6M,ON,Central Ontario,Oakville West,43.4464,-79.7593,,foremost-financial.com,,,,
,,,,L,L6P,ON,Central Ontario,Brampton North,43.7942,-79.7021,,foresters.com,,,,
,,,,L,L6R,ON,Central Ontario,Brampton Northwest,43.7592,-79.7605,,forgefirst.com,,,,
,,,,L,L6S,ON,Central Ontario,Brampton North Central,43.7379,-79.726,,forstargroup.com,,,,
,,,,L,L6T,ON,Central Ontario,Brampton East,43.7196,-79.6854,,forstrong.com,,,,
,,,,L,L6V,ON,Central Ontario,Brampton Central,43.7059,-79.7626,,fortressinvestments.ca,,,,
,,,,L,L6W,ON,Central Ontario,Brampton Southeast,43.68,-79.7273,,forwardthinkingfinancial.com,,,,
,,,,L,L6X,ON,Central Ontario,Brampton Southwest,43.6665,-79.8054,,fosteragency.ca,,,,
,,,,L,L6Y,ON,Central Ontario,Brampton South,43.6249,-79.7876,,foundational.ca,,,,
,,,,L,L6Z,ON,Central Ontario,Brampton West Central,43.7328,-79.7953,,foundationwealth.ca,,,,
,,,,L,L7A,ON,Central Ontario,Brampton West,43.6909,-79.8377,,fourpointfinancial.ca,,,,
,,,,L,L7B,ON,Central Ontario,King City,43.9286,-79.5269,,fourpointsfinancial.com,,,,
,,,,L,L7C,ON,Central Ontario,Caledon,43.8753,-79.8558,,fowler-financial.com,,,,
,,,,L,L7E,ON,Central Ontario,Bolton,43.8795,-79.7379,,foxfinancial.ca,,,,
,,,,L,L7G,ON,Central Ontario,Georgetown,43.6501,-79.9163,,foxgrovebenefits.com,,,,
,,,,L,L7J,ON,Central Ontario,Acton,43.6297,-80.0415,,foxmail.com,,,,
,,,,L,L7K,ON,Central Ontario,Caledon Village,43.8602,-79.996,,foyston.com,,,,
,,,,L,L7L,ON,Central Ontario,Burlington Northeast,43.3799,-79.7668,,fpetc.ca,,,,
,,,,L,L7M,ON,Central Ontario,Burlington North,43.4342,-79.8701,,fpfinc.ca,,,,
,,,,L,L7N,ON,Central Ontario,Burlington East,43.3512,-79.784,,fpteam.ca,,,,
,,,,L,L7P,ON,Central Ontario,Burlington West,43.3806,-79.886,,fralickfinancial.ca,,,,
,,,,L,L7R,ON,Central Ontario,Burlington Southeast,43.375,-79.8434,,frankallenfinancial.com,,,,
,,,,L,L7S,ON,Central Ontario,Burlington South,43.323,-79.8092,,franklintempleton.com,,,,
,,,,L,L7T,ON,Central Ontario,Burlington Southwest,43.3081,-79.8507,,franktooton.com,,,,
,,,,L,L8B,ON,Central Ontario,Waterdown,43.3334,-79.8829,,fransenfinancial.com,,,,
,,,,L,L9G,ON,Central Ontario,Ancaster West,43.1836,-79.9902,,fraserandpartners.ca,,,,
,,,,L,L9H,ON,Central Ontario,Dundas,43.2638,-79.9524,,fraserbarker.com,,,,
,,,,L,L9J,ON,Central Ontario,Barrie,44.3186,-79.6761,,fraserco.org,,,,
,,,,L,L9K,ON,Central Ontario,Ancaster East,43.225,-79.9427,,fraserfinancial.com,,,,
,,,,L,L9L,ON,Central Ontario,Port Perry,44.1068,-78.9444,,fraserhoyt.com,,,,
,,,,L,L9M,ON,Central Ontario,Penetanguishene,44.7834,-79.9164,,freed.ca,,,,
,,,,L,L9N,ON,Central Ontario,Holland Landing,44.1149,-79.5014,,freedom.ca,,,,
,,,,L,L9P,ON,Central Ontario,Uxbridge,44.1001,-79.1163,,freedomprocess.com,,,,
,,,,L,L9R,ON,Central Ontario,Alliston,44.1501,-79.8663,,fris.ca,,,,
,,,,L,L9S,ON,Central Ontario,Innisfil,44.3001,-79.6496,,fritzfinancial.ca,,,,
,,,,L,L9T,ON,Central Ontario,Milton,43.5148,-79.884,,frontierwealthmanagement.ca,,,,
,,,,L,L9V,ON,Central Ontario,Orangeville North,43.9597,-80.1079,,frostfinancial.com,,,,
,,,,L,L9W,ON,Central Ontario,Orangeville South,43.9702,-80.016,,fsefinancial.net,,,,
,,,,L,L9X,ON,Central Ontario,Minesing,44.4334,-79.833,,fsgroup.ca,,,,
,,,,L,L9X,ON,Central Ontario,Barrie,44.4001,-79.6663,,fsgwealth.com,,,,
,,,,L,L9X,ON,Central Ontario,Midhurst,44.4438,-79.7318,,fsnapanee.ca,,,,
,,,,L,L9X,ON,Central Ontario,Springwater,44.4954,-79.8503,,fullcirclefinancial.ca,,,,
,,,,L,L9Y,ON,Central Ontario,Collingwood,44.4834,-80.2164,,fullerfi289-636-4449nancialgroup.com,,,,
,,,,L,L9Z,ON,Central Ontario,Wasaga Beach,44.5168,-80.0164,,fundex.com,,,,
,,,,M,M1B,ON,Metropolitan Toronto,Scarborough (Malvern / Rouge River),43.8113,-79.193,,futurefinancial.com,,,,
,,,,M,M1C,ON,Metropolitan Toronto,Scarborough (Rouge Hill / Port Union / Highland Creek),43.7878,-79.1564,,futurefocusplanners.com,,,,
,,,,M,M1E,ON,Metropolitan Toronto,Scarborough (Guildwood / Morningside / Ellesmere),43.7678,-79.1866,,fvfg.ca,,,,
,,,,M,M1G,ON,Metropolitan Toronto,Scarborough (Woburn),43.7712,-79.2144,,fwb-inc.com,,,,
,,,,M,M1H,ON,Metropolitan Toronto,Scarborough (Cedarbrae),43.7686,-79.2389,,galibiercapital.com,,,,
,,,,M,M1J,ON,Metropolitan Toronto,Scarborough (Eglinton),43.7464,-79.2323,,gallerywealth.ca,,,,
,,,,M,M1K,ON,Metropolitan Toronto,Scarborough (Kennedy Park / Ionview / East Birchmount Park),43.7298,-79.2639,,gardinersfinancialcentre.ca,,,,
,,,,M,M1L,ON,Metropolitan Toronto,Scarborough (The Golden Mile / Clairlea / Oakridge / Birchmount Park East),43.7122,-79.2843,,garnerfinancialplanning.ca,,,,
,,,,M,M1M,ON,Metropolitan Toronto,Scarborough (Cliffside / Cliffcrest / Scarborough Village West),43.7247,-79.2312,,gaudreaufinance.com,,,,
,,,,M,M1N,ON,Metropolitan Toronto,Scarborough (Birch Cliff / Cliffside West),43.6952,-79.2646,,gavingroup.ca,,,,
,,,,M,M1P,ON,Metropolitan Toronto,Scarborough (Dorset Park / Wexford Heights / Scarborough Town Centre),43.7612,-79.2707,,gawthropfinancial.com,,,,
,,,,M,M1R,ON,Metropolitan Toronto,Scarborough (Wexford / Maryvale),43.7507,-79.3003,,gbco.ca,,,,
,,,,M,M1S,ON,Metropolitan Toronto,Scarborough (Agincourt),43.7946,-79.2644,,gbtel.ca,,,,
,,,,M,M1T,ON,Metropolitan Toronto,Scarborough (Clarks Corners / Tam O'Shanter / Sullivan),43.7812,-79.3036,,gbu.ca,,,,
,,,,M,M1V,ON,Metropolitan Toronto,Scarborough (Milliken / Agincourt North / Steeles East / L'Amoreaux East),43.8177,-79.2819,,gcostafs.com,,,,
,,,,M,M1W,ON,Metropolitan Toronto,Scarborough (Steeles West / L'Amoreaux West),43.8016,-79.3216,,gcrewe.com,,,,
,,,,M,M1X,ON,Metropolitan Toronto,Scarborough (Upper Rouge),43.834,-79.2069,,gencaninc.com,,,,
,,,,M,M2H,ON,Metropolitan Toronto,North York (Hillcrest Village),43.8015,-79.3577,,generalmail.com,,,,
,,,,M,M2J,ON,Metropolitan Toronto,North York (Fairview / Henry Farm / Oriole),43.7801,-79.3479,,generationsfinancialsolutions.com,,,,
,,,,M,M2K,ON,Metropolitan Toronto,North York (Bayview Village),43.7797,-79.3813,,generisfinancial.ca,,,,
,,,,M,M2L,ON,Metropolitan Toronto,North York (York Mills / Silver Hills),43.7547,-79.3764,,genssante.com,,,,
,,,,M,M2M,ON,Metropolitan Toronto,Willowdale East (Newtonbrook),43.7915,-79.4103,,genuscap.com,,,,
,,,,M,M2N,ON,Metropolitan Toronto,Willowdale South,43.7673,-79.4111,,georgijevfinancial.ca,,,,
,,,,M,M2P,ON,Metropolitan Toronto,North York (York Mills West),43.75,-79.3978,,getamortgage.ca,,,,
,,,,M,M2R,ON,Metropolitan Toronto,Willowdale West,43.7786,-79.445,,gfdscu.com,,,,
,,,,M,M3A,ON,Metropolitan Toronto,North York (York Heights / Victoria Village / Parkway East),43.7545,-79.33,,gffg.com,,,,
,,,,M,M3B,ON,Metropolitan Toronto,Don Mills North,43.745,-79.359,,gfg.ca,,,,
,,,,M,M3C,ON,Metropolitan Toronto,Don Mills South (Flemingdon Park),43.7334,-79.3329,,gfiic.com,,,,
,,,,M,M3H,ON,Metropolitan Toronto,North York (Armour Heights / Wilson Heights / Downsview North),43.7535,-79.4472,,gfsg.ca,,,,
,,,,M,M3J,ON,Metropolitan Toronto,North York (Northwood Park / York University),43.7694,-79.4921,,gfwealth.ca,,,,
,,,,M,M3L,ON,Metropolitan Toronto,Downsview West,43.7334,-79.5116,,gghc.com,,,,
,,,,M,M3M,ON,Metropolitan Toronto,Downsview Central,43.7319,-79.4928,,ghafinancial.com,,,,
,,,,M,M3N,ON,Metropolitan Toronto,North York (Jane and Finch),43.7568,-79.521,,giancola.ca,,,,
,,,,M,M4A,ON,Metropolitan Toronto,North York (Sweeney Park / Wigmore Park),43.7276,-79.3148,,gicandassociates.com,,,,
,,,,M,M4B,ON,Metropolitan Toronto,East York (Parkview Hill / Woodbine Gardens),43.7063,-79.3094,,giezensoong.com,,,,
,,,,M,M4C,ON,Metropolitan Toronto,East York (Woodbine Heights),43.6913,-79.3116,,gifinc.ca,,,,
,,,,M,M4G,ON,Metropolitan Toronto,East York (Leaside),43.7124,-79.3644,,gilbertfinancial.net,,,,
,,,,M,M4H,ON,Metropolitan Toronto,East York (Thorncliffe Park),43.7059,-79.3464,,gilchristfinancial.com,,,,
,,,,M,M5M,ON,Metropolitan Toronto,North York (Bedford Park / Lawrence Park West / Lawrence Manor East),43.7335,-79.4177,,gillandschmall.com,,,,
,,,,M,M6A,ON,Metropolitan Toronto,North York (Lawrence Manor / Lawrence Heights),43.7223,-79.4504,,gillespieadams.ca,,,,
,,,,M,M6B,ON,Metropolitan Toronto,North York (Glencairn),43.7081,-79.4479,,gillriefinancial.com,,,,
,,,,M,M6C,ON,Metropolitan Toronto,York (Cedarvale),43.6915,-79.4307,,girardfinancial.com,,,,
,,,,M,M6E,ON,Metropolitan Toronto,York (Fairbank / Oakwood),43.6889,-79.4507,,glavacfinancial.com,,,,
,,,,M,M6L,ON,Metropolitan Toronto,North York (North Park / Maple Leaf Park / Upwood Park),43.7137,-79.4869,,glc-amgroup.com,,,,
,,,,M,M6M,ON,Metropolitan Toronto,York (Del Ray / Keelsdale / Mount Dennis / Silverthorne),43.6934,-79.4857,,glenoliver.com,,,,
,,,,M,M6N,ON,Metropolitan Toronto,York (Runnymede / The Junction North),43.6748,-79.4839,,globalassociates.ca,,,,
,,,,M,M7A,ON,Metropolitan Toronto,Queen's Park Ontario Provincial Government,43.6641,-79.3889,,globalcommunity.net,,,,
,,,,M,M8W,ON,Metropolitan Toronto,Etobicoke (Alderwood / Long Branch),43.6021,-79.5402,,globalfinancial.ca,,,,
,,,,M,M8X,ON,Metropolitan Toronto,Etobicoke (The Kingsway / Montgomery Road / Old Mill North),43.6518,-79.5076,,globalmci.com,,,,
,,,,M,M8Y,ON,Metropolitan Toronto,Etobicoke (Old Mill South / King's Mill Park / Sunnylea / Humber Bay / Mimico NE / The Queensway East / Royal York South East / Kingsway Park South East),43.6325,-79.4939,,globalresp.com,,,,
,,,,M,M8Z,ON,Metropolitan Toronto,Etobicoke (Mimico NW / The Queensway West / South of Bloor / Kingsway Park South West / Royal York South West),43.6256,-79.5231,,globe-invest.com,,,,
,,,,M,M9A,ON,Metropolitan Toronto,Etobicoke (Islington Avenue),43.6662,-79.5282,,gluskinsheff.com,,,,
,,,,M,M9B,ON,Metropolitan Toronto,Etobicoke (West Deane Park / Princess Gardens / Martin Grove / Islington / Cloverdale),43.6505,-79.5517,,gmail.com.,,,,
,,,,M,M9C,ON,Metropolitan Toronto,Etobicoke (Eringate / Bloordale Gardens / Old Burnhamthorpe / Markland Woods),43.6437,-79.5767,,gmfs.ca,,,,
,,,,M,M9L,ON,Metropolitan Toronto,North York (Humber Summit),43.7598,-79.5565,,gmpsecurities.com,,,,
,,,,M,M9M,ON,Metropolitan Toronto,North York (Humberlea / Emery),43.7366,-79.5401,,gmpsecuritiesllc.com,,,,
,,,,M,M9N,ON,Metropolitan Toronto,Weston,43.7068,-79.517,,gobelmont.ca,,,,
,,,,M,M9P,ON,Metropolitan Toronto,Etobicoke (Westmount),43.6949,-79.5323,,goddardfinancial.ca,,,,
,,,,M,M9R,ON,Metropolitan Toronto,Etobicoke (Kingsview Village / St. Phillips / Martin Grove Gardens / Richview Gardens),43.6898,-79.5582,,gold-im.com,,,,
,,,,M,M9V,ON,Metropolitan Toronto,Etobicoke (South Steeles / Silverstone / Humbergate / Jamestown / Mount Olive / Beaumond Heights / Thistletown / Albion Gardens),43.7432,-79.5876,,gonzalesbay.ca,,,,
,,,,M,M9W,ON,Metropolitan Toronto,Etobicoke Northwest (Clairville / Humberwood / Woodbine Downs / West Humber / Kipling Heights / Rexdale / Elms / Tandridge / Old Rexdale),43.7144,-79.5909,,gooderteam.com,,,,
,,,,N,N0A,ON,Southwestern Ontario,West Haldimand (Port Dover),42.9403,-79.945,,goodmanandcompany.com,,,,
,,,,N,N0B,ON,Southwestern Ontario,Wellington (Elora),43.5569,-80.4414,,goodmanbrown.ca,,,,
,,,,N,N0C,ON,Southwestern Ontario,Georgian Bay Southwest Shore (Dundalk),44.2561,-80.5029,,goodwealth.ca,,,,
,,,,N,N0E,ON,Southwestern Ontario,Brant and Norfolk (Waterford),42.6618,-80.5572,,goodwealthmanagement.com,,,,
,,,,N,N0G,ON,Southwestern Ontario,Huron (Wingham),44.0024,-81.0676,,goodwoodfunds.com,,,,
,,,,N,N0H,ON,Southwestern Ontario,Bruce Peninsula (Wiarton),44.6941,-81.0962,,gordonpilkington.com,,,,
,,,,N,N0J,ON,Southwestern Ontario,Oxford (Norwich),42.9775,-80.7057,,gordonstirrett.com,,,,
,,,,N,N0K,ON,Southwestern Ontario,Perth (Mitchell),43.5067,-81.1582,,goreca.com,,,,
,,,,N,N0L,ON,Southwestern Ontario,Elgin (Dorchester),42.7557,-81.4533,,govanwealth.com,,,,
,,,,N,N0M,ON,Southwestern Ontario,Middlesex (Clinton),43.2788,-81.5442,,gpginc.ca,,,,
,,,,N,N0N,ON,Southwestern Ontario,Lambton (Forest),42.9062,-82.11,,gpkfinancial.ca,,,,
,,,,N,N0P,ON,Southwestern Ontario,Kent (Blenheim),42.4045,-81.9107,,gracorpcapital.com,,,,
,,,,N,N0R,ON,Southwestern Ontario,Essex (Belle River),42.1783,-82.7715,,graftonfunds.com,,,,
,,,,N,N1A,ON,Southwestern Ontario,Dunnville,42.9001,-79.6163,,grandfinancial.ca,,,,
,,,,N,N1C,ON,Southwestern Ontario,Guelph South,43.4921,-80.2267,,grandtag.ca,,,,
,,,,N,N1E,ON,Southwestern Ontario,Guelph North,43.5677,-80.2418,,grantcga.com,,,,
,,,,N,N1G,ON,Southwestern Ontario,Guelph Central,43.5184,-80.2257,,granvillewest.com,,,,
,,,,N,N1H,ON,Southwestern Ontario,Guelph Northwest,43.5588,-80.3004,,gravitassecurities.com,,,,
,,,,N,N1K,ON,Southwestern Ontario,Guelph West,43.526,-80.3051,,grayhawk.investments,,,,
,,,,N,N1L,ON,Southwestern Ontario,Guelph East,43.516,-80.19,,grbairdfin.com,,,,
,,,,N,N1M,ON,Southwestern Ontario,Fergus,43.7001,-80.3664,,greaterassurance.com,,,,
,,,,N,N1P,ON,Southwestern Ontario,Cambridge South,43.3398,-80.2955,,greenchipfinancial.com,,,,
,,,,N,N1R,ON,Southwestern Ontario,Cambridge Central,43.3666,-80.2239,,greenfeldfinancial.com,,,,
,,,,N,N1S,ON,Southwestern Ontario,Cambridge Southwest,43.3592,-80.3347,,greenhorwood.com,,,,
,,,,N,N1T,ON,Southwestern Ontario,Cambridge East,43.3849,-80.2833,,greenprivatewealth.com,,,,
,,,,N,N2A,ON,Southwestern Ontario,Kitchener East,43.4413,-80.4246,,greenridgegroup.ca,,,,
,,,,N,N2B,ON,Southwestern Ontario,Kitchener Northeast,43.4646,-80.4467,,greenrockfinancialgroup.com,,,,
,,,,N,N2C,ON,Southwestern Ontario,Kitchener South Central,43.4182,-80.4451,,greenskycapital.com,,,,
,,,,N,N2E,ON,Southwestern Ontario,Kitchener Southwest,43.4106,-80.5011,,gregormcdonald.com,,,,
,,,,N,N2G,ON,Southwestern Ontario,Kitchener Central,43.4443,-80.4891,,greystone.ca,,,,
,,,,N,N2H,ON,Southwestern Ontario,Kitchener North Central,43.4581,-80.4818,,gro-net.com,,,,
,,,,N,N2J,ON,Southwestern Ontario,Waterloo Southeast,43.504,-80.5366,,groupbcc.com,,,,
,,,,N,N2K,ON,Southwestern Ontario,Kitchener North,43.4961,-80.4936,,groupexcel.com,,,,
,,,,N,N2L,ON,Southwestern Ontario,Waterloo South,43.4715,-80.5454,,growyourwealth.ca,,,,
,,,,N,N2M,ON,Southwestern Ontario,Kitchener Northwest,43.4363,-80.5093,,gryphon.ca,,,,
,,,,N,N2N,ON,Southwestern Ontario,Kitchener West,43.426,-80.5438,,gryphonbenefits.com,,,,
,,,,N,N2P,ON,Southwestern Ontario,Kitchener Southeast,43.3878,-80.4296,,gtawealth.com,,,,
,,,,N,N2R,ON,Southwestern Ontario,Kitchener South,43.3849,-80.487,,guardianfinancial.ca,,,,
,,,,N,N2T,ON,Southwestern Ontario,Waterloo Southwest,43.453,-80.5692,,guilfoylefinancial.com,,,,
,,,,N,N2V,ON,Southwestern Ontario,Waterloo Northwest,43.4764,-80.5842,,gwl.ca,,,,
,,,,N,N2Z,ON,Southwestern Ontario,Kincardine,44.1664,-81.601,,h-a-financial.ca,,,,
,,,,N,N3A,ON,Southwestern Ontario,Baden,43.4001,-80.6497,,hafinancial.com,,,,
,,,,N,N3B,ON,Southwestern Ontario,Elmira,43.6001,-80.5497,,halseyfinancial.com,,,,
,,,,N,N3C,ON,Southwestern Ontario,Cambridge Northeast,43.4389,-80.2649,,haltonhillsfinancial.com,,,,
,,,,N,N3E,ON,Southwestern Ontario,Cambridge Northwest,43.4193,-80.3505,,haltonwealthmanagement.com,,,,
,,,,N,N3H,ON,Southwestern Ontario,Cambridge West,43.4267,-80.3699,,hamilton-capital.com,,,,
,,,,N,N3L,ON,Southwestern Ontario,Paris,43.2,-80.3833,,hamiltonandpartners.com,,,,
,,,,N,N3W,ON,Southwestern Ontario,Caledonia,43.0668,-79.9329,,hammerconsultants.com,,,,
,,,,N,N3Y,ON,Southwestern Ontario,Simcoe,42.8334,-80.2997,,hannafinancial.ca,,,,
,,,,N,N4B,ON,Southwestern Ontario,Delhi,42.8501,-80.4997,,hansberger.com,,,,
,,,,N,N4G,ON,Southwestern Ontario,Tillsonburg,42.8599,-80.7262,,harbourfinancialgroup.ca,,,,
,,,,N,N4K,ON,Southwestern Ontario,Owen Sound,44.5672,-80.9435,,harbourplanninggroup.com,,,,
,,,,N,N4L,ON,Southwestern Ontario,Meaford,44.6001,-80.583,,hargravemb.ca,,,,
,,,,N,N4N,ON,Southwestern Ontario,Hanover,44.1501,-81.033,,harrisjones.ca,,,,
,,,,N,N4S,ON,Southwestern Ontario,Woodstock Central,43.1432,-80.7338,,harrisonfinancialgroup.live,,,,
,,,,N,N4T,ON,Southwestern Ontario,Woodstock North,43.1485,-80.7319,,harrytubbs.ca,,,,
,,,,N,N4V,ON,Southwestern Ontario,Woodstock South,43.115,-80.743,,harstinfinancial.com,,,,
,,,,N,N4W,ON,Southwestern Ontario,Listowel,43.7334,-80.9497,,harvestgoldfinancial.com,,,,
,,,,N,N4X,ON,Southwestern Ontario,St. Mary's,43.2655,-81.1687,,harvestwealth.ca,,,,
,,,,N,N4Z,ON,Southwestern Ontario,Stratford South,43.3634,-81.0069,,haskayne.ucalgary.ca,,,,
,,,,N,N5A,ON,Southwestern Ontario,Stratford North,43.3668,-80.9497,,haskingsfinancial.com,,,,
,,,,N,N5C,ON,Southwestern Ontario,Ingersoll,43.0334,-80.883,,haslamfinancial.ca,,,,
,,,,N,N5H,ON,Southwestern Ontario,Aylmer,42.7668,-80.983,,hatchmuir.com,,,,
,,,,N,N5L,ON,Southwestern Ontario,Port Stanley,42.6668,-81.2164,,hatitacfinancial.com,,,,
,,,,N,N5P,ON,Southwestern Ontario,St. Thomas North,42.7779,-81.1769,,hayter.on.ca,,,,
,,,,N,N5R,ON,Southwestern Ontario,St. Thomas South,42.7597,-81.1762,,haywood.com,,,,
,,,,N,N5V,ON,Southwestern Ontario,London (YXU / North and East Argyle / East Huron Heights),43.0233,-81.1643,,headwatersfinancial.ca,,,,
,,,,N,N5W,ON,Southwestern Ontario,London East (SW Argyle / Hamilton Road),42.9856,-81.1821,,heathbridge.com,,,,
,,,,N,N5X,ON,Southwestern Ontario,London (Fanshawe / Stoneybrook / Stoney Creek / Uplands / East Masonville),43.0443,-81.2391,,heinfinancial.com,,,,
,,,,N,N5Y,ON,Southwestern Ontario,London (West Huron Heights / Carling),43.0123,-81.2307,,helkiefinancial.com,,,,
,,,,N,N5Z,ON,Southwestern Ontario,London (Glen Cairn),42.966,-81.2053,,hendersoninsurance.ca,,,,
,,,,N,N6A,ON,Southwestern Ontario,London North (UWO),42.9976,-81.2563,,hendersonpartnersllp.ca,,,,
,,,,N,N6B,ON,Southwestern Ontario,London Central,42.9835,-81.2386,,heritageresp.com,,,,
,,,,N,N6C,ON,Southwestern Ontario,London South (East Highland / North White Oaks / North Westminster),42.9582,-81.238,,heritagewealth.ca55financial.com,,,,
,,,,N,N6E,ON,Southwestern Ontario,London (South White Oaks / Central Westminster / East Longwoods / West Brockley),42.9185,-81.2244,,herodfinancial.com,,,,
,,,,N,N6G,ON,Southwestern Ontario,London (Sunningdale / West Masonville / Medway / NE Hyde Park / East Fox Hollow),43.0147,-81.3049,,hesketh.ca,,,,
,,,,N,N6H,ON,Southwestern Ontario,London West (Central Hyde Park / Oakridge),42.9915,-81.3402,,hexavest.com,,,,
,,,,N,N6J,ON,Southwestern Ontario,London (Southcrest / East Westmount / West Highland),42.9546,-81.2735,,hfwm.ca,,,,
,,,,N,N6K,ON,Southwestern Ontario,London (Riverbend / Woodhull / North Sharon Creek / Byron / West Westmount),42.9536,-81.3418,,hfx.eastlink.ca,,,,
,,,,N,N6L,ON,Southwestern Ontario,London (East Tempo),42.8719,-81.2472,,hgpartners.ca,,,,
,,,,N,N6M,ON,Southwestern Ontario,London (Jackson / Old Victoria / Bradley / North Highbury),42.9632,-81.1392,,hhaa.ca,,,,
,,,,N,N6N,ON,Southwestern Ontario,London (South Highbury / Glanworth / East Brockley / SE Westminster),42.8997,-81.1592,,highrockcapital.ca,,,,
,,,,N,N6P,ON,Southwestern Ontario,London (Talbot / Lambeth / West Tempo / South Sharon Creek),42.8909,-81.3236,,highstreet.ca,,,,
,,,,N,N7A,ON,Southwestern Ontario,Goderich,43.7501,-81.7165,,highviewfin.com,,,,
,,,,N,N7G,ON,Southwestern Ontario,Strathroy,42.9551,-81.6223,,hillsdaleinv.com,,,,
,,,,N,N7L,ON,Southwestern Ontario,Chatham Northwest,42.4209,-82.1993,,himmelman.ca,,,,
,,,,N,N7M,ON,Southwestern Ontario,Chatham Southeast,42.4238,-82.1183,,hkaccounting.ca,,,,
,,,,N,N7S,ON,Southwestern Ontario,Sarnia Central,42.9888,-82.3592,,hmrinsurance.ca,,,,
,,,,N,N7T,ON,Southwestern Ontario,Sarnia Southwest,42.9578,-82.2777,,hoffertfinancial.com,,,,
,,,,N,N7V,ON,Southwestern Ontario,Sarnia Northwest,42.9998,-82.3926,,hogenhout.com,,,,
,,,,N,N7W,ON,Southwestern Ontario,Sarnia Southeast,42.9644,-82.3259,,holdeninsurance.ca,,,,
,,,,N,N7X,ON,Southwestern Ontario,Sarnia Northeast,43.0214,-82.3212,,hollandfinancial.ca,,,,
,,,,N,N8A,ON,Southwestern Ontario,Wallaceburg,42.593,-82.3885,,holmlundfinancial.ca,,,,
,,,,N,N8H,ON,Southwestern Ontario,Leamington,42.0549,-82.6062,,honeyfinancial.ca,,,,
,,,,N,N8M,ON,Southwestern Ontario,Essex,42.1751,-82.8248,,hopestate.ca,,,,
,,,,N,N8N,ON,Southwestern Ontario,Tecumseh Outskirts,42.2946,-82.8667,,horizonca.ca,,,,
,,,,N,N8P,ON,Southwestern Ontario,Windsor (East Riverside),42.3276,-82.9104,,horizoncu.ca,,,,
,,,,N,N8R,ON,Southwestern Ontario,Windsor (East Forest Glade),42.3067,-82.915,,horizonfinancial.ca,,,,
,,,,N,N8S,ON,Southwestern Ontario,Windsor (Riverside),42.3283,-82.9472,,hornerfinancial.com,,,,
,,,,N,N8T,ON,Southwestern Ontario,Windsor (West Forest Glade / East Fontainbleu),42.3037,-82.9459,,howeandgramlich.com,,,,
,,,,N,N8V,ON,Southwestern Ontario,Tecumseh (YQG),42.2773,-82.9447,,howetoplan.com,,,,
,,,,N,N8W,ON,Southwestern Ontario,Windsor (South Walkerville / West Fontainbleu / Walker Farm / Devonshire),42.2836,-82.9771,,hrocpa.ca,,,,
,,,,N,N8X,ON,Southwestern Ontario,Windsor South Central (West Walkerville / Remington Park),42.2926,-83.0186,,hsifinancial.com,,,,
,,,,N,N8Y,ON,Southwestern Ontario,Windsor East (East Walkerville),42.3176,-82.9929,,hubfinancial.com,,,,
,,,,N,N9A,ON,Southwestern Ontario,Windsor (City Centre / NW Walkerville),42.2007,-83.0276,,hubinternational.com,,,,
,,,,N,N9B,ON,Southwestern Ontario,Windsor (University / South Cameron),42.2949,-83.052,,hudsonwealth.ca,,,,
,,,,N,N9C,ON,Southwestern Ontario,Windsor (Sandwich / Ojibway / West Malden),42.2767,-83.0793,,huntleyohagan.com,,,,
,,,,N,N9E,ON,Southwestern Ontario,Windsor South (East Malden),42.2652,-83.0314,,hurdman.ca,,,,
,,,,N,N9G,ON,Southwestern Ontario,Windsor (Roseland),42.2481,-82.9952,,hurontel.on.ca,,,,
,,,,N,N9H,ON,Southwestern Ontario,La Salle East,42.2318,-83.0281,,hwcinsurance.ca,,,,
,,,,N,N9J,ON,Southwestern Ontario,La Salle West,42.2187,-83.0801,,hwllp.ca,,,,
,,,,N,N9K,ON,Southwestern Ontario,Tecumseh Central,42.2978,-82.8701,,i-zoom.net,,,,
,,,,N,N9V,ON,Southwestern Ontario,Amherstburg,42.1168,-83.0498,,iaic.ca,,,,
,,,,N,N9Y,ON,Southwestern Ontario,Kingsville,42.0502,-82.7598,,iamajenius.net,,,,
,,,,P,P0A,ON,Northern Ontario,Nipissing Central (Burk's Falls),45.5881,-79.3546,,iancollings.ca,,,,
,,,,P,P0B,ON,Northern Ontario,Nipissing South (Utterson),45.1863,-79.4115,,ianmurrayinsurance.ca,,,,
,,,,P,P0C,ON,Northern Ontario,Parry Sound Mid-Shore (Bala),45.1275,-79.786,,iatandassociates.ca,,,,
,,,,P,P0E,ON,Northern Ontario,Parry Sound South Shore (Kilworthy),44.8608,-79.5069,,ibkcapital.com,,,,
,,,,P,P0G,ON,Northern Ontario,Parry Sound North Shore (Nobel),45.6718,-80.3688,,icm-canada.com,,,,
,,,,P,P0H,ON,Northern Ontario,Nipissing North (Callander),46.3109,-79.3617,,icmg.ca,,,,
,,,,P,P0J,ON,Northern Ontario,Timiskaming South (Temiskaming Shores),47.5776,-80.2036,,idirect.com,,,,
,,,,P,P0K,ON,Northern Ontario,Timiskaming North (Iroquois Falls A),48.5234,-80.3081,,ifb-group.com,,,,
,,,,P,P0L,ON,Northern Ontario,Cochrane Region (Hearst),51.97,-83.5369,,ifcg.com,,,,
,,,,P,P0M,ON,Northern Ontario,"Algoma, Sudbury District and Greater Sudbury (Chelmsford)",47.6526,-82.4753,,ifcincorp.com,,,,
,,,,P,P0N,ON,Northern Ontario,Timmins Region (South Porcupine),48.6027,-81.0115,,ifcmoney.com,,,,
,,,,P,P0P,ON,Northern Ontario,Manitoulin (Little Current),45.7565,-82.2151,,ifdsgroup.com,,,,
,,,,P,P0S,ON,Northern Ontario,Lake Superior East Shore (Wawa),48.048,-84.6727,,ifse.ca,,,,
,,,,P,P0T,ON,Northern Ontario,Lake Superior North Shore (Marathon),49.2924,-88.756,,ifsgroup.ca,,,,
,,,,P,P0V,ON,Northern Ontario,Northwestern Ontario (Red Lake),52.9648,-90.1505,,ig.com,,,,
,,,,P,P0W,ON,Northern Ontario,Rainy River Region (Emo),48.875,-93.7522,,igprivatewealth.com,,,,
,,,,P,P0X,ON,Northern Ontario,Kenora Region (Keewatin),50.9293,-93.3095,,igprivatewealth.com.com,,,,
,,,,P,P0Y,ON,Northern Ontario,Lake of the Woods East Shore (Ingolf),49.7603,-95.1003,,iisottawa.ca,,,,
,,,,P,P1A,ON,Northern Ontario,North Bay South,46.2801,-79.4502,,immixgroup.ca,,,,
,,,,P,P1B,ON,Northern Ontario,North Bay Central,46.3364,-79.583,,imperiallife.ca,,,,
,,,,P,P1C,ON,Northern Ontario,North Bay North,46.3397,-79.4223,,inclusifgroup.com,,,,
,,,,P,P1H,ON,Northern Ontario,Huntsville,45.3334,-79.2163,,incue.net,,,,
,,,,P,P1L,ON,Northern Ontario,Bracebridge,45.0334,-79.3163,,indesignfinancial.com,,,,
,,,,P,P1P,ON,Northern Ontario,Gravenhurst,44.9168,-79.3663,,infinancial.ca,,,,
,,,,P,P2A,ON,Northern Ontario,Parry Sound,45.3501,-80.033,,infinitefinancial.ca,,,,
,,,,P,P2B,ON,Northern Ontario,Sturgeon Falls,46.3668,-79.9164,,inflectionmanagement.com,,,,
,,,,P,P2N,ON,Northern Ontario,Kirkland Lake,48.1446,-80.0377,,inforfg.com,,,,
,,,,P,P3A,ON,Northern Ontario,Greater Sudbury (New Sudbury),46.5187,-80.934,,informoney.com,,,,
,,,,P,P3B,ON,Northern Ontario,Greater Sudbury (Downtown / Minnow Lake),46.4847,-80.9304,,innesgroup.com,,,,
,,,,P,P3C,ON,Northern Ontario,Greater Sudbury (Gatchell / West End / Little Britain),46.5133,-81.0225,,innosolutions.ca,,,,
,,,,P,P3E,ON,Northern Ontario,Greater Sudbury (Robinson / Lockerby),46.2676,-80.9063,,innovationcu.ca,,,,
,,,,P,P3G,ON,Northern Ontario,Greater Sudbury (Lo-Ellen / McFarlane Lake),46.4031,-80.9745,,innovativebenefits.ca,,,,
,,,,P,P3L,ON,Northern Ontario,Greater Sudbury (Garson),46.5942,-80.85,,innovexfinancialservices.com,,,,
,,,,P,P3N,ON,Northern Ontario,Greater Sudbury (Val Caron),46.5845,-81.0029,,insightwealth.ca,,,,
,,,,P,P3P,ON,Northern Ontario,Greater Sudbury (Hanmer),46.7259,-81.0166,,insightwm.ca,,,,
,,,,P,P3Y,ON,Northern Ontario,Greater Sudbury (Lively),46.4431,-81.127,,instinet.com,,,,
,,,,P,P4N,ON,Northern Ontario,Timmins Southeast,48.4669,-81.3331,,insurancebybk.ca,,,,
,,,,P,P4P,ON,Northern Ontario,Timmins North,48.4985,-81.3448,,insurancetodd.com,,,,
,,,,P,P4R,ON,Northern Ontario,Timmins West,48.4702,-81.3997,,insurebc.ca,,,,
,,,,P,P5A,ON,Northern Ontario,Elliot Lake,46.3834,-82.6332,,insured2day.com,,,,
,,,,P,P5E,ON,Northern Ontario,Espanola,46.2584,-81.7665,,insuright.ca,,,,
,,,,P,P5N,ON,Northern Ontario,Kapuskasing,49.4169,-82.4331,,integerfs.ca,,,,
,,,,P,P6A,ON,Northern Ontario,Sault Ste. Marie East,46.5168,-84.3333,,integra.com,,,,
,,,,P,P6B,ON,Northern Ontario,Sault Ste. Marie Central,46.5307,-84.3046,,integral-financial.com,,,,
,,,,P,P6C,ON,Northern Ontario,Sault Ste. Marie North,46.5353,-84.3732,,integralwealth.com,,,,
,,,,P,P7A,ON,Northern Ontario,Thunder Bay Northeast,48.4601,-89.2035,,integratedfinancial.ca,,,,
,,,,P,P7B,ON,Northern Ontario,Thunder Bay North Central,48.9475,-89.4063,,integratedwealthmanagement.ca,,,,
,,,,P,P7C,ON,Northern Ontario,Thunder Bay Central,48.352,-89.4649,,integriscu.ca,,,,
,,,,P,P7E,ON,Northern Ontario,Thunder Bay South Central,48.3684,-89.284,,integrityfinancialteam.ca,,,,
,,,,P,P7G,ON,Northern Ontario,Thunder Bay North,48.4001,-89.3168,,intentplanning.ca,,,,
,,,,P,P7J,ON,Northern Ontario,Thunder Bay South,48.2834,-89.3668,,interactfinancial.ca,,,,
,,,,P,P7K,ON,Northern Ontario,Thunder Bay West,48.3728,-89.3484,,interiorsavings.com,,,,
,,,,P,P7L,ON,Northern Ontario,Neebing,48.1668,-89.4168,,interlog.com,,,,
,,,,P,P8N,ON,Northern Ontario,Dryden,49.7833,-92.7503,,interlynx.net,,,,
,,,,P,P8T,ON,Northern Ontario,Sioux Lookout,50.0668,-91.9836,,intrynsyc.com,,,,
,,,,P,P9A,ON,Northern Ontario,Fort Frances,48.6393,-93.4469,,inukshukcapital.com,,,,
,,,,P,P9N,ON,Northern Ontario,Kenora,49.7573,-94.3427,,invesco.com,,,,
,,,,C,C0B,PE,Prince Edward Island,Prince County (Portage),46.6023,-63.9583,,investdfsi.ca,,,,
,,,,C,C0A,PE,Prince Edward Island,Kings and Queens counties (Elmira),46.1668,-62.6487,,investfirst.ca,,,,
,,,,C,C0A,PE,Prince Edward Island,Montague,46.1668,-62.6487,,investia.ca,,,,
,,,,C,C1A,PE,Prince Edward Island,Charlottetown Southeast Prince Edward Island Provincial Government,46.2716,-63.0165,,investiakw.com,,,,
,,,,C,C1B,PE,Prince Edward Island,Stratford,46.2179,-63.0795,,investiawpg.ca,,,,
,,,,C,C1C,PE,Prince Edward Island,Charlottetown North,46.2645,-63.0842,,investinsuregroup.com,,,,
,,,,C,C1E,PE,Prince Edward Island,Charlottetown West,46.3451,-63.2011,,investmentguild.com,,,,
,,,,C,C1N,PE,Prince Edward Island,Summerside,46.3959,-63.7876,,investmentsandtaxes.com,,,,
,,,,G,G4W,QC,Eastern Quebec,Matane,48.8286,-67.522,,investorgroup.com,,,,
,,,,G,G5H,QC,Eastern Quebec,Mont-Joli,48.5839,-68.1921,,investorsgroup.com,,,,
,,,,G,G5J,QC,Eastern Quebec,Amqui,48.4638,-67.4313,,investsmart.ca,,,,
,,,,G,G5L,QC,Eastern Quebec,Rimouski Central,48.416,-68.5979,,investwell.ca,,,,
,,,,G,G5M,QC,Eastern Quebec,Rimouski Northeast,48.4966,-68.458,,investwise.com,,,,
,,,,G,G5N,QC,Eastern Quebec,Rimouski Southwest,48.3668,-68.4659,,investwithhaven.com,,,,
,,,,G,G5R,QC,Eastern Quebec,Rivi√É¬®re-du-Loup,47.8304,-69.5342,,invicocapital.com,,,,
,,,,G,G7P,QC,Eastern Quebec,Saint-Ambroise,48.5501,-71.3158,,invis.ca,,,,
,,,,G,G8B,QC,Eastern Quebec,Alma Southeast,48.5548,-71.673,,invisor.ca,,,,
,,,,G,G8C,QC,Eastern Quebec,Alma Southwest,48.5278,-71.6364,,inwb.ca,,,,
,,,,G,G8E,QC,Eastern Quebec,Alma North,48.6377,-71.6957,,ipc-royaloak.com,,,,
,,,,G,G8H,QC,Eastern Quebec,Roberval,48.5168,-72.2324,,ipc-victoria.ca,,,,
,,,,G,G8J,QC,Eastern Quebec,Saint-Prime,48.5834,-72.3324,,ipcadivsor.com,,,,
,,,,G,G8K,QC,Eastern Quebec,Saint-F√É¬©licien,48.6501,-72.4491,,ipcadvisor.com,,,,
,,,,G,G8L,QC,Eastern Quebec,Dolbeau-Mistassini,48.8763,-72.212,,ipcamethyst.com,,,,
,,,,G,G8M,QC,Eastern Quebec,Albanel,48.8832,-72.4487,,ipcc-calgary.com,,,,
,,,,G,G8N,QC,Eastern Quebec,H√É¬©bertville,48.3473,-71.6786,,ipcc.ca,,,,
,,,,G,G0A,QC,Eastern Quebec,Capitale-Nationale (Stoneham),47.3507,-71.202,,ipccalgarywest.ca,,,,
,,,,G,G1A,QC,Eastern Quebec,Quebec Provincial Government,46.8588,-71.192,,ipchh.ca,,,,
,,,,G,G1J,QC,Eastern Quebec,Quebec City Lower Riverbank,46.838,-71.2232,,ipcinvest.com,,,,
,,,,G,G1K,QC,Eastern Quebec,Quebec City Mid-Riverbank,46.814,-71.2194,,ipckenora.ca,,,,
,,,,G,G1L,QC,Eastern Quebec,Quebec City Northeast,46.8304,-71.2455,,ipckingston.com,,,,
,,,,G,G1M,QC,Eastern Quebec,Quebec City North Central,46.8183,-71.2706,,ipclangley.com,,,,
,,,,G,G1N,QC,Eastern Quebec,Quebec City South Central,46.8035,-71.2639,,ipcottawa.com,,,,
,,,,G,G1P,QC,Eastern Quebec,Quebec City West,46.8097,-71.3102,,ipcwindsor.com,,,,
,,,,G,G1R,QC,Eastern Quebec,Quebec City East,46.8074,-71.2181,,iperform.on.ca,,,,
,,,,G,G1S,QC,Eastern Quebec,Quebec City South,46.7933,-71.2453,,ironfp.com,,,,
,,,,G,G1T,QC,Eastern Quebec,Quebec City Upper Riverbank,46.7741,-71.2609,,ironshield.ca,,,,
,,,,G,G2C,QC,Eastern Quebec,Quebec City Northwest,46.8287,-71.334,,ironwoodcanada.com,,,,
,,,,G,G2E,QC,Eastern Quebec,L'Ancienne-Lorette Northeast,46.8083,-71.3605,,iscu.com,,,,
,,,,G,G2J,QC,Eastern Quebec,Quebec City Inner North,46.8399,-71.2781,,isinsurance.ca,,,,
,,,,G,G2K,QC,Eastern Quebec,Quebec City Outer North,46.8545,-71.3044,,islandnet.com,,,,
,,,,G,G3B,QC,Eastern Quebec,Lac-Beauport,46.9833,-71.2906,,islandsavings.ca,,,,
,,,,G,G3C,QC,Eastern Quebec,Stoneham-et-Tewkesbury,47.1691,-71.4332,,isp.ca,,,,
,,,,G,G3H,QC,Eastern Quebec,Pont-Rouge,46.7547,-71.6957,,istar.ca,,,,
,,,,G,G3M,QC,Eastern Quebec,Donnacona,46.6804,-71.7239,,itg.com,,,,
,,,,G,G3N,QC,Eastern Quebec,Sainte-Catherine-de-la-Jacques-Cartier,46.8524,-71.6206,,ivey.ca,,,,
,,,,G,G3S,QC,Eastern Quebec,Shannon,46.8803,-71.5146,,iwm.ca,,,,
,,,,G,G3Z,QC,Eastern Quebec,Baie-Saint-Paul,47.4411,-70.4986,,jacfinancial.ca,,,,
,,,,G,G4A,QC,Eastern Quebec,Clermont,47.7184,-70.2276,,jackfinancial.ca,,,,
,,,,G,G5A,QC,Eastern Quebec,La Malbaie,47.6575,-70.1559,,jacquimcfarlane.com,,,,
,,,,G,G0X,QC,Eastern Quebec,Mauricie (Parent),47.9168,-74.6159,,jadafinancialcorp.com,,,,
,,,,G,G9X,QC,Eastern Quebec,La Tuque,47.4334,-72.7824,,janssensfinancial.com,,,,
,,,,J,J5V,QC,Western Quebec,Louiseville,46.2559,-72.9415,,janstonfinancial.com,,,,
,,,,J,J0B,QC,Western Quebec,Estrie-Est (Stanstead),45.1001,-72.0491,,janus.com,,,,
,,,,J,J1S,QC,Western Quebec,Windsor,45.5668,-71.9991,,jarmstrong.ca,,,,
,,,,J,J1T,QC,Western Quebec,Asbestos,45.7668,-71.9324,,jasonelford.com,,,,
,,,,J,J1X,QC,Western Quebec,Magog,45.2668,-72.1491,,jaybrecknell.ca,,,,
,,,,H,H1B,QC,Metropolitan Montr√©al,Montreal East,45.632,-73.5075,,jaycapfinancial.com,,,,
,,,,H,H1G,QC,Metropolitan Montr√©al,Montreal North North,45.6109,-73.6211,,jazzfinancial.ca,,,,
,,,,H,H1H,QC,Metropolitan Montr√©al,Montreal North South,45.5899,-73.6389,,jbcwealth.com,,,,
,,,,H,H2Y,QC,Metropolitan Montr√©al,Old Montreal,45.5057,-73.555,,jbenefits.com,,,,
,,,,H,H2Z,QC,Metropolitan Montr√©al,Downtown Montreal Northeast,45.5052,-73.5622,,jcclark.com,,,,
,,,,H,H3A,QC,Metropolitan Montr√©al,Downtown Montreal North,45.504,-73.5747,,jclfinancialgroup.com,,,,
,,,,H,H3B,QC,Metropolitan Montr√©al,Downtown Montreal East,45.5005,-73.5684,,jdlfinancial.ca,,,,
,,,,H,H3G,QC,Metropolitan Montr√©al,Downtown Montreal Southeast,45.4987,-73.5793,,jeffblack.ca,,,,
,,,,H,H3H,QC,Metropolitan Montr√©al,Downtown Montreal South & West,45.5009,-73.5877,,jeffmccartney.ca,,,,
,,,,H,H3X,QC,Metropolitan Montr√©al,Hampstead,45.4819,-73.6421,,jeremiahfinancial.com,,,,
,,,,H,H3Y,QC,Metropolitan Montr√©al,Westmount West,45.4876,-73.6045,,jfl.ca,,,,
,,,,H,H3Z,QC,Metropolitan Montr√©al,Westmount East,45.4825,-73.5933,,jflglobal.com,,,,
,,,,H,H4W,QC,Metropolitan Montr√©al,C√É¬¥te-Saint-Luc West,45.47,-73.6686,,jillmbock.com,,,,
,,,,H,H4X,QC,Metropolitan Montr√©al,Montreal West,45.4529,-73.6492,,jillsing.ca,,,,
,,,,H,H9J,QC,Metropolitan Montr√©al,Kirkland,45.4501,-73.8659,,jimtodd.ca,,,,
,,,,H,H9P,QC,Metropolitan Montr√©al,Dorval Outskirts,45.4679,-73.7748,,jitneytrade.com,,,,
,,,,H,H9R,QC,Metropolitan Montr√©al,Pointe-Claire,45.4487,-73.8167,,jjneely.com,,,,
,,,,H,H9W,QC,Metropolitan Montr√©al,Beaconsfield,45.4334,-73.8659,,jkfp.ca,,,,
,,,,J,J0X,QC,Western Quebec,Outaouais-Sud (Thurso),46.307,-76.7653,,jmins.com,,,,
,,,,J,J8N,QC,Western Quebec,Val-des-Monts,45.6501,-75.666,,jobiwong.com,,,,
,,,,J,J9B,QC,Western Quebec,Chelsea,45.5001,-75.7827,,john-rocheleau.com,,,,
,,,,J,J9E,QC,Western Quebec,Maniwaki,46.3834,-75.966,,johndoehler.ca,,,,
,,,,J,J0Z,QC,Western Quebec,Abitibi-T√É¬©miscamingue-Ouest (Guigues),47.8626,-78.824,,johnkarn.ca,,,,
,,,,J,J9P,QC,Western Quebec,Val-d'Or,48.1002,-77.7828,,johnkason.com,,,,
,,,,J,J9T,QC,Western Quebec,Amos,48.5669,-78.1162,,jonathanroung.ca,,,,
,,,,J,J9V,QC,Western Quebec,Ville-Marie,47.3334,-79.433,,jpw.ca,,,,
,,,,J,J9Z,QC,Western Quebec,La Sarre,48.8002,-79.1996,,jradecpa.ca,,,,
,,,,G,G0G,QC,Eastern Quebec,C√É¬¥te-Nord/Anticosti (Schefferville),53.0413,-68.6884,,jredmond.ca,,,,
,,,,G,G4S,QC,Eastern Quebec,Sept-√É≈Ωles Northwest,50.2713,-66.3751,,jrfin.com,,,,
,,,,G,G5B,QC,Eastern Quebec,Port-Cartier,50.0334,-66.8655,,jruben.com,,,,
,,,,G,G8P,QC,Eastern Quebec,Chibougamau,49.9168,-74.3659,,jsjgroup.com,,,,
,,,,G,G4X,QC,Eastern Quebec,Gasp√É¬©,48.8334,-64.4819,,julieford.ca,,,,
,,,,G,G5V,QC,Eastern Quebec,Montmagny,46.9804,-70.5549,,jvkgroup.com,,,,
,,,,G,G5X,QC,Eastern Quebec,Beauceville,46.2179,-70.7787,,jvpc.ca,,,,
,,,,G,G5Y,QC,Eastern Quebec,Saint-Georges Central,46.1326,-70.6375,,jzechner.com,,,,
,,,,G,G5Z,QC,Eastern Quebec,Saint-Georges Southeast,46.0642,-70.7118,,k4financial.ca,,,,
,,,,G,G6A,QC,Eastern Quebec,Saint-Georges Northwest,46.1437,-70.6817,,kaiasset.com,,,,
,,,,G,G6E,QC,Eastern Quebec,Sainte-Marie,46.434,-71.0117,,kalminfs.com,,,,
,,,,G,G6G,QC,Eastern Quebec,Thetford Mines,46.0937,-71.3054,,kalogan.ca,,,,
,,,,G,G6V,QC,Eastern Quebec,L√É¬©vis North,46.8033,-71.1779,,karencollacutt.com,,,,
,,,,G,G6W,QC,Eastern Quebec,L√É¬©vis South,46.7546,-71.22,,kaspardlov.com,,,,
,,,,G,G6Y,QC,Eastern Quebec,L√É¬©vis,46.8033,-71.1779,,katstrat.com,,,,
,,,,H,H7N,QC,Metropolitan Montr√©al,Laval-des-Rapides,45.5501,-73.6992,,kawarthacu.com,,,,
,,,,H,H7R,QC,Metropolitan Montr√©al,Laval-sur-le-Lac,45.5526,-73.8507,,kbfp.ca,,,,
,,,,J,J0K,QC,Western Quebec,Lanaudi√É¬®re-Nord (Saint-Esprit),46.7966,-73.8705,,kcconsultancy.com,,,,
,,,,J,J5M,QC,Western Quebec,Saint-Lin-Laurentides,45.8501,-73.7659,,kdtaxpro.com,,,,
,,,,J,J5T,QC,Western Quebec,Lavaltrie,45.8834,-73.2825,,keatsconnelly.com,,,,
,,,,J,J5X,QC,Western Quebec,L'√É‚Ä∞piphanie,45.8501,-73.4825,,keechiu.com,,,,
,,,,J,J5Y,QC,Western Quebec,Repentigny Northeast,45.7774,-73.4252,,kelleyfinancial.ca,,,,
,,,,J,J5Z,QC,Western Quebec,Repentigny West,45.7643,-73.5036,,kennystein.com,,,,
,,,,J,J6A,QC,Western Quebec,Repentigny South,45.7395,-73.4588,,kernaghanpartners.com,,,,
,,,,J,J6V,QC,Western Quebec,Terrebonne East,45.714,-73.5357,,kerrfinancial.ca,,,,
,,,,J,J6W,QC,Western Quebec,Terrebonne Central,45.7064,-73.6178,,kerryriglin.com,,,,
,,,,J,J6X,QC,Western Quebec,Terrebonne Northwest,45.7275,-73.7062,,kevinbrewerfinancial.com,,,,
,,,,J,J6Y,QC,Western Quebec,Terrebonne Southwest,45.7,-73.752,,kevinobrienandassociates.com,,,,
,,,,J,J7K,QC,Western Quebec,Mascouche Extremities,45.77,-73.6049,,kevinroe.ca,,,,
,,,,J,J7L,QC,Western Quebec,Mascouche Central,45.7424,-73.6509,,kewcorp.ca,,,,
,,,,J,J0T,QC,Western Quebec,Laurentides-Nord (Montcalm),46.3002,-74.5855,,keyesfinancial.ca,,,,
,,,,J,J5K,QC,Western Quebec,Saint-Colomban,45.7334,-74.1325,,keytolife.ca,,,,
,,,,J,J5L,QC,Western Quebec,Saint-J√É¬©r√É¬¥me West,45.7987,-74.0727,,kfbfinancial.com,,,,
,,,,J,J7E,QC,Western Quebec,Sainte-Th√É¬©r√É¬®se-de-Blainville Central,45.6442,-73.8448,,kfginc.ca,,,,
,,,,J,J7P,QC,Western Quebec,Saint-Eustache Northeast,45.5779,-73.8809,,kindredcu.com,,,,
,,,,J,J7R,QC,Western Quebec,Saint-Eustache Southwest,45.574,-73.94,,kindwealth.ca,,,,
,,,,J,J7Y,QC,Western Quebec,Saint-J√É¬©r√É¬¥me North,45.8058,-74.0165,,kinginsurance.com,,,,
,,,,J,J7Z,QC,Western Quebec,Saint-J√É¬©r√É¬¥me Southeast,45.7788,-73.9829,,kingston.net,,,,
,,,,J,J8A,QC,Western Quebec,Saint-Hippolyte,45.9334,-74.0159,,kingstonmortgagesolutions.com,,,,
,,,,J,J8B,QC,Western Quebec,Sainte-Ad√É¬®le,45.9501,-74.1325,,kingwest.com,,,,
,,,,J,J8E,QC,Western Quebec,Mont-Tremblant,46.1949,-74.6264,,kinseyfinancial.ca,,,,
,,,,J,J8H,QC,Western Quebec,Lachute,45.6501,-74.3325,,kirstincarley.com,,,,
,,,,J,J9L,QC,Western Quebec,Mont-Laurier,46.5501,-75.4993,,kkillam.ca,,,,
,,,,J,J0J,QC,Western Quebec,Mont√É¬©r√É¬©gie-Est (Bedford),45.1529,-73.1636,,klassenwealth.ca,,,,
,,,,J,J0L,QC,Western Quebec,Mont√É¬©r√É¬©gie-Nord (Saint-Antoine-Sur-Richelieu),45.1956,-73.5695,,klsfinancial.ca,,,,
,,,,J,J0S,QC,Western Quebec,Mont√É¬©r√É¬©gie-Ouest (Saint-Anicet),45.1082,-74.0451,,kmibrokers.com,,,,
,,,,J,J2G,QC,Western Quebec,Granby Central,45.4046,-72.7202,,knightfinancialservices.com,,,,
,,,,J,J2H,QC,Western Quebec,Granby East,45.3938,-72.7005,,knnincometax.com,,,,
,,,,J,J2J,QC,Western Quebec,Granby West,45.4005,-72.7825,,knowliketrust.ca,,,,
,,,,J,J2K,QC,Western Quebec,Cowansville,45.2001,-72.7491,,kofc.org,,,,
,,,,J,J2L,QC,Western Quebec,Bromont,45.3168,-72.6491,,kootenayinsurance.com,,,,
,,,,J,J2M,QC,Western Quebec,Shefford,45.3501,-72.5658,,koryburstall.com,,,,
,,,,J,J2N,QC,Western Quebec,Farnham,45.2834,-72.9824,,kpmg.ca,,,,
,,,,J,J2R,QC,Western Quebec,Saint-Hyacinthe Northwest,45.6567,-72.9237,,kpmg.com,,,,
,,,,J,J2S,QC,Western Quebec,Saint-Hyacinthe Southwest,45.6139,-72.9912,,kppower.ca,,,,
,,,,J,J2T,QC,Western Quebec,Saint-Hyacinthe East,45.5971,-72.9366,,krp.ca,,,,
,,,,J,J2X,QC,Western Quebec,Saint-Jean-sur-Richelieu East,45.309,-73.219,,krpgroup.com,,,,
,,,,J,J2Y,QC,Western Quebec,Saint-Jean-sur-Richelieu West,45.3114,-73.3556,,ks-finservices.ca,,,,
,,,,J,J3A,QC,Western Quebec,Saint-Jean-sur-Richelieu North,45.3339,-73.2744,,ksk.ca,,,,
,,,,J,J3B,QC,Western Quebec,Saint-Jean-sur-Richelieu Central,45.2832,-73.2792,,ktjfinancial.com,,,,
,,,,J,J3E,QC,Western Quebec,Sainte-Julie,45.5834,-73.3325,,kurtz-associates.ca,,,,
,,,,J,J3G,QC,Western Quebec,Beloeil West,45.5946,-73.2283,,kuryloinsurance.ca,,,,
,,,,J,J3L,QC,Western Quebec,Chambly,45.4501,-73.2825,,kvcapital.ca,,,,
,,,,J,J3M,QC,Western Quebec,Marieville,45.4334,-73.1659,,kwbllp.com,,,,
,,,,J,J3X,QC,Western Quebec,Varennes,45.6834,-73.4325,,kwic.com,,,,
,,,,J,J4B,QC,Western Quebec,Boucherville,45.591,-73.4361,,kwms.ca,,,,
,,,,J,J4P,QC,Western Quebec,Saint-Lambert North,45.5073,-73.5082,,kylandinvestments.com,,,,
,,,,J,J4R,QC,Western Quebec,Saint-Lambert Central,45.4924,-73.5009,,laidlawfinancial.com,,,,
,,,,J,J4S,QC,Western Quebec,Saint-Lambert South,45.481,-73.497,,lakeshoresecurities.ca,,,,
,,,,J,J4W,QC,Western Quebec,Brossard Northwest,45.4674,-73.4832,,lakesidefinancialplanning.ca,,,,
,,,,J,J4X,QC,Western Quebec,Brossard Southwest,45.4455,-73.4841,,lakewoodwealth.ca,,,,
,,,,J,J4Y,QC,Western Quebec,Brossard South,45.4414,-73.4561,,lambefinancial.com,,,,
,,,,J,J4Z,QC,Western Quebec,Brossard Northeast,45.4424,-73.4231,,lampfinancial.com,,,,
,,,,J,J5A,QC,Western Quebec,Saint-Constant,45.3668,-73.5659,,lanagan.com,,,,
,,,,J,J5B,QC,Western Quebec,Delson,45.3668,-73.5492,,landy.ca,,,,
,,,,J,J5C,QC,Western Quebec,Sainte-Catherine,45.4001,-73.5825,,langfordfinancial.ca,,,,
,,,,J,J5R,QC,Western Quebec,La Prairie,45.4168,-73.4992,,lankfinancial.com,,,,
,,,,J,J6J,QC,Western Quebec,Ch√É¬¢teauguay North,45.3691,-73.7216,,larocquewealthsolutions.ca,,,,
,,,,J,J6K,QC,Western Quebec,Ch√É¬¢teauguay South,45.3526,-73.7305,,larryhurd.ca,,,,
,,,,J,J6N,QC,Western Quebec,Beauharnois,45.3168,-73.8659,,larryteatero.ca,,,,
,,,,J,J6R,QC,Western Quebec,Mercier,45.3168,-73.7492,,lasby.com,,,,
,,,,J,J6S,QC,Western Quebec,Salaberry-de-Valleyfield North,45.2702,-74.0482,,latchmaninsurance.com,,,,
,,,,J,J6T,QC,Western Quebec,Salaberry-de-Valleyfield South,45.2409,-74.1098,,latimerfinancial.mb.ca,,,,
,,,,J,J7V,QC,Western Quebec,Vaudreuil-Dorion,45.4001,-74.0325,,laubefinancial.ca,,,,
,,,,G,G0P,QC,Eastern Quebec,Centre-du-Qu√É¬©bec-Est (Saint-Val√É¬®re),46.0119,-71.7199,,laubewealth.com,,,,
,,,,G,G0Z,QC,Eastern Quebec,Centre-du-Qu√É¬©bec-Nord (Daveluyville),46.179,-72.1569,,lauracpa.ca,,,,
,,,,G,G6L,QC,Eastern Quebec,Plessisville,46.2186,-71.762,,laurentianbank.ca,,,,
,,,,G,G6P,QC,Eastern Quebec,Victoriaville Central,46.0529,-71.9477,,lavorogroup.ca,,,,
,,,,G,G6T,QC,Eastern Quebec,Victoriaville Northwest,46.0828,-71.9728,,lba.ca,,,,
,,,,J,J0A,QC,Western Quebec,Centre-du-Qu√É¬©bec-Sud (Warwick),45.8382,-71.9542,,lbcwealth.ca,,,,
,,,,J,J0C,QC,Western Quebec,Centre-du-Qu√É¬©bec-Ouest (Saint-Bonaventure),45.8567,-72.6966,,ldsystems.ca,,,,
,,,,J,J2A,QC,Western Quebec,Drummondville Southeast,45.8152,-72.4027,,learnedly.com,,,,
,,,,J,J2C,QC,Western Quebec,Drummondville Central,45.8893,-72.5055,,learningpartner.ca,,,,
,,,,J,J2E,QC,Western Quebec,Drummondville Northwest,45.9099,-72.5289,,ledgers.com,,,,
,,,,J,J3T,QC,Western Quebec,Nicolet,46.2168,-72.6158,,legaciesfinancial.com,,,,
,,,,G,G0B,QC,Eastern Quebec,Cap-aux-Meules,47.4501,-72.9913,,legacy-financial.ca,,,,
,,,,G,G0C,QC,Eastern Quebec,Gasp√É¬©sie-Sud (New Richmond),48.3429,-65.5961,,legacypartners.ca,,,,
,,,,G,G0E,QC,Eastern Quebec,Gasp√É¬©sie-Nord (Grande-Vall√É¬©e),48.9182,-65.3736,,legacywealthcanada.com,,,,
,,,,G,G0H,QC,Eastern Quebec,Manicouagan (Baie-Trinit√É¬©),49.3795,-67.8948,,legacywealthmgt.com,,,,
,,,,G,G0J,QC,Eastern Quebec,Gasp√É¬©sie-Ouest (Causapscal),48.5246,-67.0565,,leifsofinancial.ca,,,,
,,,,G,G0K,QC,Eastern Quebec,Bas-St-Laurent-Est (Sainte-Luce),48.159,-68.1951,,leithwheeler.com,,,,
,,,,G,G0L,QC,Eastern Quebec,Bas-St-Laurent-Ouest (Trois-Pistoles),47.7136,-69.1658,,lentonfinancial.ca,,,,
,,,,G,G0M,QC,Eastern Quebec,R√É¬©gion de Beauce (Saint-Prosper-De-Dorchester),45.9718,-70.6565,,leoganda.com,,,,
,,,,G,G0N,QC,Eastern Quebec,Chaudi√É¬®re-Sud (Disraeli),46.0988,-71.1248,,leonardgroup.ca,,,,
,,,,G,G0R,QC,Eastern Quebec,Appalaches (La Pocati√É¬®re),46.798,-70.3288,,lepperfinancial.com,,,,
,,,,G,G0S,QC,Eastern Quebec,Chaudi√É¬®re-Nord (Saint-Joseph-De-Beauce),46.4526,-71.4397,,lesterfinancial.com,,,,
,,,,G,G0T,QC,Eastern Quebec,Le Fjord (Forestville),49.0143,-69.6231,,levesquewealthplanning.com,,,,
,,,,G,G0V,QC,Eastern Quebec,Saguenay-Lac-St-Jean (Alouette),50.1719,-70.6283,,levinefinancialgroup.com,,,,
,,,,G,G0W,QC,Eastern Quebec,R√É¬©gion de Mistassini (Chambord),49.834,-72.2623,,lexcapital.ca,,,,
,,,,G,G0Y,QC,Eastern Quebec,L'Erable (Nantes),45.6242,-71.0191,,leystone.com,,,,
,,,,G,G1B,QC,Eastern Quebec,Beauport North,46.9263,-71.2258,,lfpg.ca,,,,
,,,,G,G1C,QC,Eastern Quebec,Beauport Central,46.8801,-71.196,,lfsg.ca,,,,
,,,,G,G1E,QC,Eastern Quebec,Beauport South,46.8588,-71.192,,lhfinancial.ca,,,,
,,,,G,G1G,QC,Eastern Quebec,Jean-Talon Southeast,46.8765,-71.2839,,lhg-inc.com,,,,
,,,,G,G1H,QC,Eastern Quebec,Charlesbourg South,46.8528,-71.2573,,liabs.ca,,,,
,,,,G,G1V,QC,Eastern Quebec,Sainte-Foy Northeast,46.7823,-71.2882,,libertyiim.com,,,,
,,,,G,G1W,QC,Eastern Quebec,Sainte-Foy Southeast,46.7589,-71.298,,libra-investments.com,,,,
,,,,G,G1X,QC,Eastern Quebec,Sainte-Foy West,46.7749,-71.3344,,libro.ca,,,,
,,,,G,G1Y,QC,Eastern Quebec,Cap-Rouge,46.7507,-71.3562,,lideresadvisors.com,,,,
,,,,G,G2A,QC,Eastern Quebec,Loretteville North,46.8751,-71.392,,lifeandlegacy.ca,,,,
,,,,G,G2B,QC,Eastern Quebec,Loretteville South,46.8505,-71.3357,,lifecoachfinancial.com,,,,
,,,,G,G2G,QC,Eastern Quebec,L'Ancienne-Lorette Southwest,46.7903,-71.4157,,lifecycle-financial.ca,,,,
,,,,G,G2L,QC,Eastern Quebec,Charlesbourg North,46.8895,-71.2545,,lifeguidefinancial.com,,,,
,,,,G,G2M,QC,Eastern Quebec,Jean-Talon Northeast,46.922,-71.3056,,lifeinc.ca,,,,
,,,,G,G2N,QC,Eastern Quebec,Jean-Talon West,46.9137,-71.3398,,lifelegacywealth.com,,,,
,,,,G,G3A,QC,Eastern Quebec,St-Augustin-De-Desmaures,46.7406,-71.4513,,lifeplanfinancial.ca,,,,
,,,,G,G3E,QC,Eastern Quebec,Saint-√É‚Ä∞mile,46.8779,-71.3408,,lifeplanfinancial.com,,,,
,,,,G,G3G,QC,Eastern Quebec,Lac-Saint-Charles,46.9242,-71.3958,,lifeplaninvestments.ca,,,,
,,,,G,G3J,QC,Eastern Quebec,Val-B√É¬©lair North,46.8603,-71.4752,,lifesjourneyfinancial.ca,,,,
,,,,G,G3K,QC,Eastern Quebec,Val-B√É¬©lair South,46.8315,-71.4429,,lifestagesfinancial.ca,,,,
,,,,G,G3L,QC,Eastern Quebec,Saint-Raymond,47.2374,-71.8763,,lifestageswealthmanagement.ca,,,,
,,,,G,G4R,QC,Eastern Quebec,Sept-√É≈Ωles Southeast,50.8558,-67.0511,,lifestyleprotector.ca,,,,
,,,,G,G4T,QC,Eastern Quebec,Les √É≈Ωles-De-La-Madeleine,47.3999,-61.7996,,lifetrekfinancialgroup.com,,,,
,,,,G,G4V,QC,Eastern Quebec,Sainte-Anne-Des-Monts,48.9711,-66.3082,,lighthousemoney.ca,,,,
,,,,G,G4Z,QC,Eastern Quebec,Baie-Comeau Northeast,51.0872,-68.632,,lighthouseprivatewealth.ca,,,,
,,,,G,G5C,QC,Eastern Quebec,Baie-Comeau Southwest,50.3474,-69.0411,,lighthousewealth.ca,,,,
,,,,G,G5T,QC,Eastern Quebec,Degelis,47.5473,-68.6431,,lilleyfg.ca,,,,
,,,,G,G6B,QC,Eastern Quebec,Lac-Megantic,45.5834,-70.8823,,lillianculumovic.com,,,,
,,,,G,G6C,QC,Eastern Quebec,Pintendre,46.7701,-71.0906,,limestonefinancial.ca,,,,
,,,,G,G6H,QC,Eastern Quebec,Black Lake,46.07,-71.4393,,limestonewealth.ca,,,,
,,,,G,G6J,QC,Eastern Quebec,Saint-Etienne-De-Lauzon,46.6358,-71.3098,,linkcharity.ca,,,,
,,,,G,G6K,QC,Eastern Quebec,Saint-Redempteur,46.688,-71.3028,,lisazamparo.com,,,,
,,,,G,G6R,QC,Eastern Quebec,Victoriaville South,46.016,-71.9561,,lismarfinancial.ca,,,,
,,,,G,G6S,QC,Eastern Quebec,Victoriaville East,46.0264,-71.8719,,lissom.ca,,,,
,,,,G,G6X,QC,Eastern Quebec,Charny,46.7151,-71.2612,,littleanddavies.com,,,,
,,,,G,G6Z,QC,Eastern Quebec,Saint-Jean-Chrysostome,46.6901,-71.1849,,liuandassociates.com,,,,
,,,,G,G7A,QC,Eastern Quebec,Saint-Nicolas,46.6842,-71.3827,,liveboldly.ca,,,,
,,,,G,G7B,QC,Eastern Quebec,La Baie,48.3398,-70.8893,,liveyourdreamnow.ca,,,,
,,,,G,G7G,QC,Eastern Quebec,Chicoutimi North,48.445,-71.1025,,ljgroup.ca,,,,
,,,,G,G7H,QC,Eastern Quebec,Chicoutimi East,48.4187,-71.0417,,ljscorp.com,,,,
,,,,G,G7J,QC,Eastern Quebec,Chicoutimi West,48.4175,-71.1031,,llf.ca,,,,
,,,,G,G7K,QC,Eastern Quebec,Chicoutimi Southwest,48.3689,-71.1175,,lmadv.ca,,,,
,,,,G,G7N,QC,Eastern Quebec,Laterri√É¬®re,48.2007,-71.1426,,lmfi.ca,,,,
,,,,G,G7S,QC,Eastern Quebec,Jonqui√É¬®re Northeast,48.4294,-71.1774,,lockefinancial.com,,,,
,,,,G,G7T,QC,Eastern Quebec,Jonqui√É¬®re Southeast,48.3975,-71.1527,,loganwealth.com,,,,
,,,,G,G7X,QC,Eastern Quebec,Jonqui√É¬®re Central,48.3199,-71.4149,,londonfp.ca,,,,
,,,,G,G7Y,QC,Eastern Quebec,Jonqui√É¬®re Southwest,48.3701,-71.2358,,londonlife.com,,,,
,,,,G,G7Z,QC,Eastern Quebec,Jonqui√É¬®re Northwest,48.4381,-71.2642,,longviewassets.com,,,,
,,,,G,G8A,QC,Eastern Quebec,Jonqui√É¬®re West,48.4233,-71.3629,,look.ca,,,,
,,,,G,G8G,QC,Eastern Quebec,M√É¬©tabetchouan-Lac-a-la-Croix,47.8076,-71.5907,,loomissayles.com,,,,
,,,,G,G8T,QC,Eastern Quebec,Cap-de-la-Madeleine Central and southeast,46.3877,-72.5357,,lornaeastmanfinancial.com,,,,
,,,,G,G8V,QC,Eastern Quebec,Cap-de-la-Madeleine Northeast,46.4098,-72.4908,,louisbourg.net,,,,
,,,,G,G8W,QC,Eastern Quebec,Cap-de-la-Madeleine West,46.4176,-72.6372,,lpfm.ca,,,,
,,,,G,G8Y,QC,Eastern Quebec,Trois-Rivi√É¬®res Central,46.3668,-72.6168,,lrhcga.com,,,,
,,,,G,G8Z,QC,Eastern Quebec,Trois-Rivi√É¬®res Northeast,46.3458,-72.5716,,lsminsurance.ca,,,,
,,,,G,G9A,QC,Eastern Quebec,Trois-Rivi√É¬®res East,46.3695,-72.6789,,lsvasset.com,,,,
,,,,G,G9B,QC,Eastern Quebec,Trois-Rivi√É¬®res South,46.316,-72.6833,,ltciconsulting.ca,,,,
,,,,G,G9C,QC,Eastern Quebec,Trois-Rivi√É¬®res West,46.3922,-72.6725,,lucbessette.ca,,,,
,,,,G,G9H,QC,Eastern Quebec,Becancour,46.3334,-72.4324,,lumbfinancial.ca,,,,
,,,,G,G9N,QC,Eastern Quebec,Shawinigan Central,46.5564,-72.7198,,lycos.com,,,,
,,,,G,G9P,QC,Eastern Quebec,Shawinigan Southeast,46.5068,-72.7436,,lycosasset.com,,,,
,,,,G,G9R,QC,Eastern Quebec,Shawinigan Northwest,46.6098,-72.8266,,lynsamfinancial.com,,,,
,,,,G,G9T,QC,Eastern Quebec,Grand-M√É¬®re,46.6315,-72.737,,lysanderfunds.com,,,,
,,,,H,H0H,QC,Metropolitan Montr√©al,Reserved (Santa Claus),90,0,,lyttleplanning.ca,,,,
,,,,H,H0M,QC,Metropolitan Montr√©al,Akwesasne Region (Akwesasne),45.6986,-73.5025,,m2k.com.tw,,,,
,,,,H,H1A,QC,Metropolitan Montr√©al,Pointe-Aux-Trembles,45.6753,-73.5016,,mabpartners.ca,,,,
,,,,H,H1C,QC,Metropolitan Montr√©al,Rivi√É¬®re-des-Prairies Northeast,45.6656,-73.5367,,macintoshfinancial.com,,,,
,,,,H,H1E,QC,Metropolitan Montr√©al,Rivi√É¬®re-Des-Prairies Southwest,45.6342,-73.5842,,mackelviefrech.com,,,,
,,,,H,H1J,QC,Metropolitan Montr√©al,Anjou West,45.6097,-73.5794,,mackenzieinvestments.com,,,,
,,,,H,H1K,QC,Metropolitan Montr√©al,Anjou East,45.6097,-73.5472,,macleanrowefinancial.com,,,,
,,,,H,H1L,QC,Metropolitan Montr√©al,Mercier North,45.6043,-73.5178,,macleanspinney.com,,,,
,,,,H,H1M,QC,Metropolitan Montr√©al,Mercier West,45.5883,-73.5572,,macnicolasset.com,,,,
,,,,H,H1N,QC,Metropolitan Montr√©al,Mercier Southeast,45.5779,-73.5304,,macquarie.com,,,,
,,,,H,H1P,QC,Metropolitan Montr√©al,Saint-L√É¬©onard North,45.5966,-73.5928,,mactavishco.ca,,,,
,,,,H,H1R,QC,Metropolitan Montr√©al,Saint-L√É¬©onard West,45.5864,-73.6082,,macworld365.com,,,,
,,,,H,H1S,QC,Metropolitan Montr√©al,Saint-L√É¬©onard Southeast,45.5808,-73.5825,,madisonfinancial.ca,,,,
,,,,H,H1T,QC,Metropolitan Montr√©al,Rosemont North,45.573,-73.5701,,madurifinancialgroup.com,,,,
,,,,H,H1V,QC,Metropolitan Montr√©al,Maisonneuve,45.5585,-73.5386,,maesconsulting.ca,,,,
,,,,H,H1W,QC,Metropolitan Montr√©al,Hochelaga,45.5442,-73.5468,,magentainvestment.ca,,,,
,,,,H,H1X,QC,Metropolitan Montr√©al,Rosemont Central,45.5583,-73.5701,,magma.ca,,,,
,,,,H,H1Y,QC,Metropolitan Montr√©al,Rosemont South,45.5486,-73.5788,,maiaandassociates.ca,,,,
,,,,H,H1Z,QC,Metropolitan Montr√©al,Saint-Michel West,45.5694,-73.6221,,maikawafinancial.com,,,,
,,,,H,H2A,QC,Metropolitan Montr√©al,Saint-Michel East,45.5618,-73.599,,mainstreetalberta.com,,,,
,,,,H,H2B,QC,Metropolitan Montr√©al,Ahuntsic North,45.5741,-73.6507,,mainstreetcu.ca,,,,
,,,,H,H2C,QC,Metropolitan Montr√©al,Ahuntsic Central,45.5606,-73.6584,,maiseyfinancial.ca,,,,
,,,,H,H2E,QC,Metropolitan Montr√©al,Villeray Northeast,45.5514,-73.6116,,malletgroup.ca,,,,
,,,,H,H2G,QC,Metropolitan Montr√©al,Petite-Patrie Northeast,45.5438,-73.5927,,malottfinancial.com,,,,
,,,,H,H2H,QC,Metropolitan Montr√©al,Plateau Mont-Royal North,45.5374,-73.5735,,mandevillepc.com,,,,
,,,,H,H2J,QC,Metropolitan Montr√©al,Plateau Mont-Royal North Central,45.5302,-73.5831,,maneinsights.ca,,,,
,,,,H,H2K,QC,Metropolitan Montr√©al,Centre-Sud North,45.5307,-73.5547,,manitouinvestment.com,,,,
,,,,H,H2L,QC,Metropolitan Montr√©al,Centre-Sud South,45.5186,-73.5545,,manning-napier.com,,,,
,,,,H,H2M,QC,Metropolitan Montr√©al,Ahuntsic East,45.5528,-73.6411,,manulife.com,,,,
,,,,H,H2N,QC,Metropolitan Montr√©al,Ahuntsic Southeast,45.5394,-73.6513,,manulifeam.com,,,,
,,,,H,H2P,QC,Metropolitan Montr√©al,Villeray West,45.5435,-73.6339,,manynations.com,,,,
,,,,H,H2R,QC,Metropolitan Montr√©al,Villeray Southeast,45.5401,-73.6225,,maplebridgefinancial.com,,,,
,,,,H,H2S,QC,Metropolitan Montr√©al,Petite-Patrie Southwest,45.5354,-73.6061,,maplecreekpartners.ca,,,,
,,,,H,H2T,QC,Metropolitan Montr√©al,Plateau Mont-Royal West,45.5247,-73.5953,,maplerockpartners.com,,,,
,,,,H,H2V,QC,Metropolitan Montr√©al,Outremont,45.5168,-73.6072,,marathonfinancial.com,,,,
,,,,H,H2W,QC,Metropolitan Montr√©al,Plateau Mont-Royal South Central,45.5176,-73.5804,,marcus.on.ca,,,,
,,,,H,H2X,QC,Metropolitan Montr√©al,Plateau Mont-Royal Southeast,45.5115,-73.5683,,marianchan.com,,,,
,,,,H,H3C,QC,Metropolitan Montr√©al,Griffintown (Includes √É≈Ωle Notre-Dame & √É≈Ωle Sainte-H√É¬©l√É¬®ne),45.498,-73.5472,,mariapecorella.com,,,,
,,,,H,H3E,QC,Metropolitan Montr√©al,L'√É≈Ωle-Des-Soeurs,45.4594,-73.5501,,mariska.ca,,,,
,,,,H,H3J,QC,Metropolitan Montr√©al,Petite-Bourgogne,45.4861,-73.5732,,maritimewealth.com,,,,
,,,,H,H3K,QC,Metropolitan Montr√©al,Pointe-Saint-Charles,45.4805,-73.5554,,markandtsang.com,,,,
,,,,H,H3L,QC,Metropolitan Montr√©al,Ahuntsic Southwest,45.5467,-73.6718,,markareid.ca,,,,
,,,,H,H3M,QC,Metropolitan Montr√©al,Cartierville Northeast,45.5383,-73.6932,,markloebach.ca,,,,
,,,,H,H3N,QC,Metropolitan Montr√©al,Parc-Extension,45.5302,-73.6327,,marquest.ca,,,,
,,,,H,H3P,QC,Metropolitan Montr√©al,Mount Royal North,45.5217,-73.6393,,marret.com,,,,
,,,,H,H3R,QC,Metropolitan Montr√©al,Mount Royal Central,45.5101,-73.6478,,martinpharris.com,,,,
,,,,H,H3S,QC,Metropolitan Montr√©al,C√É¬¥te-des-Neiges North,45.5063,-73.6297,,masonfinancial.net,,,,
,,,,H,H3T,QC,Metropolitan Montr√©al,C√É¬¥te-des-Neiges Northeast,45.5018,-73.6191,,masonfinancialservices.ca,,,,
,,,,H,H3V,QC,Metropolitan Montr√©al,C√É¬¥te-des-Neiges East,45.499,-73.6089,,massco.ca,,,,
,,,,H,H3W,QC,Metropolitan Montr√©al,C√É¬¥te-des-Neiges Southwest,45.4897,-73.6312,,masuchandmellios.com,,,,
,,,,H,H4A,QC,Metropolitan Montr√©al,Notre-Dame-de-Gr√É‚Äùce Northeast,45.4717,-73.6149,,matchettfinancial.com,,,,
,,,,H,H4B,QC,Metropolitan Montr√©al,Notre-Dame-de-Gr√É‚Äùce Southwest,45.4604,-73.6303,,matcofinancial.ca,,,,
,,,,H,H4C,QC,Metropolitan Montr√©al,Saint-Henri,45.4737,-73.5882,,matheisteam.com,,,,
,,,,H,H4E,QC,Metropolitan Montr√©al,Ville √É‚Ä∞mard,45.4546,-73.5985,,matthewsandassociates.ca,,,,
,,,,H,H4G,QC,Metropolitan Montr√©al,Verdun North,45.4643,-73.5698,,maudefinancial.com,,,,
,,,,H,H4H,QC,Metropolitan Montr√©al,Verdun South,45.4459,-73.5815,,mawer.com,,,,
,,,,H,H4J,QC,Metropolitan Montr√©al,Cartierville Central,45.5313,-73.7091,,maxamcm.com,,,,
,,,,H,H4K,QC,Metropolitan Montr√©al,Cartierville Southwest,45.5171,-73.7363,,maxfinancial.ca,,,,
,,,,H,H4L,QC,Metropolitan Montr√©al,Saint-Laurent Inner Northeast,45.517,-73.6831,,maximumestatesolutions.com,,,,
,,,,H,H4M,QC,Metropolitan Montr√©al,Saint-Laurent East,45.4979,-73.6886,,mayhewwealth.com,,,,
,,,,H,H4N,QC,Metropolitan Montr√©al,Saint-Laurent Outer Northeast,45.5263,-73.6649,,mayrak.com,,,,
,,,,H,H4P,QC,Metropolitan Montr√©al,Mount Royal South,45.4964,-73.6647,,mb.creditu.net,,,,
,,,,H,H4R,QC,Metropolitan Montr√©al,Saint-Laurent Central,45.5049,-73.7142,,mbifinancial.com,,,,
,,,,H,H4S,QC,Metropolitan Montr√©al,Saint-Laurent Southwest,45.4858,-73.7433,,mbwealthmanagement.com,,,,
,,,,H,H4T,QC,Metropolitan Montr√©al,Saint-Laurent Southeast,45.4752,-73.6961,,mcarthurfinancial.ca,,,,
,,,,H,H4V,QC,Metropolitan Montr√©al,C√É¬¥te-Saint-Luc East,45.4671,-73.6487,,mcauleyfinancial.com,,,,
,,,,H,H4Y,QC,Metropolitan Montr√©al,Dorval Central,45.8654,-72.7614,,mccollfinancial.com,,,,
,,,,H,H4Z,QC,Metropolitan Montr√©al,Tour de la Bourse,45.5061,-73.5573,,mcconnellriskmanagement.com,,,,
,,,,H,H5A,QC,Metropolitan Montr√©al,Place Bonaventure,45.4992,-73.5646,,mccoshpwm.com,,,,
,,,,H,H5B,QC,Metropolitan Montr√©al,Place Desjardins,45.5066,-73.5623,,mccullough-sawyer.ca,,,,
,,,,H,H7A,QC,Metropolitan Montr√©al,Duvernay-Est,45.6739,-73.5924,,mccurdyfinancial.com,,,,
,,,,H,H7B,QC,Metropolitan Montr√©al,Saint-Fran√É¬æois,45.6757,-73.6388,,mcdougallinsurance.com,,,,
,,,,H,H7C,QC,Metropolitan Montr√©al,Saint-Vincent-de-Paul,45.6168,-73.6492,,mcedwardswhitwell.com,,,,
,,,,H,H7E,QC,Metropolitan Montr√©al,Duvernay,45.6225,-73.6949,,mcf-financial.com,,,,
,,,,H,H7G,QC,Metropolitan Montr√©al,Pont-Viau,45.5771,-73.6873,,mcfadyenconsulting.ca,,,,
,,,,H,H7H,QC,Metropolitan Montr√©al,Auteuil West,45.6409,-73.7542,,mcfaull.com,,,,
,,,,H,H7J,QC,Metropolitan Montr√©al,Auteuil Northeast,45.6625,-73.7002,,mcgltd.ca,,,,
,,,,H,H7K,QC,Metropolitan Montr√©al,Auteuil South,45.6213,-73.7398,,mcgregorfinancial.ca,,,,
,,,,H,H7L,QC,Metropolitan Montr√©al,Sainte-Rose,45.6168,-73.7825,,mcguirefinancial.ca,,,,
,,,,H,H7M,QC,Metropolitan Montr√©al,Vimont,45.5984,-73.7159,,mchattiefinancial.ca,,,,
,,,,H,H7P,QC,Metropolitan Montr√©al,Fabreville,45.578,-73.8004,,mcintoshfinancial.ca,,,,
,,,,H,H7S,QC,Metropolitan Montr√©al,Chomedey Northeast,45.5793,-73.7367,,mckinleycapital.com,,,,
,,,,H,H7T,QC,Metropolitan Montr√©al,Chomedey Northwest,45.5573,-73.7725,,mcknightfinancial.com,,,,
,,,,H,H7V,QC,Metropolitan Montr√©al,Chomedey East,45.5478,-73.7368,,mcleanhallmark.com,,,,
,,,,H,H7W,QC,Metropolitan Montr√©al,Chomedey South,45.5338,-73.7652,,mclenehan.com,,,,
,,,,H,H7X,QC,Metropolitan Montr√©al,Sainte-Doroth√É¬©e,45.5334,-73.8159,,mcmahonkeast.com,,,,
,,,,H,H7Y,QC,Metropolitan Montr√©al,√É≈Ωles-Laval,45.5284,-73.8509,,mcnallyfinancial.ca,,,,
,,,,H,H8N,QC,Metropolitan Montr√©al,LaSalle Northwest,45.438,-73.6215,,mcnaughtonagency.com,,,,
,,,,H,H8P,QC,Metropolitan Montr√©al,LaSalle Southeast,45.4011,-73.619,,mcnultygroup.ca,,,,
,,,,H,H8R,QC,Metropolitan Montr√©al,Saint-Pierre,45.3994,-73.6506,,mcphailfin.ca,,,,
,,,,H,H8S,QC,Metropolitan Montr√©al,Lachine East,45.4402,-73.6747,,mcpheewealthmanagement.ca,,,,
,,,,H,H8T,QC,Metropolitan Montr√©al,Lachine West,45.4419,-73.7057,,mcplanning.ca,,,,
,,,,H,H8Y,QC,Metropolitan Montr√©al,Roxboro,45.5084,-73.8075,,mcquillangroup.com,,,,
,,,,H,H8Z,QC,Metropolitan Montr√©al,Pierrefonds,45.5069,-73.8407,,mcwealthmanagement.ca,,,,
,,,,H,H9A,QC,Metropolitan Montr√©al,Dollard-Des-Ormeaux Northwest,45.4948,-73.8317,,md.ca,,,,
,,,,H,H9B,QC,Metropolitan Montr√©al,Dollard-Des-Ormeaux East,45.4897,-73.7958,,mdirect.net,,,,
,,,,H,H9C,QC,Metropolitan Montr√©al,L'√É≈Ωle Bizard Northeast,45.5055,-73.8789,,mdp.on.ca,,,,
,,,,H,H9E,QC,Metropolitan Montr√©al,L'√É≈Ωle-Bizard Southwest,45.4865,-73.9092,,meb.on.ca,,,,
,,,,H,H9G,QC,Metropolitan Montr√©al,Dollard-Des-Ormeaux Southwest,45.4756,-73.8367,,meehanwealth.com,,,,
,,,,H,H9H,QC,Metropolitan Montr√©al,Sainte-Genevi√É¬®ve,45.4683,-73.8565,,mefservices.com,,,,
,,,,H,H9K,QC,Metropolitan Montr√©al,Senneville,45.4577,-73.9162,,meghanchomut.com,,,,
,,,,H,H9S,QC,Metropolitan Montr√©al,L'√É≈Ωle-Dorval,45.4414,-73.7749,,meldrumhorne.com,,,,
,,,,H,H9X,QC,Metropolitan Montr√©al,Sainte-Anne-De-Bellevue,45.4062,-73.9456,,mennonitetrust.com,,,,
,,,,J,J0E,QC,Western Quebec,Estrie-Ouest (Fulford),45.2831,-72.5244,,mercerwilde.ca,,,,
,,,,J,J0G,QC,Western Quebec,Bois-Francs-Nord (Odanak),46.021,-72.8239,,meridiancu.ca,,,,
,,,,J,J0H,QC,Western Quebec,Bois-Francs-Sud (Saint-Nazaire-D'Acton),45.6609,-72.77,,meritage.ca,,,,
,,,,J,J0M,QC,Western Quebec,Nunavik (Kuujjuaq),58.3269,-72.1637,,meritpartners.ca,,,,
,,,,J,J0N,QC,Western Quebec,R√É¬©gion d'Oka (Oka),45.5135,-74.0534,,meritustrust.com,,,,
,,,,J,J0P,QC,Western Quebec,Vaudreuil-Soulanges (Coteau-du-Lac),45.3655,-74.312,,merkfinancialgroup.com,,,,
,,,,J,J0R,QC,Western Quebec,Lanaudi√É¬®re-Sud (Pr√É¬©vost),45.866,-74.1785,,merrickwealth.com,,,,
,,,,J,J0V,QC,Western Quebec,Laurentides-Sud (Ch√É¬©n√É¬©ville),45.8265,-74.9318,,mertingroup.com,,,,
,,,,J,J0W,QC,Western Quebec,Outaouais-Nord (Ferme-Neuve),47.0921,-75.7967,,metrix.ca,,,,
,,,,J,J0Y,QC,Western Quebec,Abitibi-T√É¬©miscamingue-Est (Radisson),52.1046,-75.2807,,mewco.ca,,,,
,,,,J,J1A,QC,Western Quebec,Coaticook,45.1334,-71.7991,,mfcecutti.ca,,,,
,,,,J,J1C,QC,Western Quebec,Bromptonville,45.4797,-71.9492,,mfgfinancial.ca,,,,
,,,,J,J1E,QC,Western Quebec,Sherbrooke Northeast,45.4231,-71.8723,,mfs.com,,,,
,,,,J,J1G,QC,Western Quebec,Sherbrooke East,45.4024,-71.8479,,mfsi.ca,,,,
,,,,J,J1H,QC,Western Quebec,Sherbrooke Central,45.3891,-71.8986,,mg-cpa.ca,,,,
,,,,J,J1J,QC,Western Quebec,Sherbrooke North,45.4131,-71.9238,,mgfadvisory.ca,,,,
,,,,J,J1K,QC,Western Quebec,Sherbrooke West,45.3822,-71.9327,,mgfg.ca,,,,
,,,,J,J1L,QC,Western Quebec,Sherbrooke Northwest,45.4113,-71.9586,,mgmfinancial.com,,,,
,,,,J,J1M,QC,Western Quebec,Sherbrooke Southeast,45.3656,-71.842,,michaelchu.ca,,,,
,,,,J,J1N,QC,Western Quebec,Rock Forest,45.3395,-72.0128,,michaelcollymore.com,,,,
,,,,J,J1R,QC,Western Quebec,Saint-√É‚Ä∞lie-d'Orford,45.3966,-72.0422,,michaelmoreau.ca,,,,
,,,,J,J1Z,QC,Western Quebec,Saint-Cyrille-De-Wendover,45.9334,-72.4324,,michaelnice.com,,,,
,,,,J,J2B,QC,Western Quebec,Drummondville South,45.9061,-72.5929,,michelereid.ca,,,,
,,,,J,J2W,QC,Western Quebec,Saint-Luc,45.3694,-73.3137,,michellecooper.ca,,,,
,,,,J,J3H,QC,Western Quebec,Beloeil East,45.5527,-73.1755,,mikekidneyfinancial.com,,,,
,,,,J,J3N,QC,Western Quebec,Saint-Basile-Le-Grand,45.5334,-73.2825,,milanfinancialgroup.com,,,,
,,,,J,J3P,QC,Western Quebec,Sorel Central,46.0365,-73.0665,,milestoneasset.ca,,,,
,,,,J,J3R,QC,Western Quebec,Sorel Southwest,46.0206,-73.1439,,milestonewepg.ca,,,,
,,,,J,J3V,QC,Western Quebec,Saint-Bruno,45.532,-73.3437,,millarcorp.ca,,,,
,,,,J,J3Y,QC,Western Quebec,Saint-Hubert Central,45.4906,-73.3991,,millarfinancial.ca,,,,
,,,,J,J3Z,QC,Western Quebec,Saint-Hubert East,45.4981,-73.4012,,millcroftfinancial.ca,,,,
,,,,J,J4G,QC,Western Quebec,Longueuil North,45.5679,-73.4761,,millennialfg.com,,,,
,,,,J,J4H,QC,Western Quebec,Longueuil West,45.5372,-73.5056,,miller-wealth.com,,,,
,,,,J,J4J,QC,Western Quebec,Longueuil Central,45.5362,-73.4721,,mingassociates.com,,,,
,,,,J,J4K,QC,Western Quebec,Longueuil Southwest,45.5183,-73.5023,,mitchellfinancial.ca,,,,
,,,,J,J4L,QC,Western Quebec,Longueuil Southeast,45.5181,-73.4576,,mitchellpearce.ca,,,,
,,,,J,J4M,QC,Western Quebec,Longueuil East,45.5418,-73.4382,,mizakprivatewealth.com,,,,
,,,,J,J4N,QC,Western Quebec,Longueuil Northeast,45.5523,-73.4558,,mjcfinancial.ca,,,,
,,,,J,J4T,QC,Western Quebec,Saint-Hubert West,45.4973,-73.4676,,mkababji.com,,,,
,,,,J,J4V,QC,Western Quebec,Greenfield Park,45.4865,-73.4622,,mkateam.com,,,,
,,,,J,J5J,QC,Western Quebec,Saint-Sophie,45.8306,-73.9191,,ml.com,,,,
,,,,J,J5W,QC,Western Quebec,L'Assomption,45.8232,-73.4294,,mmainvestments.com,,,,
,,,,J,J6E,QC,Western Quebec,Joliette,46.0168,-73.4492,,mmfi.ca,,,,
,,,,J,J6Z,QC,Western Quebec,Sainte-Th√É¬©r√É¬®se-de-Blainville Northeast,45.6694,-73.7752,,mmfp.ca,,,,
,,,,J,J7A,QC,Western Quebec,Sainte-Th√É¬©r√É¬®se-de-Blainville East,45.6383,-73.7975,,mnp.ca,,,,
,,,,J,J7B,QC,Western Quebec,Sainte-Th√É¬©r√É¬®se-de-Blainville North,45.6602,-73.8157,,moeruscap.com,,,,
,,,,J,J7C,QC,Western Quebec,Sainte-Th√É¬©r√É¬®se-de-Blainville Northwest,45.689,-73.8671,,momentumcap.ca,,,,
,,,,J,J7G,QC,Western Quebec,Sainte-Th√É¬©r√É¬®se-de-Blainville South,45.6095,-73.8378,,monarchfinancial.ca,,,,
,,,,J,J7H,QC,Western Quebec,Sainte-Th√É¬©r√É¬®se-de-Blainville Southwest,45.6209,-73.8728,,monarchwealth.ca,,,,
,,,,J,J7J,QC,Western Quebec,Mirabel Northeast,45.7045,-73.9472,,monetaplanning.com,,,,
,,,,J,J7M,QC,Western Quebec,La Plaine,45.7888,-73.7442,,money4u.ca,,,,
,,,,J,J7N,QC,Western Quebec,Mirabel Southwest,45.6345,-74.1005,,moneyadvisor.ca,,,,
,,,,J,J7T,QC,Western Quebec,Vaudreuil-Dorion RCM,45.3702,-74.1249,,moneycare.ca,,,,
,,,,J,J7W,QC,Western Quebec,Pincourt,45.3665,-73.9736,,moneyco.ca,,,,
,,,,J,J7X,QC,Western Quebec,Valleyfield,45.2691,-74.2339,,moneycoachescanada.ca,,,,
,,,,J,J8C,QC,Western Quebec,Sainte-Agathe-Des-Monts,46.0501,-74.2825,,moneymapfinancial.com,,,,
,,,,J,J8G,QC,Western Quebec,Chatham,45.6834,-74.4159,,moneystrat.com,,,,
,,,,J,J8L,QC,Western Quebec,Buckingham,45.5856,-75.4208,,moneywebfinancial.com,,,,
,,,,J,J8M,QC,Western Quebec,Masson-Angers,45.5435,-75.4274,,moniquemadan.com,,,,
,,,,J,J8P,QC,Western Quebec,Gatineau Southeast,45.4869,-75.6157,,montageadvisory.com,,,,
,,,,J,J8R,QC,Western Quebec,Gatineau Northeast,45.5287,-75.6088,,monteithcga.com,,,,
,,,,J,J8T,QC,Western Quebec,Gatineau Southwest,45.4776,-75.7059,,monymap.com,,,,
,,,,J,J8V,QC,Western Quebec,Gatineau Northwest,45.5711,-75.7615,,moodysgartner.com,,,,
,,,,J,J8X,QC,Western Quebec,Hull Southeast,45.44,-75.7119,,morfinancial.ca,,,,
,,,,J,J8Y,QC,Western Quebec,Hull Central,45.448,-75.7434,,morgans.ca,,,,
,,,,J,J8Z,QC,Western Quebec,Hull North,45.4716,-75.7616,,morganstanley.com,,,,
,,,,J,J9A,QC,Western Quebec,Hull Southwest,45.4279,-75.7711,,morplanfinancial.com,,,,
,,,,J,J9H,QC,Western Quebec,Aylmer South,45.3932,-75.8288,,mosaicfinancial.ca,,,,
,,,,J,J9J,QC,Western Quebec,Aylmer North,45.4394,-75.8465,,movsisyan.ca,,,,
,,,,J,J9X,QC,Western Quebec,Rouyn-Noranda South,48.2855,-78.8234,,mpartners.ca,,,,
,,,,J,J9Y,QC,Western Quebec,Rouyn-Noranda North,48.1607,-79.0714,,mpowerfinancialcoaching.com,,,,
,,,,S,S0A,SK,Saskatchewan,Yorkton Region (Melville),51.4818,-102.907,,mpsinsurance.ca,,,,
,,,,S,S0C,SK,Saskatchewan,Southeastern Saskatchewan (Carlyle),49.3961,-103.257,,mrdfinancial.com,,,,
,,,,S,S0E,SK,Saskatchewan,Eastern Saskatchewan (Melfort),53.1363,-103.1,,mrefinancial.com,,,,
,,,,S,S0G,SK,Saskatchewan,South Central Saskatchewan (Fort Qu'Appelle),50.5767,-104.1,,mrgwealth.com,,,,
,,,,S,S0H,SK,Saskatchewan,Southern Saskatchewan (Assiniboia),49.9841,-106.249,,mrvafinancial.com,,,,
,,,,S,S0J,SK,Saskatchewan,Northern Saskatchewan (La Ronge),57.1992,-105.824,,msc-feeonly.com,,,,
,,,,S,S0K,SK,Saskatchewan,Central Saskatchewan (Humboldt),52.3003,-107.991,,mstone.com,,,,
,,,,S,S0L,SK,Saskatchewan,Western Saskatchewan (Kindersley),51.4827,-108.49,,mtmwealth.ca,,,,
,,,,S,S0M,SK,Saskatchewan,Northwestern Saskatchewan (Battleford),54.9235,-108.957,,mtroyal.ca,,,,
,,,,S,S0N,SK,Saskatchewan,Southwestern Saskatchewan (Maple Creek),49.9116,-108.724,,mtrust.net,,,,
,,,,S,S0P,SK,Saskatchewan,Northeastern Saskatchewan (Creighton),55.0162,-102.742,,muirfinancial.com,,,,
,,,,S,S2V,SK,Saskatchewan,Buena Vista,50.7834,-104.951,,multirisk.ca,,,,
,,,,S,S3N,SK,Saskatchewan,Yorkton,51.2167,-102.468,,murrickfp.com,,,,
,,,,S,S4A,SK,Saskatchewan,Estevan,49.1334,-102.984,,mustafaprivatewealth.com,,,,
,,,,S,S4H,SK,Saskatchewan,Weyburn,49.6668,-103.851,,mvcu.ca,,,,
,,,,S,S4K,SK,Saskatchewan,Rm Of Sherwood,50.4501,-104.618,,mwcopc.com,,,,
,,,,S,S4L,SK,Saskatchewan,Regina East,50.4132,-104.273,,mwcowealth.com,,,,
,,,,S,S4M,SK,Saskatchewan,Regina,50.4501,-104.618,,mwfi.ca,,,,
,,,,S,S4N,SK,Saskatchewan,Regina Northeast and East Central,50.4671,-104.541,,myaccess.ca,,,,
,,,,S,S4P,SK,Saskatchewan,Regina Central,50.419,-104.677,,mybluesky.ca,,,,
,,,,S,S4R,SK,Saskatchewan,Regina North Central,50.4855,-104.616,,myersfinancial.ca,,,,
,,,,S,S4S,SK,Saskatchewan,Regina South Saskatchewan Provincial Government,50.4153,-104.61,,myfinancialhealth.ca,,,,
,,,,S,S4T,SK,Saskatchewan,Regina West,50.4507,-104.665,,myfinancialpilot.ca,,,,
,,,,S,S4V,SK,Saskatchewan,Regina Southeast,50.4251,-104.539,,myfinancialsolutions.ca,,,,
,,,,S,S4W,SK,Saskatchewan,Regina Southwest,50.4078,-104.654,,myfinancialtoolbox.ca,,,,
,,,,S,S4X,SK,Saskatchewan,Regina Northwest,50.5061,-104.675,,myfinplan.ca,,,,
,,,,S,S4Y,SK,Saskatchewan,Regina Outer Northwest,50.4768,-104.699,,myglidepath.com,,,,
,,,,S,S4Z,SK,Saskatchewan,Regina Northeast,50.4497,-104.532,,mynetworth.ca,,,,
,,,,S,S6H,SK,Saskatchewan,Moose Jaw Southeast,50.3895,-105.558,,myrefinancial.com,,,,
,,,,S,S6J,SK,Saskatchewan,Moose Jaw Northeast,50.4185,-105.539,,nait.ca,,,,
,,,,S,S6K,SK,Saskatchewan,Moose Jaw West,50.454,-105.642,,nancyleeca.com,,,,
,,,,S,S6V,SK,Saskatchewan,Prince Albert Central,54.493,-104.305,,nantonfinancial.com,,,,
,,,,S,S6W,SK,Saskatchewan,Prince Albert Southwest,53.1785,-105.774,,narindermann.ca,,,,
,,,,S,S6X,SK,Saskatchewan,Prince Albert East,53.1936,-105.703,,nashroberts.com,,,,
,,,,S,S7H,SK,Saskatchewan,Saskatoon East Central,52.1168,-106.635,,navfingroup.com,,,,
,,,,S,S7J,SK,Saskatchewan,Saskatoon South Central,52.0961,-106.625,,naviconsulting.ca,,,,
,,,,S,S7K,SK,Saskatchewan,Saskatoon North Central,52.0111,-106.796,,navigatorfinancial.com,,,,
,,,,S,S7L,SK,Saskatchewan,Saskatoon West,52.1564,-106.687,,nctaxservices.ca,,,,
,,,,S,S7M,SK,Saskatchewan,Saskatoon Southwest,52.1133,-106.724,,neiinvestments.com,,,,
,,,,S,S7N,SK,Saskatchewan,Saskatoon Northeast Central,52.1404,-106.608,,nelsonfinancial.ca,,,,
,,,,S,S7P,SK,Saskatchewan,Saskatoon North,52.2751,-106.501,,nesbittfinancial.ca,,,,
,,,,S,S7R,SK,Saskatchewan,Saskatoon Northwest,52.1588,-106.716,,networkfinancial.ca,,,,
,,,,S,S7S,SK,Saskatchewan,Saskatoon Northeast,52.1609,-106.586,,networthmgt.com,,,,
,,,,S,S7T,SK,Saskatchewan,Saskatoon South,52.0403,-106.66,,newdiamondfinancial.com,,,,
,,,,S,S7V,SK,Saskatchewan,Saskatoon Southeast,52.0976,-106.555,,newpoint.ca,,,,
,,,,S,S7W,SK,Saskatchewan,Saskatoon,52.157,-106.561,,newportprivatewealth.ca,,,,
,,,,S,S9A,SK,Saskatchewan,North Battleford,52.7834,-108.285,,newschooloffinance.com,,,,
,,,,S,S9H,SK,Saskatchewan,Swift Current,50.2834,-107.801,,newtonfinancial.ca,,,,
,,,,S,S9V,SK,Saskatchewan,Lloydminster,53.2835,-110.002,,nexicom.com,,,,
,,,,S,S9X,SK,Saskatchewan,Meadow Lake,54.1335,-108.435,,nextlevelbc.ca,,,,
,,,,Y,Y0A,YT,Yukon,Southeastern Yukon (Watson Lake),61.5793,-131.148,,nextstepfs.ca,,,,
,,,,Y,Y0B,YT,Yukon,Central Yukon (Dawson City),64.645,-137.536,,nexuscrowd.com,,,,
,,,,Y,Y1A,YT,Yukon,Whitehorse,60.7161,-135.054,,nexusinvestments.com,,,,
,,,,,,,,,,,,nexxfinancial.com,,,,
,,,,,,,,,,,,nf.aibn.com,,,,
,,,,,,,,,,,,nfld.net,,,,
,,,,,,,,,,,,nfp.com,,,,
,,,,,,,,,,,,nhlpa.com,,,,
,,,,,,,,,,,,niagarawealth.com,,,,
,,,,,,,,,,,,nicolawealth.com,,,,
,,,,,,,,,,,,nieuwfinancial.com,,,,
,,,,,,,,,,,,nilsonco.com,,,,
,,,,,,,,,,,,nisa.com,,,,
,,,,,,,,,,,,nlcu.com,,,,
,,,,,,,,,,,,nlfg.ca,,,,
,,,,,,,,,,,,noblewealthfinancial.com,,,,
,,,,,,,,,,,,nobregafinancial.com,,,,
,,,,,,,,,,,,nordick.ca,,,,
,,,,,,,,,,,,normaxx.com,,,,
,,,,,,,,,,,,northerncu.com,,,,
,,,,,,,,,,,,northernfinancialgroup.ca,,,,
,,,,,,,,,,,,northernriverfinancial.ca,,,,
,,,,,,,,,,,,northlandwealth.com,,,,
,,,,,,,,,,,,northsave.com,,,,
,,,,,,,,,,,,northstarwealth.ca,,,,
,,,,,,,,,,,,northstreamcap.com,,,,
,,,,,,,,,,,,northwatercapital.com,,,,
,,,,,,,,,,,,northwoodfamilyoffice.com,,,,
,,,,,,,,,,,,northwoodfinancial.ca,,,,
,,,,,,,,,,,,novascotia.ca,,,,
,,,,,,,,,,,,novellawealth.com,,,,
,,,,,,,,,,,,npscu.ca,,,,
,,,,,,,,,,,,npw.ca,,,,
,,,,,,,,,,,,nrfg.ca,,,,
,,,,,,,,,,,,nrtco.net,,,,
,,,,,,,,,,,,ns-partners.co.uk,,,,
,,,,,,,,,,,,ntl.sympatico.ca,,,,
,,,,,,,,,,,,ntnwca.com,,,,
,,,,,,,,,,,,nwcp.ca,,,,
,,,,,,,,,,,,nyfwealthmanagement.com,,,,
,,,,,,,,,,,,oagi.ca,,,,
,,,,,,,,,,,,oaktreews.ca,,,,
,,,,,,,,,,,,oakvest.com,,,,
,,,,,,,,,,,,obeoplanning.ca,,,,
,,,,,,,,,,,,oberoncapcorp.com,,,,
,,,,,,,,,,,,objectivefinancialpartners.com,,,,
,,,,,,,,,,,,oculusprivatewealth.com,,,,
,,,,,,,,,,,,odlumbrown.com,,,,
,,,,,,,,,,,,ody.ca,,,,
,,,,,,,,,,,,oecu.on.ca,,,,
,,,,,,,,,,,,ofsi.ca,,,,
,,,,,,,,,,,,ogilvie.ca,,,,
,,,,,,,,,,,,okanefinancial.com,,,,
,,,,,,,,,,,,oldfieldpartners.com,,,,
,,,,,,,,,,,,olympianfinancial.com,,,,
,,,,,,,,,,,,omegafinancial.ca,,,,
,,,,,,,,,,,,omfinancial.com,,,,
,,,,,,,,,,,,omg.ca,,,,
,,,,,,,,,,,,omniinvestments.ca,,,,
,,,,,,,,,,,,on.aibn.com,,,,
,,,,,,,,,,,,onecapital.com,,,,
,,,,,,,,,,,,oneill-inc.com,,,,
,,,,,,,,,,,,onelifewealth.ca,,,,
,,,,,,,,,,,,onelifewealth.com,,,,
,,,,,,,,,,,,onotsky.net,,,,
,,,,,,,,,,,,onyxfinancial.ca,,,,
,,,,,,,,,,,,opb.ca,,,,
,,,,,,,,,,,,openaccessltd.com,,,,
,,,,,,,,,,,,opencorporates.com,,,,
,,,,,,,,,,,,optimalcentre.ca,,,,
,,,,,,,,,,,,optimizeinc.net,,,,
,,,,,,,,,,,,optimum.net,,,,
,,,,,,,,,,,,optimumstrategies.ca,,,,
,,,,,,,,,,,,opulens.ca,,,,
,,,,,,,,,,,,opuswealthadvisors.com,,,,
,,,,,,,,,,,,oraclefinancial.ca,,,,
,,,,,,,,,,,,orcabayfinancial.com,,,,
,,,,,,,,,,,,orrinsurance.net,,,,
,,,,,,,,,,,,ortgeard.com,,,,
,,,,,,,,,,,,osam.com,,,,
,,,,,,,,,,,,ospreycapital.ca,,,,
,,,,,,,,,,,,ottawacfp.ca,,,,
,,,,,,,,,,,,ourfamilyoffice.ca,,,,
,,,,,,,,,,,,oxford.net,,,,
,,,,,,,,,,,,pabani.ca,,,,
,,,,,,,,,,,,pacecu.com,,,,
,,,,,,,,,,,,pacesecurities.com,,,,
,,,,,,,,,,,,pacificspirit.ca,,,,
,,,,,,,,,,,,padgettalberta.ca,,,,
,,,,,,,,,,,,pafinancial.ca,,,,
,,,,,,,,,,,,paisleyparachutes.com,,,,
,,,,,,,,,,,,pallisterfinancial.com,,,,
,,,,,,,,,,,,palltd.com,,,,
,,,,,,,,,,,,panadvisory.ca,,,,
,,,,,,,,,,,,panagora.com,,,,
,,,,,,,,,,,,pangeafamilyoffices.com,,,,
,,,,,,,,,,,,pankow.ca,,,,
,,,,,,,,,,,,panoramawealth.ca,,,,
,,,,,,,,,,,,papyrusplan.com,,,,
,,,,,,,,,,,,paradigmcapinc.com,,,,
,,,,,,,,,,,,paradigmwealth.ca,,,,
,,,,,,,,,,,,paragoninc.ca,,,,
,,,,,,,,,,,,paraport.com,,,,
,,,,,,,,,,,,parityagencies.ca,,,,
,,,,,,,,,,,,parkhousefinancial.ca,,,,
,,,,,,,,,,,,parkplacefinancial.ca,,,,
,,,,,,,,,,,,parwezfinancial.ca,,,,
,,,,,,,,,,,,path.co.nz,,,,
,,,,,,,,,,,,pathcom.com,,,,
,,,,,,,,,,,,patmagliaro.com,,,,
,,,,,,,,,,,,patweir.ca,,,,
,,,,,,,,,,,,paulboparai.com,,,,
,,,,,,,,,,,,paulcraftfinancial.com,,,,
,,,,,,,,,,,,paulguptaandassociates.com,,,,
,,,,,,,,,,,,pavilioncorp.com,,,,
,,,,,,,,,,,,paxplanning.ca,,,,
,,,,,,,,,,,,pbfinancial.com,,,,
,,,,,,,,,,,,pccu.ca,,,,
,,,,,,,,,,,,pcfs.ca,,,,
,,,,,,,,,,,,peacocksheridan.com,,,,
,,,,,,,,,,,,peakgroup.com,,,,
,,,,,,,,,,,,peartreesecurities.com,,,,
,,,,,,,,,,,,peba.gov.sk.ca,,,,
,,,,,,,,,,,,pei.sympatico.ca,,,,
,,,,,,,,,,,,peleelighthouse.ca,,,,
,,,,,,,,,,,,pelican-grp.com,,,,
,,,,,,,,,,,,pellegrinifinancial.com,,,,
,,,,,,,,,,,,penderfund.com,,,,
,,,,,,,,,,,,pendsion.com,,,,
,,,,,,,,,,,,penfinancial.com,,,,
,,,,,,,,,,,,peqm.com,,,,
,,,,,,,,,,,,perpetualwealth.ca,,,,
,,,,,,,,,,,,perry-consultants.com,,,,
,,,,,,,,,,,,pershing.com,,,,
,,,,,,,,,,,,personainternet.com,,,,
,,,,,,,,,,,,personalfinancialplans.com,,,,
,,,,,,,,,,,,personalizedwealth.com,,,,
,,,,,,,,,,,,perspectivefinancial.ca,,,,
,,,,,,,,,,,,perspektivfinancial.com,,,,
,,,,,,,,,,,,peterbrowninc.com,,,,
,,,,,,,,,,,,petergillen.ca,,,,
,,,,,,,,,,,,petersco.com,,,,
,,,,,,,,,,,,pgfinancial.ca,,,,
,,,,,,,,,,,,philhauser.ca,,,,
,,,,,,,,,,,,phn.com,,,,
,,,,,,,,,,,,pib.com,,,,
,,,,,,,,,,,,pictonmahoney.com,,,,
,,,,,,,,,,,,pierredauth.com,,,,
,,,,,,,,,,,,pifinancial.com,,,,
,,,,,,,,,,,,pifinancialcorp.com,,,,
,,,,,,,,,,,,pillarretirement.com,,,,
,,,,,,,,,,,,pinnaclereliance.com,,,,
,,,,,,,,,,,,pippyins.com,,,,
,,,,,,,,,,,,pjgreene.ca,,,,
,,,,,,,,,,,,pkfinancial.ca,,,,
,,,,,,,,,,,,plan2bewealthy.com,,,,
,,,,,,,,,,,,plan4u.me,,,,
,,,,,,,,,,,,planeasy.ca,,,,
,,,,,,,,,,,,planfirst.ca,,,,
,,,,,,,,,,,,planitfinancialcorp.com,,,,
,,,,,,,,,,,,planner.to,,,,
,,,,,,,,,,,,planningprofessionals.ca,,,,
,,,,,,,,,,,,planningtoretire.ca,,,,
,,,,,,,,,,,,planningyourfuture.ca,,,,
,,,,,,,,,,,,planstoprosper.ca,,,,
,,,,,,,,,,,,planswell.ca,,,,
,,,,,,,,,,,,plantax.ca,,,,
,,,,,,,,,,,,planwithintegrity.com,,,,
,,,,,,,,,,,,playcheques.com,,,,
,,,,,,,,,,,,pmgifinancial.com,,,,
,,,,,,,,,,,,pointbfinancial.ca,,,,
,,,,,,,,,,,,polaramp.com,,,,
,,,,,,,,,,,,polarisadvisory.ca,,,,
,,,,,,,,,,,,polarisfinancial.ca,,,,
,,,,,,,,,,,,pollockfinancial.ca,,,,
,,,,,,,,,,,,porchlight.ca,,,,
,,,,,,,,,,,,portdalhousiefinancial.com,,,,
,,,,,,,,,,,,portfoliostrategies.ca,,,,
,,,,,,,,,,,,portlingtonfinancial.com,,,,
,,,,,,,,,,,,potvinfinancial.com,,,,
,,,,,,,,,,,,potvinplanning.ca,,,,
,,,,,,,,,,,,powellinsbro.com,,,,
,,,,,,,,,,,,poweronecapital.com,,,,
,,,,,,,,,,,,ppisolutions.ca,,,,
,,,,,,,,,,,,prairiewealth.ca,,,,
,,,,,,,,,,,,praxiswealth.ca,,,,
,,,,,,,,,,,,precedencewealth.com,,,,
,,,,,,,,,,,,precisionwealth.ca,,,,
,,,,,,,,,,,,predictablefutures.com,,,,
,,,,,,,,,,,,premierfinancial.mb.ca,,,,
,,,,,,,,,,,,prescottpointfinancial.com,,,,
,,,,,,,,,,,,pretiumwealth.ca,,,,
,,,,,,,,,,,,primequadrant.com,,,,
,,,,,,,,,,,,primerica.com,,,,
,,,,,,,,,,,,pris.ca,,,,
,,,,,,,,,,,,privategroup.cc,,,,
,,,,,,,,,,,,prizmfinancial.com,,,,
,,,,,,,,,,,,pro-invest.ca,,,,
,,,,,,,,,,,,proactivefinancial.ca,,,,
,,,,,,,,,,,,probenefits.ca,,,,
,,,,,,,,,,,,probity.ca,,,,
,,,,,,,,,,,,producersgroup.ca,,,,
,,,,,,,,,,,,productsolutionscentre.ca,,,,
,,,,,,,,,,,,professionalsinsurance.net,,,,
,,,,,,,,,,,,promerita.com,,,,
,,,,,,,,,,,,propeladvisory.ca,,,,
,,,,,,,,,,,,prosfinance.ca,,,,
,,,,,,,,,,,,prospera.ca,,,,
,,,,,,,,,,,,prosperasolutions.com,,,,
,,,,,,,,,,,,prosperity-planning.com,,,,
,,,,,,,,,,,,prosperityplanning.ca,,,,
,,,,,,,,,,,,prosperwealth.ca,,,,
,,,,,,,,,,,,providentpartners.ca,,,,
,,,,,,,,,,,,proworldfinancial.com,,,,
,,,,,,,,,,,,prudentasset.ca,,,,
,,,,,,,,,,,,prwealth.ca,,,,
,,,,,,,,,,,,pshepfinancial.com,,,,
,,,,,,,,,,,,psvca.com,,,,
,,,,,,,,,,,,ptcookwealth.com,,,,
,,,,,,,,,,,,pugachevsky.com,,,,
,,,,,,,,,,,,puhlemployeebenefits.com,,,,
,,,,,,,,,,,,purposedfinancial.org,,,,
,,,,,,,,,,,,purposeinspiredsolutions.ca,,,,
,,,,,,,,,,,,pwc.com,,,,
,,,,,,,,,,,,pwlcapital.com,,,,
,,,,,,,,,,,,pzena.com,,,,
,,,,,,,,,,,,qfs.ca,,,,
,,,,,,,,,,,,qres.ca,,,,
,,,,,,,,,,,,quadasset.com,,,,
,,,,,,,,,,,,quadrusinvestment.com,,,,
,,,,,,,,,,,,quarrywealth.ca,,,,
,,,,,,,,,,,,quasarfinancial.ca,,,,
,,,,,,,,,,,,queenfinancial.com,,,,
,,,,,,,,,,,,queensbury.com,,,,
,,,,,,,,,,,,queenston.net,,,,
,,,,,,,,,,,,questrade.com,,,,
,,,,,,,,,,,,quietlegacy.com,,,,
,,,,,,,,,,,,quintusfinancial.biz,,,,
,,,,,,,,,,,,qvinvestors.com,,,,
,,,,,,,,,,,,racheldelaney.com,,,,
,,,,,,,,,,,,racinefinancial.ca,,,,
,,,,,,,,,,,,raelipskie.com,,,,
,,,,,,,,,,,,raidnaji.com,,,,
,,,,,,,,,,,,raimondo-associates.com,,,,
,,,,,,,,,,,,raintreeemd.com,,,,
,,,,,,,,,,,,rankinefinancial.com,,,,
,,,,,,,,,,,,ravbadial.com,,,,
,,,,,,,,,,,,rawlingfinancial.com,,,,
,,,,,,,,,,,,raycroftfinancial.com,,,,
,,,,,,,,,,,,raymorecu.com,,,,
,,,,,,,,,,,,rbafinancial.com,,,,
,,,,,,,,,,,,rblfinancial.ca,,,,
,,,,,,,,,,,,rcpinc.ca,,,,
,,,,,,,,,,,,rdrfinancial.com,,,,
,,,,,,,,,,,,redcloudks.com,,,,
,,,,,,,,,,,,redsealfinancial.com,,,,
,,,,,,,,,,,,redwillowwealth.com,,,,
,,,,,,,,,,,,redwoodasset.com,,,,
,,,,,,,,,,,,redwoodcapital.ca,,,,
,,,,,,,,,,,,registeredplanner.com,,,,
,,,,,,,,,,,,reidstrategies.com,,,,
,,,,,,,,,,,,rempart.ca,,,,
,,,,,,,,,,,,renema-cga.com,,,,
,,,,,,,,,,,,resoluteasset.ca,,,,
,,,,,,,,,,,,retire-sooner.org,,,,
,,,,,,,,,,,,retirementb.com,,,,
,,,,,,,,,,,,retirerightcanada.ca,,,,
,,,,,,,,,,,,retirewithipc.com,,,,
,,,,,,,,,,,,reuterbenefits.com,,,,
,,,,,,,,,,,,rfgl.com,,,,
,,,,,,,,,,,,rfm.ca,,,,
,,,,,,,,,,,,rfmi.ca,,,,
,,,,,,,,,,,,rfs.on.ca,,,,
,,,,,,,,,,,,rgafinancial.com,,,,
,,,,,,,,,,,,rgfwealth.com,,,,
,,,,,,,,,,,,rgpackman.ca,,,,
,,,,,,,,,,,,rhbpc.ca,,,,
,,,,,,,,,,,,rhinofinancial.ca,,,,
,,,,,,,,,,,,rhncpa.com,,,,
,,,,,,,,,,,,riachfinancial.ca,,,,
,,,,,,,,,,,,richandres.com,,,,
,,,,,,,,,,,,richardh.ca,,,,
,,,,,,,,,,,,richardsfinancial.ca,,,,
,,,,,,,,,,,,richeinvestments.ca,,,,
,,,,,,,,,,,,rickjonesfinancial.com,,,,
,,,,,,,,,,,,rickyleung.com,,,,
,,,,,,,,,,,,ridgewealth.com,,,,
,,,,,,,,,,,,rifinancial.ca,,,,
,,,,,,,,,,,,rileyfinancial.ca,,,,
,,,,,,,,,,,,riverroadam.com,,,,
,,,,,,,,,,,,rivershorewealth.com,,,,
,,,,,,,,,,,,rivetfinancial.ca,,,,
,,,,,,,,,,,,rjkfinancial.com,,,,
,,,,,,,,,,,,rjobrien.com,,,,
,,,,,,,,,,,,rlb.ca,,,,
,,,,,,,,,,,,rlfinancial.ca,,,,
,,,,,,,,,,,,rmfp.ca,,,,
,,,,,,,,,,,,roadhousefinancial.com,,,,
,,,,,,,,,,,,robcagnin.ca,,,,
,,,,,,,,,,,,robertbird.ca,,,,
,,,,,,,,,,,,robertcastles.ca,,,,
,,,,,,,,,,,,robertcpa.ca,,,,
,,,,,,,,,,,,roberthurdman.com,,,,
,,,,,,,,,,,,robertsidney.com,,,,
,,,,,,,,,,,,robertsmithfinancial.ca,,,,
,,,,,,,,,,,,robertsonfinancial.net,,,,
,,,,,,,,,,,,robertsonhall.com,,,,
,,,,,,,,,,,,robertsonoffice.com,,,,
,,,,,,,,,,,,roblynfinancial.com,,,,
,,,,,,,,,,,,rochebanyan.ca,,,,
,,,,,,,,,,,,rockwaterwealth.ca,,,,
,,,,,,,,,,,,rockycu.com,,,,
,,,,,,,,,,,,rogersfinancialservices.ca,,,,
,,,,,,,,,,,,rogersgroup.com,,,,
,,,,,,,,,,,,roloson.ca,,,,
,,,,,,,,,,,,romacfinancial.com,,,,
,,,,,,,,,,,,romanovsky.com,,,,
,,,,,,,,,,,,romspen.com,,,,
,,,,,,,,,,,,roohicpa.com,,,,
,,,,,,,,,,,,rowlesfinancial.com,,,,
,,,,,,,,,,,,royalcityic.ca,,,,
,,,,,,,,,,,,roybyrns.com,,,,
,,,,,,,,,,,,rpia.ca,,,,
,,,,,,,,,,,,rpncas.com,,,,
,,,,,,,,,,,,rrdfsi.ca,,,,
,,,,,,,,,,,,rrspman.com,,,,
,,,,,,,,,,,,rstaccountants.com,,,,
,,,,,,,,,,,,rtfc.ca,,,,
,,,,,,,,,,,,rtmosaic.com,,,,
,,,,,,,,,,,,rtradvisory.com,,,,
,,,,,,,,,,,,rtylerfinancial.com,,,,
,,,,,,,,,,,,rubbixinc.com,,,,
,,,,,,,,,,,,russel-financial.com,,,,
,,,,,,,,,,,,russellinvestments.com,,,,
,,,,,,,,,,,,rwam.com,,,,
,,,,,,,,,,,,rwcadvisors.com,,,,
,,,,,,,,,,,,rwpensonfinancial.com,,,,
,,,,,,,,,,,,ryanlamontagne.com,,,,
,,,,,,,,,,,,ryco.ca,,,,
,,,,,,,,,,,,sabeyandco.ca,,,,
,,,,,,,,,,,,sabramskyfinancial.com,,,,
,,,,,,,,,,,,saderfinancial.com,,,,
,,,,,,,,,,,,safcorp.ca,,,,
,,,,,,,,,,,,safebridgefinancial.com,,,,
,,,,,,,,,,,,safeguard-ltd.com,,,,
,,,,,,,,,,,,sagefinancial.ca,,,,
,,,,,,,,,,,,sageview.ca,,,,
,,,,,,,,,,,,sagium.com,,,,
,,,,,,,,,,,,salmonarmfinancial.com,,,,
,,,,,,,,,,,,samicanada.com,,,,
,,,,,,,,,,,,sampiercy.com,,,,
,,,,,,,,,,,,sandramews.com,,,,
,,,,,,,,,,,,sandyandhugh.com,,,,
,,,,,,,,,,,,sanjeevmalik.ca,,,,
,,,,,,,,,,,,santorofinancial.com,,,,
,,,,,,,,,,,,sapiencefinancial.ca,,,,
,,,,,,,,,,,,sarkozi.ca,,,,
,,,,,,,,,,,,sarniaca.ca,,,,
,,,,,,,,,,,,saronafund.com,,,,
,,,,,,,,,,,,sascu.com,,,,
,,,,,,,,,,,,sascuwealth.com,,,,
,,,,,,,,,,,,saugeenfinancial.ca,,,,
,,,,,,,,,,,,sawyerandassociates.ca,,,,
,,,,,,,,,,,,sbfinancial.ca,,,,
,,,,,,,,,,,,sbminc.ca,,,,
,,,,,,,,,,,,sbwdirection.com,,,,
,,,,,,,,,,,,scheperfinancial.com,,,,
,,,,,,,,,,,,schmidt-cfp.ca,,,,
,,,,,,,,,,,,schneiderinsuranceinc.com,,,,
,,,,,,,,,,,,schroders.com,,,,
,,,,,,,,,,,,schulich.yorku.ca,,,,
,,,,,,,,,,,,scmic.ca,,,,
,,,,,,,,,,,,scottpichelli.com,,,,
,,,,,,,,,,,,scottpollock.ca,,,,
,,,,,,,,,,,,scottwolfe.ca,,,,
,,,,,,,,,,,,scpllp.com,,,,
,,,,,,,,,,,,scrimgeour.com,,,,
,,,,,,,,,,,,scrivens.ca,,,,
,,,,,,,,,,,,scu.mb.ca,,,,
,,,,,,,,,,,,sec.gov,,,,
,,,,,,,,,,,,secondhalfsolutions.com,,,,
,,,,,,,,,,,,securafinancial.com,,,,
,,,,,,,,,,,,secure-capital.com,,,,
,,,,,,,,,,,,securedfuture.ca,,,,
,,,,,,,,,,,,secureinsurance.ca,,,,
,,,,,,,,,,,,securityfinancial.ca,,,,
,,,,,,,,,,,,segalllp.com,,,,
,,,,,,,,,,,,seguinfinancial.com,,,,
,,,,,,,,,,,,sekine.ca,,,,
,,,,,,,,,,,,selectpath.ca,,,,
,,,,,,,,,,,,sellarsyates.com,,,,
,,,,,,,,,,,,sellors.org,,,,
,,,,,,,,,,,,senecacollege.ca,,,,
,,,,,,,,,,,,septen.com,,,,
,,,,,,,,,,,,septen.financial.com,,,,
,,,,,,,,,,,,servisswealth.com,,,,
,,,,,,,,,,,,servus.ca,,,,
,,,,,,,,,,,,sexsmithfinancial.com,,,,
,,,,,,,,,,,,sfcorp.ca,,,,
,,,,,,,,,,,,shawbiz.ca,,,,
,,,,,,,,,,,,shawcable.com,,,,
,,,,,,,,,,,,shawfinancialservices.ca,,,,
,,,,,,,,,,,,sheilamatson.ca,,,,
,,,,,,,,,,,,shelemey.com,,,,
,,,,,,,,,,,,shelleybd.ca,,,,
,,,,,,,,,,,,shelterbay.ca,,,,
,,,,,,,,,,,,shieldswealth.ca,,,,
,,,,,,,,,,,,sholdicefinancial.com,,,,
,,,,,,,,,,,,signetfinancial.com,,,,
,,,,,,,,,,,,silverberggroup.com,,,,
,,,,,,,,,,,,silverberginvestment.com,,,,
,,,,,,,,,,,,silvercompass.ca,,,,
,,,,,,,,,,,,simardandassociates.com,,,,
,,,,,,,,,,,,simonconsultingfps.ca,,,,
,,,,,,,,,,,,simoneiisi.com,,,,
,,,,,,,,,,,,simplicityfinancial.ca,,,,
,,,,,,,,,,,,simtech-scm.com,,,,
,,,,,,,,,,,,sindenfinancialgroup.com,,,,
,,,,,,,,,,,,singerolfert.com,,,,
,,,,,,,,,,,,sintic.info,,,,
,,,,,,,,,,,,sisip.com,,,,
,,,,,,,,,,,,sitarafinancial.com,,,,
,,,,,,,,,,,,skyeplanning.com,,,,
,,,,,,,,,,,,skylinc.net,,,,
,,,,,,,,,,,,sladewm.com,,,,
,,,,,,,,,,,,slaterwealth.ca,,,,
,,,,,,,,,,,,slf.ca,,,,
,,,,,,,,,,,,smartinvestments.bc.ca,,,,
,,,,,,,,,,,,smartsplitdivorce.com,,,,
,,,,,,,,,,,,smartymortgage.com,,,,
,,,,,,,,,,,,smginc.ca,,,,
,,,,,,,,,,,,smileyfinancial.com,,,,
,,,,,,,,,,,,smllp.ca,,,,
,,,,,,,,,,,,smokylake.ca,,,,
,,,,,,,,,,,,smythecpa.com,,,,
,,,,,,,,,,,,snipper.ca,,,,
,,,,,,,,,,,,snowdenfinancial.ca,,,,
,,,,,,,,,,,,softrontax.com,,,,
,,,,,,,,,,,,solguard.com,,,,
,,,,,,,,,,,,solidfin.com,,,,
,,,,,,,,,,,,solustrust.com,,,,
,,,,,,,,,,,,sonikasaggi.com,,,,
,,,,,,,,,,,,soperfinancial.ca,,,,
,,,,,,,,,,,,sorrell.ca,,,,
,,,,,,,,,,,,soundfs.ca,,,,
,,,,,,,,,,,,southdav.com,,,,
,,,,,,,,,,,,southwestcu.com,,,,
,,,,,,,,,,,,sovereignwealth.ca,,,,
,,,,,,,,,,,,sparkesfinancial.ca,,,,
,,,,,,,,,,,,specialtywealth.com,,,,
,,,,,,,,,,,,spectrum-financial.ca,,,,
,,,,,,,,,,,,spectrumfinancial.ca,,,,
,,,,,,,,,,,,speirwealth.com,,,,
,,,,,,,,,,,,spencefinancial.com,,,,
,,,,,,,,,,,,spera.tv,,,,
,,,,,,,,,,,,spminc.ca,,,,
,,,,,,,,,,,,springplans.ca,,,,
,,,,,,,,,,,,sprott.com,,,,
,,,,,,,,,,,,sprottwealth.com,,,,
,,,,,,,,,,,,ssfinancialgroup.ca,,,,
,,,,,,,,,,,,stallionfinancial.ca,,,,
,,,,,,,,,,,,stapferfinancial.com,,,,
,,,,,,,,,,,,starkmarsh.com,,,,
,,,,,,,,,,,,starviewfinancial.com,,,,
,,,,,,,,,,,,statefarm.com,,,,
,,,,,,,,,,,,stcyr.ca,,,,
,,,,,,,,,,,,steadyhand.com,,,,
,,,,,,,,,,,,steannetaxservice.ca,,,,
,,,,,,,,,,,,steedenfinancial.ca,,,,
,,,,,,,,,,,,steelefinancial.ca,,,,
,,,,,,,,,,,,steersinsurance.com,,,,
,,,,,,,,,,,,steinbergwealth.com,,,,
,,,,,,,,,,,,stellarmanagement.ca,,,,
,,,,,,,,,,,,stellarwealthgroup.com,,,,
,,,,,,,,,,,,stenning.com,,,,
,,,,,,,,,,,,stephenfinancial.com,,,,
,,,,,,,,,,,,stepright.ca,,,,
,,,,,,,,,,,,sterlingmutuals.com,,,,
,,,,,,,,,,,,sterlingwealthmgmt.com,,,,
,,,,,,,,,,,,steveburns.ca,,,,
,,,,,,,,,,,,stevecox.ca,,,,
,,,,,,,,,,,,stewartfinancial.ca,,,,
,,,,,,,,,,,,stewartfisher.com,,,,
,,,,,,,,,,,,stewartkett.com,,,,
,,,,,,,,,,,,stewartthomas.com,,,,
,,,,,,,,,,,,stier.ca,,,,
,,,,,,,,,,,,stillerfinancial.com,,,,
,,,,,,,,,,,,stollerwealth.com,,,,
,,,,,,,,,,,,stonegatepc.com,,,,
,,,,,,,,,,,,stonehaven-group.ca,,,,
,,,,,,,,,,,,stonehousefinancial.ca,,,,
,,,,,,,,,,,,stonetownfinancial.com,,,,
,,,,,,,,,,,,strandfinancial.ca,,,,
,,,,,,,,,,,,stratawealth.ca,,,,
,,,,,,,,,,,,strategicviewfinancial.com,,,,
,,,,,,,,,,,,strategicwealth.ca,,,,
,,,,,,,,,,,,stratfordfinancialplanning.com,,,,
,,,,,,,,,,,,strathconawealth.com,,,,
,,,,,,,,,,,,stronach-financial.com,,,,
,,,,,,,,,,,,successionprotection.com,,,,
,,,,,,,,,,,,sudburycu.com,,,,
,,,,,,,,,,,,sukhi.ca,,,,
,,,,,,,,,,,,summerlandfinancial.com,,,,
,,,,,,,,,,,,summitfinancial.bc.ca,,,,
,,,,,,,,,,,,summitwealth.ca,,,,
,,,,,,,,,,,,sunesisfinancial.com,,,,
,,,,,,,,,,,,sunrisefinancialplanning.com,,,,
,,,,,,,,,,,,sunstoneretirement.com,,,,
,,,,,,,,,,,,surepathgroup.ca,,,,
,,,,,,,,,,,,susancole.ca,,,,
,,,,,,,,,,,,susanleecfp.com,,,,
,,,,,,,,,,,,susanvint.ca,,,,
,,,,,,,,,,,,suttonfinancial.ca,,,,
,,,,,,,,,,,,svcu.mb.ca,,,,
,,,,,,,,,,,,sweeneybride.com,,,,
,,,,,,,,,,,,swellwealth.com,,,,
,,,,,,,,,,,,sworealty.ca,,,,
,,,,,,,,,,,,sylvialim.com,,,,
,,,,,,,,,,,,synergycu.ca,,,,
,,,,,,,,,,,,tacitacapital.com,,,,
,,,,,,,,,,,,tacticalassetmgmt.com,,,,
,,,,,,,,,,,,tacticawealth.com,,,,
,,,,,,,,,,,,talusia.com,,,,
,,,,,,,,,,,,tangerine.ca,,,,
,,,,,,,,,,,,tannerfinancial.ca,,,,
,,,,,,,,,,,,taskwealthadvisors.ca,,,,
,,,,,,,,,,,,tasman.ca,,,,
,,,,,,,,,,,,tatefinancial.ca,,,,
,,,,,,,,,,,,taxmanagementcentre.com,,,,
,,,,,,,,,,,,taxonweb.ca,,,,
,,,,,,,,,,,,taxvantage.ca,,,,
,,,,,,,,,,,,taylerinsurance.com,,,,
,,,,,,,,,,,,tcmfinancial.ca,,,,
,,,,,,,,,,,,tcu.sk.ca,,,,
,,,,,,,,,,,,tcuwm.sk.ca,,,,
,,,,,,,,,,,,tcwealth.ca,,,,
,,,,,,,,,,,,tdmoxam.com,,,,
,,,,,,,,,,,,teammaxfinancial.com,,,,
,,,,,,,,,,,,tednoakes.ca,,,,
,,,,,,,,,,,,tedpollock.ca,,,,
,,,,,,,,,,,,tejpar.ca,,,,
,,,,,,,,,,,,tenzing.ca,,,,
,,,,,,,,,,,,tepgroup.ca,,,,
,,,,,,,,,,,,teresayeung.com,,,,
,,,,,,,,,,,,terrafirmafinancial.ca,,,,
,,,,,,,,,,,,tewealth.com,,,,
,,,,,,,,,,,,tfpinvest.ca,,,,
,,,,,,,,,,,,tfsg.ca,,,,
,,,,,,,,,,,,tfsinc.ca,,,,
,,,,,,,,,,,,theabsolutegroup.com,,,,
,,,,,,,,,,,,thebucketlistprogram.com,,,,
,,,,,,,,,,,,thecoastgroup.ca,,,,
,,,,,,,,,,,,thefinancialadvisoronline.com,,,,
,,,,,,,,,,,,theheritagegroup.ca,,,,
,,,,,,,,,,,,theindexhouse.com,,,,
,,,,,,,,,,,,theinsurance.ca,,,,
,,,,,,,,,,,,theinsuranceexchange.ca,,,,
,,,,,,,,,,,,theintuerigroup.com,,,,
,,,,,,,,,,,,thekovalciks.ca,,,,
,,,,,,,,,,,,thenotarygroup.ca,,,,
,,,,,,,,,,,,theosticgroup.com,,,,
,,,,,,,,,,,,theplanners.ca,,,,
,,,,,,,,,,,,therightrelationship.com,,,,
,,,,,,,,,,,,thesteelegroup.ca,,,,
,,,,,,,,,,,,thetkgroup.com,,,,
,,,,,,,,,,,,thetowergroup.ca,,,,
,,,,,,,,,,,,thetylergroup.ca,,,,
,,,,,,,,,,,,thewealthadvisory.ca,,,,
,,,,,,,,,,,,thewealthyedge.ca,,,,
,,,,,,,,,,,,thian.ca,,,,
,,,,,,,,,,,,thinkcwea.com,,,,
,,,,,,,,,,,,thinkpelorus.ca,,,,
,,,,,,,,,,,,thomastong.com,,,,
,,,,,,,,,,,,thomsonallison.com,,,,
,,,,,,,,,,,,thornefinancial.ca,,,,
,,,,,,,,,,,,three60wealth.ca,,,,
,,,,,,,,,,,,threedegree.ca,,,,
,,,,,,,,,,,,thrivefinancialconsulting.ca,,,,
,,,,,,,,,,,,thrivewealth.ca,,,,
,,,,,,,,,,,,ticap.ca,,,,
,,,,,,,,,,,,tidalfinancial.ca,,,,
,,,,,,,,,,,,tieroneinvestments.ca,,,,
,,,,,,,,,,,,tieroneplanning.ca,,,,
,,,,,,,,,,,,tillsonburgcpa.ca,,,,
,,,,,,,,,,,,timcheng-ca.com,,,,
,,,,,,,,,,,,timeandmoney.ca,,,,
,,,,,,,,,,,,timmonsestate.com,,,,
,,,,,,,,,,,,tipperfinancial.com,,,,
,,,,,,,,,,,,tlmfinancial.com,,,,
,,,,,,,,,,,,tlsfinancial.com,,,,
,,,,,,,,,,,,tmfd.ca,,,,
,,,,,,,,,,,,tmsplanning.ca,,,,
,,,,,,,,,,,,toewsco.ca,,,,
,,,,,,,,,,,,toicwealth.com,,,,
,,,,,,,,,,,,tomlinsonandassociates.ca,,,,
,,,,,,,,,,,,tonilepore.ca,,,,
,,,,,,,,,,,,tonygilbert.ca,,,,
,,,,,,,,,,,,tonylauinsurance.com,,,,
,,,,,,,,,,,,toplinefinancial.ca,,,,
,,,,,,,,,,,,torcefinancial.com,,,,
,,,,,,,,,,,,towerwealth.com,,,,
,,,,,,,,,,,,tpcfinancial.com,,,,
,,,,,,,,,,,,tpcu.on.ca,,,,
,,,,,,,,,,,,tpg-nb.ca,,,,
,,,,,,,,,,,,tracywray.ca,,,,
,,,,,,,,,,,,transitionfinancial.com,,,,
,,,,,,,,,,,,trapezecapital.com,,,,
,,,,,,,,,,,,travisfinancial.ca,,,,
,,,,,,,,,,,,travisstrain.ca,,,,
,,,,,,,,,,,,trentiniwusyk.com,,,,
,,,,,,,,,,,,trevorfinancial.com,,,,
,,,,,,,,,,,,trggroup.com,,,,
,,,,,,,,,,,,tridelta.ca,,,,
,,,,,,,,,,,,trilliant.ca,,,,
,,,,,,,,,,,,trilogyfinancial.ca,,,,
,,,,,,,,,,,,trimaranfinancial.com,,,,
,,,,,,,,,,,,trinityfamilywealth.ca,,,,
,,,,,,,,,,,,trinityfinancial.ca,,,,
,,,,,,,,,,,,trinitywealthpartners.ca,,,,
,,,,,,,,,,,,triofinancialplanning.com,,,,
,,,,,,,,,,,,trotterassociates.com,,,,
,,,,,,,,,,,,truenorthretirement.ca,,,,
,,,,,,,,,,,,truenorthwealth.ca,,,,
,,,,,,,,,,,,truespectwealth.com,,,,
,,,,,,,,,,,,truewealth.ca,,,,
,,,,,,,,,,,,trufinancialgroup.com,,,,
,,,,,,,,,,,,trustedadvisor.ca,,,,
,,,,,,,,,,,,truvisionfinancial.com,,,,
,,,,,,,,,,,,tsechu.com,,,,
,,,,,,,,,,,,tullettprebon.com,,,,
,,,,,,,,,,,,twbf.ca,,,,
,,,,,,,,,,,,twcone.ca,,,,
,,,,,,,,,,,,twerdunwealth.com,,,,
,,,,,,,,,,,,twinpowerfinancial.com,,,,
,,,,,,,,,,,,tylerbradford.com,,,,
,,,,,,,,,,,,ubs.com,,,,
,,,,,,,,,,,,uhymh.com,,,,
,,,,,,,,,,,,ukrainiancu.com,,,,
,,,,,,,,,,,,uleth.ca,,,,
,,,,,,,,,,,,unbiasedadvice.com,,,,
,,,,,,,,,,,,uni.ca,,,,
,,,,,,,,,,,,unionnorth.ca,,,,
,,,,,,,,,,,,uniserve.com,,,,
,,,,,,,,,,,,unitedfinancial.ca,,,,
,,,,,,,,,,,,unitycu.ca,,,,
,,,,,,,,,,,,unityipltd.com,,,,
,,,,,,,,,,,,upclosewealth.com,,,,
,,,,,,,,,,,,usefulideas.com,,,,
,,,,,,,,,,,,valley.bc.ca,,,,
,,,,,,,,,,,,valleyfirst.com,,,,
,,,,,,,,,,,,valorton.com,,,,
,,,,,,,,,,,,vanceafinancial.com,,,,
,,,,,,,,,,,,vancity.com,,,,
,,,,,,,,,,,,vandermeerwealth.com,,,,
,,,,,,,,,,,,vanguard.com,,,,
,,,,,,,,,,,,vanguardgroup.ca,,,,
,,,,,,,,,,,,vankesterenwealth.com,,,,
,,,,,,,,,,,,vanseco.com,,,,
,,,,,,,,,,,,vantageone.net,,,,
,,,,,,,,,,,,vantagewealth.ca,,,,
,,,,,,,,,,,,vanveenfinancial.ca,,,,
,,,,,,,,,,,,vavefinancial.com,,,,
,,,,,,,,,,,,vbsca.ca,,,,
,,,,,,,,,,,,vcandk.com,,,,
,,,,,,,,,,,,vegaestateplan.ca,,,,
,,,,,,,,,,,,velawealth.com,,,,
,,,,,,,,,,,,venablepark.com,,,,
,,,,,,,,,,,,veracityfinancial.ca,,,,
,,,,,,,,,,,,verbeke.ca,,,,
,,,,,,,,,,,,vfpc.ca,,,,
,,,,,,,,,,,,vfswealth.com,,,,
,,,,,,,,,,,,viiicapital.com,,,,
,,,,,,,,,,,,vikingbenefit.ca,,,,
,,,,,,,,,,,,vikingfinsolutions.com,,,,
,,,,,,,,,,,,vincentlaminsinv.com,,,,
,,,,,,,,,,,,vincerocapital.com,,,,
,,,,,,,,,,,,vipmoneywise.com,,,,
,,,,,,,,,,,,viranifinancial.ca,,,,
,,,,,,,,,,,,virtusgroup.ca,,,,
,,,,,,,,,,,,visionfs.ca,,,,
,,,,,,,,,,,,visionvest.ca,,,,
,,,,,,,,,,,,visionwealth.ca,,,,
,,,,,,,,,,,,visionwm.ca,,,,
,,,,,,,,,,,,visualmoney.com,,,,
,,,,,,,,,,,,vitalpartnersinc.com,,,,
,,,,,,,,,,,,vogelsfinancial.com,,,,
,,,,,,,,,,,,volutiontax.ca,,,,
,,,,,,,,,,,,vonstackelberg.ca,,,,
,,,,,,,,,,,,vontobeladvisors.com,,,,
,,,,,,,,,,,,vpinvestmentcounsel.ca,,,,
,,,,,,,,,,,,vzca.com,,,,
,,,,,,,,,,,,w-u.on.ca,,,,
,,,,,,,,,,,,walhoutfinancial.ca,,,,
,,,,,,,,,,,,walkerfinancial.ca,,,,
,,,,,,,,,,,,walkerhouse.ca,,,,
,,,,,,,,,,,,wallerfinancial.com,,,,
,,,,,,,,,,,,wallisagencies.com,,,,
,,,,,,,,,,,,waltonfinancial.ca,,,,
,,,,,,,,,,,,wardenfinancial.com,,,,
,,,,,,,,,,,,warkentingroup.com,,,,
,,,,,,,,,,,,watchfp.ca,,,,
,,,,,,,,,,,,watersmeredith.com,,,,
,,,,,,,,,,,,wavecyclefunds.com,,,,
,,,,,,,,,,,,waverleycf.com,,,,
,,,,,,,,,,,,wawanesa.com,,,,
,,,,,,,,,,,,way2wealth.ca,,,,
,,,,,,,,,,,,waynepollo.com,,,,
,,,,,,,,,,,,waynerothe.com,,,,
,,,,,,,,,,,,waypointfinancial.ca,,,,
,,,,,,,,,,,,wcfs.ca,,,,
,,,,,,,,,,,,wcpd.com,,,,
,,,,,,,,,,,,wddevelopment.ca,,,,
,,,,,,,,,,,,wdg.ca,,,,
,,,,,,,,,,,,wdlatimer.com,,,,
,,,,,,,,,,,,wdsinvest.com,,,,
,,,,,,,,,,,,wealth-advisors.ca,,,,
,,,,,,,,,,,,wealth-max.com,,,,
,,,,,,,,,,,,wealth21st.com,,,,
,,,,,,,,,,,,wealthachievers.ca,,,,
,,,,,,,,,,,,wealtharchitects.ca,,,,
,,,,,,,,,,,,wealthavenue.ca,,,,
,,,,,,,,,,,,wealthbar.com,,,,
,,,,,,,,,,,,wealthbridge.com,,,,
,,,,,,,,,,,,wealthco.ca,,,,
,,,,,,,,,,,,wealthdesigngroup.ca,,,,
,,,,,,,,,,,,wealthdesigns.ca,,,,
,,,,,,,,,,,,wealthinsurance.com,,,,
,,,,,,,,,,,,wealthlinkfinancial.ca,,,,
,,,,,,,,,,,,wealthmobius.com,,,,
,,,,,,,,,,,,wealthmore.ca,,,,
,,,,,,,,,,,,wealthnavigationgroup.ca,,,,
,,,,,,,,,,,,wealthpartners.ca,,,,
,,,,,,,,,,,,wealthplanner.ca,,,,
,,,,,,,,,,,,wealthsensefinancial.com,,,,
,,,,,,,,,,,,wealthstewards.ca,,,,
,,,,,,,,,,,,wealthstrategies.com,,,,
,,,,,,,,,,,,wealthstrategists.ca,,,,
,,,,,,,,,,,,wealthterra.com,,,,
,,,,,,,,,,,,wealthwellness.ca,,,,
,,,,,,,,,,,,wealthwise.ca,,,,
,,,,,,,,,,,,wealthworks.com,,,,
,,,,,,,,,,,,wealthychoices.ca,,,,
,,,,,,,,,,,,wealthyplanning.com,,,,
,,,,,,,,,,,,weberfinancial.ca,,,,
,,,,,,,,,,,,welchllp.com,,,,
,,,,,,,,,,,,wellguardins.com,,,,
,,,,,,,,,,,,wellman1.com,,,,
,,,,,,,,,,,,wellsinsurance.ca,,,,
,,,,,,,,,,,,westdalefinancial.com,,,,
,,,,,,,,,,,,westernfg.ca,,,,
,,,,,,,,,,,,westlandinsurance.ca,,,,
,,,,,,,,,,,,westman.wave.ca,,,,
,,,,,,,,,,,,westmountwealth.com,,,,
,,,,,,,,,,,,westoba.com,,,,
,,,,,,,,,,,,westwardadvisors.com,,,,
,,,,,,,,,,,,weverfinancial.com,,,,
,,,,,,,,,,,,weyburncu.ca,,,,
,,,,,,,,,,,,wfgi.ca,,,,
,,,,,,,,,,,,whistlerca.com,,,,
,,,,,,,,,,,,whitbyinvestments.com,,,,
,,,,,,,,,,,,whitecapfinancial.ca,,,,
,,,,,,,,,,,,whitford.biz,,,,
,,,,,,,,,,,,whitleyfinancial.com,,,,
,,,,,,,,,,,,wickhaminvestments.com,,,,
,,,,,,,,,,,,wiegers.ca,,,,
,,,,,,,,,,,,wiffen.com,,,,
,,,,,,,,,,,,wightman.ca,,,,
,,,,,,,,,,,,wilkinson.net,,,,
,,,,,,,,,,,,willettfinancial.ca,,,,
,,,,,,,,,,,,williamambrock.com,,,,
,,,,,,,,,,,,williamjack.ca,,,,
,,,,,,,,,,,,williamsfg.ca,,,,
,,,,,,,,,,,,wilsonwm.com,,,,
,,,,,,,,,,,,wiltshirefinancial.ca,,,,
,,,,,,,,,,,,windfall.on.ca,,,,
,,,,,,,,,,,,winestonelaval.com,,,,
,,,,,,,,,,,,winsonlee.com,,,,
,,,,,,,,,,,,winterfinancial.ca,,,,
,,,,,,,,,,,,wiseadvisory.com,,,,
,,,,,,,,,,,,wiseriddell.ca,,,,
,,,,,,,,,,,,wkfinancial.ca,,,,
,,,,,,,,,,,,wkpatrick.ca,,,,
,,,,,,,,,,,,wldfs.com,,,,
,,,,,,,,,,,,wlwp.ca,,,,
,,,,,,,,,,,,wmwealth.ca,,,,
,,,,,,,,,,,,wolfondfinancial.ca,,,,
,,,,,,,,,,,,womenindivorce.ca,,,,
,,,,,,,,,,,,woodgate.com,,,,
,,,,,,,,,,,,woodhouseinsurance.ca,,,,
,,,,,,,,,,,,woolvett.ca,,,,
,,,,,,,,,,,,worldsourcesecurities.net,,,,
,,,,,,,,,,,,worldsourcewealth.com,,,,
,,,,,,,,,,,,worldsourcewealth.net,,,,
,,,,,,,,,,,,wpcu.ca,,,,
,,,,,,,,,,,,wpg-plan.com,,,,
,,,,,,,,,,,,wpllp.ca,,,,
,,,,,,,,,,,,wrgoc.ca,,,,
,,,,,,,,,,,,wrightandco.ca,,,,
,,,,,,,,,,,,wrpcgroup.ca,,,,
,,,,,,,,,,,,wscu.com,,,,
,,,,,,,,,,,,wwwcga.ca,,,,
,,,,,,,,,,,,wyse-fs.com,,,,
,,,,,,,,,,,,xplornet.com,,,,
,,,,,,,,,,,,yahoo.fr,,,,
,,,,,,,,,,,,yellowbrickrd.ca,,,,
,,,,,,,,,,,,yfgroup.ca,,,,
,,,,,,,,,,,,yis.ca,,,,
,,,,,,,,,,,,yorkalliance.com,,,,
,,,,,,,,,,,,yorkstreetfinancial.ca,,,,
,,,,,,,,,,,,yorkvilleasset.com,,,,
,,,,,,,,,,,,you-first.com,,,,
,,,,,,,,,,,,youngfinancial.ca,,,,
,,,,,,,,,,,,yourestatematters.ca,,,,
,,,,,,,,,,,,yourfinancialstrategist.onmicrosoft.com,,,,
,,,,,,,,,,,,yourfuturenow.ca,,,,
,,,,,,,,,,,,yourlegacy.ca,,,,
,,,,,,,,,,,,yourlifefinancial.ca,,,,
,,,,,,,,,,,,yourlifericher.com,,,,
,,,,,,,,,,,,yourlink.ca,,,,
,,,,,,,,,,,,yourstylefinancial.ca,,,,
,,,,,,,,,,,,yupc.ca,,,,
,,,,,,,,,,,,yutakafinancial.com,,,,
,,,,,,,,,,,,zfsgroup.ca,,,,
,,,,,,,,,,,,zlc.net,,,,
,,,,,,,,,,,,zoho.ca,,,,
,,,,,,,,,,,,zulian.ca,,,,
,,,,,,,,,,,,teresayeung.com,,,,
,,,,,,,,,,,,rbc.com,,,,
,,,,,,,,,,,,sunlife.com,,,,
,,,,,,,,,,,,peoplestrust.com,,,,